<?xml version="1.0" encoding="utf-8"?><gpx version="1.1" creator="MySchweizMobil - https://map.schweizmobil.ch/" xmlns:xsi="http://www.w3.org/2001/XMLSchema-instance" xmlns="http://www.topografix.com/GPX/1/1" xsi:schemaLocation="http://www.topografix.com/GPX/1/1 http://www.topografix.com/GPX/1/1/gpx.xsd"><metadata><name>Brienz to Planalp</name><bounds minlat="46.75746013130993" minlon="8.02012022677809" maxlat="46.77274028304964" maxlon="8.044440160971135" /></metadata><trk><name>Brienz to Planalp</name><trkseg><trkpt lat="46.75746013130993" lon="8.029490105807781"><ele>604.2699890136719</ele></trkpt><trkpt lat="46.75746013130993" lon="8.029500105883926"><ele>604.7699890136719</ele></trkpt><trkpt lat="46.75749013153836" lon="8.029540106188506"><ele>605.5</ele></trkpt><trkpt lat="46.757580131758004" lon="8.02959010656923"><ele>607.22998046875</ele></trkpt><trkpt lat="46.75769013212994" lon="8.029680106788874"><ele>609.5799865722656</ele></trkpt><trkpt lat="46.75773013243452" lon="8.029720107093453"><ele>610.4199829101562</ele></trkpt><trkpt lat="46.7577701327391" lon="8.029770107008517"><ele>611.3099975585938</ele></trkpt><trkpt lat="46.75779013289139" lon="8.02986010722816"><ele>612.3299865722656</ele></trkpt><trkpt lat="46.75781013304368" lon="8.029960107523948"><ele>613.4399719238281</ele></trkpt><trkpt lat="46.75782013358548" lon="8.030160107649863"><ele>615.239990234375</ele></trkpt><trkpt lat="46.75782013358548" lon="8.030220107641071"><ele>615.7999877929688</ele></trkpt><trkpt lat="46.75784013373777" lon="8.030340108089149"><ele>616.969970703125</ele></trkpt><trkpt lat="46.75788013404235" lon="8.030600108206272"><ele>619.1999816894531</ele></trkpt><trkpt lat="46.75791013473645" lon="8.030840108636767"><ele>621.219970703125</ele></trkpt><trkpt lat="46.75793013488874" lon="8.030920108780265"><ele>622.0199890136719</ele></trkpt><trkpt lat="46.75800013542175" lon="8.031120109371841"><ele>624.22998046875</ele></trkpt><trkpt lat="46.75813013641164" lon="8.031530109699816"><ele>629.0599975585938</ele></trkpt><trkpt lat="46.75814013648778" lon="8.031570110004395"><ele>629.4399719238281</ele></trkpt><trkpt lat="46.75820013647899" lon="8.031730110291392"><ele>631.4199829101562</ele></trkpt><trkpt lat="46.758270137012005" lon="8.03185011073947"><ele>633.2899780273438</ele></trkpt><trkpt lat="46.75830013724044" lon="8.031890110578388"><ele>633.9099731445312</ele></trkpt><trkpt lat="46.75836013769731" lon="8.03202011110261"><ele>635.9399719238281</ele></trkpt><trkpt lat="46.75842013768852" lon="8.032090111169964"><ele>637.5299987792969</ele></trkpt><trkpt lat="46.75854013860226" lon="8.032190111931413"><ele>640.5499877929688</ele></trkpt><trkpt lat="46.75861013866961" lon="8.032240112312138"><ele>642.3599853515625</ele></trkpt><trkpt lat="46.758680139202625" lon="8.032260112464428"><ele>643.7999877929688</ele></trkpt><trkpt lat="46.75875013926998" lon="8.032270112540573"><ele>644.969970703125</ele></trkpt><trkpt lat="46.75879013957456" lon="8.032260112464428"><ele>645.6799926757812</ele></trkpt><trkpt lat="46.75883013987914" lon="8.032250112853944"><ele>646.3899841308594</ele></trkpt><trkpt lat="46.758850139565766" lon="8.032360112760216"><ele>646.3199768066406</ele></trkpt><trkpt lat="46.758850139565766" lon="8.03245011297986"><ele>646.6099853515625</ele></trkpt><trkpt lat="46.758850139565766" lon="8.032520112581551"><ele>646.6999816894531</ele></trkpt><trkpt lat="46.75884013995528" lon="8.03262011287734"><ele>646.7699890136719</ele></trkpt><trkpt lat="46.75882013980299" lon="8.0327501129359"><ele>647.0999755859375</ele></trkpt><trkpt lat="46.75881013972685" lon="8.032850112766027"><ele>647.3599853515625</ele></trkpt><trkpt lat="46.758800140116364" lon="8.032930112909526"><ele>647.7599792480469</ele></trkpt><trkpt lat="46.758800140116364" lon="8.033000112976879"><ele>647.8299865722656</ele></trkpt><trkpt lat="46.75882013980299" lon="8.033200113102794"><ele>647.8399963378906</ele></trkpt><trkpt lat="46.75882013980299" lon="8.03328011278063"><ele>647.739990234375</ele></trkpt><trkpt lat="46.75885014003143" lon="8.033380113076419"><ele>648.0</ele></trkpt><trkpt lat="46.75886014010757" lon="8.033410112839192"><ele>648.0899963378906</ele></trkpt><trkpt lat="46.75888014025986" lon="8.033440113067627"><ele>648.3899841308594</ele></trkpt><trkpt lat="46.75890014041215" lon="8.033520113211125"><ele>649.2699890136719</ele></trkpt><trkpt lat="46.7589101404883" lon="8.033580113202333"><ele>650.1499938964844</ele></trkpt><trkpt lat="46.7589101404883" lon="8.033620113506913"><ele>650.6699829101562</ele></trkpt><trkpt lat="46.7589101404883" lon="8.033660113811493"><ele>651.3699951171875</ele></trkpt><trkpt lat="46.75890014087781" lon="8.033680113498122"><ele>651.5999755859375</ele></trkpt><trkpt lat="46.75887014064938" lon="8.033690113574266"><ele>651.7799987792969</ele></trkpt><trkpt lat="46.75886014057323" lon="8.033710113726556"><ele>651.7599792480469</ele></trkpt><trkpt lat="46.758860141038895" lon="8.033750113565475"><ele>651.8199768066406</ele></trkpt><trkpt lat="46.75890014087781" lon="8.033750113565475"><ele>652.3099975585938</ele></trkpt><trkpt lat="46.75891014095396" lon="8.03376011364162"><ele>652.3799743652344</ele></trkpt><trkpt lat="46.75891014095396" lon="8.03378011379391"><ele>652.5299987792969</ele></trkpt><trkpt lat="46.75888014072552" lon="8.033980113919824"><ele>652.5099792480469</ele></trkpt><trkpt lat="46.75887014111504" lon="8.034100113902241"><ele>653.5899963378906</ele></trkpt><trkpt lat="46.75872014230117" lon="8.034340114798397"><ele>659.1899719238281</ele></trkpt><trkpt lat="46.75871014269069" lon="8.034380115102977"><ele>660.0999755859375</ele></trkpt><trkpt lat="46.75870014261454" lon="8.034460115246475"><ele>661.5199890136719</ele></trkpt><trkpt lat="46.758740143850446" lon="8.03468011599034"><ele>666.0599975585938</ele></trkpt><trkpt lat="46.758740143850446" lon="8.034750116057694"><ele>667.6099853515625</ele></trkpt><trkpt lat="46.75874014431611" lon="8.034820116590708"><ele>668.739990234375</ele></trkpt><trkpt lat="46.75872014509514" lon="8.03499011695385"><ele>672.0499877929688</ele></trkpt><trkpt lat="46.758710145018995" lon="8.035090117249638"><ele>673.6799926757812</ele></trkpt><trkpt lat="46.75871014595032" lon="8.03524011792615"><ele>676.5999755859375</ele></trkpt><trkpt lat="46.75871014641598" lon="8.035370117984712"><ele>678.739990234375</ele></trkpt><trkpt lat="46.758720146492124" lon="8.035440118052065"><ele>679.72998046875</ele></trkpt><trkpt lat="46.75875014672056" lon="8.035600118339062"><ele>681.6899719238281</ele></trkpt><trkpt lat="46.758800147566944" lon="8.035770118702203"><ele>684.0499877929688</ele></trkpt><trkpt lat="46.75882014725357" lon="8.035830119159073"><ele>684.6099853515625</ele></trkpt><trkpt lat="46.75883014779538" lon="8.035840119235218"><ele>685.1699829101562</ele></trkpt><trkpt lat="46.75889014778659" lon="8.035770119633526"><ele>687.1799926757812</ele></trkpt><trkpt lat="46.75906014908105" lon="8.035570120438933"><ele>692.97998046875</ele></trkpt><trkpt lat="46.759090149309486" lon="8.035570120438933"><ele>693.7599792480469</ele></trkpt><trkpt lat="46.75912015000358" lon="8.035690120887011"><ele>696.5399780273438</ele></trkpt><trkpt lat="46.75921015068889" lon="8.035890121478587"><ele>700.5999755859375</ele></trkpt><trkpt lat="46.75922015076503" lon="8.035910121630877"><ele>701.2099914550781</ele></trkpt><trkpt lat="46.759410152211785" lon="8.035710122901946"><ele>707.239990234375</ele></trkpt><trkpt lat="46.75957015296444" lon="8.035590123385191"><ele>712.1199951171875</ele></trkpt><trkpt lat="46.75964015349746" lon="8.035510123707354"><ele>714.2799987792969</ele></trkpt><trkpt lat="46.75966015364975" lon="8.03548012394458"><ele>715.0899963378906</ele></trkpt><trkpt lat="46.7597601544112" lon="8.03539012465626"><ele>718.3799743652344</ele></trkpt><trkpt lat="46.75981015479192" lon="8.035320124588907"><ele>720.3299865722656</ele></trkpt><trkpt lat="46.75989015540108" lon="8.035220125224441"><ele>723.4599914550781</ele></trkpt><trkpt lat="46.759920155629516" lon="8.035210125613958"><ele>724.3899841308594</ele></trkpt><trkpt lat="46.75995015585795" lon="8.035250125452876"><ele>725.6299743652344</ele></trkpt><trkpt lat="46.759980156086385" lon="8.035360125824809"><ele>727.75</ele></trkpt><trkpt lat="46.76001015678048" lon="8.035410126205534"><ele>729.3099975585938</ele></trkpt><trkpt lat="46.760040156543255" lon="8.035450126510113"><ele>729.8299865722656</ele></trkpt><trkpt lat="46.76007015677169" lon="8.035470126196742"><ele>730.0599975585938</ele></trkpt><trkpt lat="46.76010015653446" lon="8.035480126272887"><ele>730.1199951171875</ele></trkpt><trkpt lat="46.7601301567629" lon="8.035500126425177"><ele>730.0699768066406</ele></trkpt><trkpt lat="46.760210156906396" lon="8.035540126264095"><ele>730.1799926757812</ele></trkpt><trkpt lat="46.76026015682146" lon="8.03557012649253"><ele>730.5</ele></trkpt><trkpt lat="46.76037015719339" lon="8.035650126636028"><ele>732.1599731445312</ele></trkpt><trkpt lat="46.76047015748918" lon="8.035720127169043"><ele>734.5899963378906</ele></trkpt><trkpt lat="46.76049015764147" lon="8.035750127397478"><ele>735.47998046875</ele></trkpt><trkpt lat="46.760500157717615" lon="8.035790127236396"><ele>736.1299743652344</ele></trkpt><trkpt lat="46.76051015825942" lon="8.035850127693266"><ele>737.0199890136719</ele></trkpt><trkpt lat="46.76042015943676" lon="8.036290128715336"><ele>743.9199829101562</ele></trkpt><trkpt lat="46.76041015982628" lon="8.036440128926188"><ele>746.0999755859375</ele></trkpt><trkpt lat="46.760400160681456" lon="8.036690129432827"><ele>749.8399963378906</ele></trkpt><trkpt lat="46.76039016246796" lon="8.0373001312837"><ele>758.5599975585938</ele></trkpt><trkpt lat="46.760400163475424" lon="8.037630131933838"><ele>763.47998046875</ele></trkpt><trkpt lat="46.76042016455904" lon="8.03795013250783"><ele>768.5699768066406</ele></trkpt><trkpt lat="46.76045016478747" lon="8.03803013311699"><ele>770.469970703125</ele></trkpt><trkpt lat="46.76048016548157" lon="8.038100133184344"><ele>772.1599731445312</ele></trkpt><trkpt lat="46.760520165320486" lon="8.038140133488923"><ele>773.5799865722656</ele></trkpt><trkpt lat="46.76061016600579" lon="8.038160134106874"><ele>776.1499938964844</ele></trkpt><trkpt lat="46.760640166234225" lon="8.038180134259164"><ele>777.1699829101562</ele></trkpt><trkpt lat="46.760660166386515" lon="8.0382101344876"><ele>778.1999816894531</ele></trkpt><trkpt lat="46.76069016661495" lon="8.038250134326518"><ele>779.2099914550781</ele></trkpt><trkpt lat="46.760720167309046" lon="8.038390134926885"><ele>782.0799865722656</ele></trkpt><trkpt lat="46.76073016738519" lon="8.038450134918094"><ele>783.2099914550781</ele></trkpt><trkpt lat="46.76072016824037" lon="8.038610135670751"><ele>786.5399780273438</ele></trkpt><trkpt lat="46.760730168782175" lon="8.03869013581425"><ele>788.5999755859375</ele></trkpt><trkpt lat="46.760730168782175" lon="8.038780136499554"><ele>790.5899963378906</ele></trkpt><trkpt lat="46.760750169400126" lon="8.038840136490762"><ele>792.8799743652344</ele></trkpt><trkpt lat="46.76075016986579" lon="8.038970137014985"><ele>794.4399719238281</ele></trkpt><trkpt lat="46.76078017055988" lon="8.03923013759777"><ele>799.2699890136719</ele></trkpt><trkpt lat="46.76081017125398" lon="8.039300138130784"><ele>801.4099731445312</ele></trkpt><trkpt lat="46.760840171482414" lon="8.039290138054639"><ele>801.6699829101562</ele></trkpt><trkpt lat="46.760860171634704" lon="8.03946013841778"><ele>803.9399719238281</ele></trkpt><trkpt lat="46.760880172252655" lon="8.039570138789713"><ele>806.2599792480469</ele></trkpt><trkpt lat="46.760880172718316" lon="8.039670139085501"><ele>808.0799865722656</ele></trkpt><trkpt lat="46.76089017279446" lon="8.03977013938129"><ele>809.989990234375</ele></trkpt><trkpt lat="46.76089017326012" lon="8.039860139600933"><ele>811.1099853515625</ele></trkpt><trkpt lat="46.761000173632056" lon="8.039690139703453"><ele>812.72998046875</ele></trkpt><trkpt lat="46.761000173632056" lon="8.03979013999924"><ele>814.3399963378906</ele></trkpt><trkpt lat="46.76099017402157" lon="8.039860140532255"><ele>816.2599792480469</ele></trkpt><trkpt lat="46.76099017448723" lon="8.039920140523463"><ele>817.3299865722656</ele></trkpt><trkpt lat="46.76103017479181" lon="8.039980140980333"><ele>818.719970703125</ele></trkpt><trkpt lat="46.76108017517254" lon="8.040000141132623"><ele>820.1899719238281</ele></trkpt><trkpt lat="46.76113017555326" lon="8.04001014167443"><ele>822.1099853515625</ele></trkpt><trkpt lat="46.761200175620615" lon="8.040030141826719"><ele>823.6299743652344</ele></trkpt><trkpt lat="46.761240175925195" lon="8.040080141741782"><ele>824.8899841308594</ele></trkpt><trkpt lat="46.76127017615363" lon="8.040140142198652"><ele>826.1099853515625</ele></trkpt><trkpt lat="46.76127017615363" lon="8.040170141961426"><ele>826.5799865722656</ele></trkpt><trkpt lat="46.76126017700881" lon="8.040370142553002"><ele>829.2899780273438</ele></trkpt><trkpt lat="46.76124017732218" lon="8.040440142620355"><ele>830.6999816894531</ele></trkpt><trkpt lat="46.761230177711695" lon="8.04051014315337"><ele>832.4099731445312</ele></trkpt><trkpt lat="46.761230177711695" lon="8.040580143220723"><ele>834.1099853515625</ele></trkpt><trkpt lat="46.76126017840579" lon="8.040640143677592"><ele>835.7899780273438</ele></trkpt><trkpt lat="46.76130017871037" lon="8.04076014412567"><ele>839.2899780273438</ele></trkpt><trkpt lat="46.76133017940447" lon="8.040900144726038"><ele>842.7699890136719</ele></trkpt><trkpt lat="46.76135018002242" lon="8.041040145326406"><ele>845.7099914550781</ele></trkpt><trkpt lat="46.76147018186748" lon="8.041370146442205"><ele>853.0699768066406</ele></trkpt><trkpt lat="46.76151018217206" lon="8.041530147194862"><ele>855.9399719238281</ele></trkpt><trkpt lat="46.76151018263772" lon="8.041530147194862"><ele>856.9399719238281</ele></trkpt><trkpt lat="46.76151018217206" lon="8.041530146729201"><ele>854.5099792480469</ele></trkpt><trkpt lat="46.76151018217206" lon="8.041530147194862"><ele>855.9399719238281</ele></trkpt><trkpt lat="46.761540182866156" lon="8.041650147177279"><ele>857.9299926757812</ele></trkpt><trkpt lat="46.76161018339917" lon="8.041760148014873"><ele>861.239990234375</ele></trkpt><trkpt lat="46.76173018477857" lon="8.04194014891982"><ele>868.1699829101562</ele></trkpt><trkpt lat="46.76184018608183" lon="8.042110150214285"><ele>875.1799926757812</ele></trkpt><trkpt lat="46.76192018715665" lon="8.042280151043087"><ele>880.8199768066406</ele></trkpt><trkpt lat="46.76197018800303" lon="8.04241015156731"><ele>884.7899780273438</ele></trkpt><trkpt lat="46.76202018884942" lon="8.04249015217647"><ele>887.4599914550781</ele></trkpt><trkpt lat="46.762070189230144" lon="8.04253015248105"><ele>889.739990234375</ele></trkpt><trkpt lat="46.76208018930629" lon="8.042600152548403"><ele>891.0799865722656</ele></trkpt><trkpt lat="46.76210018945858" lon="8.0426801526919"><ele>892.0399780273438</ele></trkpt><trkpt lat="46.762130190152675" lon="8.04276015330106"><ele>895.0499877929688</ele></trkpt><trkpt lat="46.76217019138858" lon="8.042910153977573"><ele>899.719970703125</ele></trkpt><trkpt lat="46.76219019154087" lon="8.042950154282153"><ele>900.4399719238281</ele></trkpt><trkpt lat="46.76222019130364" lon="8.042980154510587"><ele>901.0299987792969</ele></trkpt><trkpt lat="46.762230191379786" lon="8.04307015426457"><ele>901.7799987792969</ele></trkpt><trkpt lat="46.76231019292027" lon="8.04336015554145"><ele>908.4399719238281</ele></trkpt><trkpt lat="46.762340193614364" lon="8.043470155913383"><ele>911.6399841308594</ele></trkpt><trkpt lat="46.762340194545686" lon="8.043690156657249"><ele>915.9199829101562</ele></trkpt><trkpt lat="46.76238019531593" lon="8.043800157494843"><ele>918.9599914550781</ele></trkpt><trkpt lat="46.7624401957728" lon="8.043970157857984"><ele>922.1999816894531</ele></trkpt><trkpt lat="46.76248019607738" lon="8.044080158229917"><ele>923.4099731445312</ele></trkpt><trkpt lat="46.762520196381956" lon="8.04417015844956"><ele>924.9099731445312</ele></trkpt><trkpt lat="46.762560196686536" lon="8.044220158364624"><ele>926.5099792480469</ele></trkpt><trkpt lat="46.76261019706726" lon="8.044280158821493"><ele>929.0</ele></trkpt><trkpt lat="46.762660197447985" lon="8.044300158973783"><ele>930.4499816894531</ele></trkpt><trkpt lat="46.762700197752565" lon="8.04431015951559"><ele>931.4299926757812</ele></trkpt><trkpt lat="46.762740197591484" lon="8.044300159439445"><ele>931.7999877929688</ele></trkpt><trkpt lat="46.76277019781992" lon="8.044300159439445"><ele>931.969970703125</ele></trkpt><trkpt lat="46.76284019835293" lon="8.044300159905106"><ele>933.9499816894531</ele></trkpt><trkpt lat="46.76288019819185" lon="8.044300159905106"><ele>935.2599792480469</ele></trkpt><trkpt lat="46.76290019834414" lon="8.04433016013354"><ele>935.97998046875</ele></trkpt><trkpt lat="46.762930198572576" lon="8.044370159972459"><ele>936.6699829101562</ele></trkpt><trkpt lat="46.76296019880101" lon="8.044400160200894"><ele>937.989990234375</ele></trkpt><trkpt lat="46.763010199181736" lon="8.044440160505474"><ele>939.4499816894531</ele></trkpt><trkpt lat="46.763030199334025" lon="8.044440160971135"><ele>940.3999938964844</ele></trkpt><trkpt lat="46.76304019941017" lon="8.044420160818845"><ele>941.3099975585938</ele></trkpt><trkpt lat="46.76304019987583" lon="8.044370160903782"><ele>942.2099914550781</ele></trkpt><trkpt lat="46.76305019995198" lon="8.04430016130209"><ele>943.219970703125</ele></trkpt><trkpt lat="46.76305020041764" lon="8.044260161463171"><ele>944.1799926757812</ele></trkpt><trkpt lat="46.76307020056993" lon="8.044260161463171"><ele>944.9399719238281</ele></trkpt><trkpt lat="46.76311020087451" lon="8.044310161843896"><ele>946.3799743652344</ele></trkpt><trkpt lat="46.76316020078957" lon="8.04436016222462"><ele>947.97998046875</ele></trkpt><trkpt lat="46.76318020140752" lon="8.044330162461847"><ele>949.3699951171875</ele></trkpt><trkpt lat="46.76320020155981" lon="8.044330162461847"><ele>949.7599792480469</ele></trkpt><trkpt lat="46.76323020178825" lon="8.044330162461847"><ele>950.9299926757812</ele></trkpt><trkpt lat="46.76328020170331" lon="8.044330162461847"><ele>952.1099853515625</ele></trkpt><trkpt lat="46.763310201931745" lon="8.044320162851363"><ele>952.97998046875</ele></trkpt><trkpt lat="46.763330202084035" lon="8.044300163164735"><ele>953.8699951171875</ele></trkpt><trkpt lat="46.76334020262584" lon="8.044260163325816"><ele>954.989990234375</ele></trkpt><trkpt lat="46.76334020262584" lon="8.044210163410753"><ele>956.3199768066406</ele></trkpt><trkpt lat="46.7633402030915" lon="8.044110163580626"><ele>958.2599792480469</ele></trkpt><trkpt lat="46.76335020363331" lon="8.043990164063871"><ele>960.8999938964844</ele></trkpt><trkpt lat="46.7633702037856" lon="8.043980164453387"><ele>961.8299865722656</ele></trkpt><trkpt lat="46.76343020424247" lon="8.044040164444596"><ele>964.1799926757812</ele></trkpt><trkpt lat="46.76347020454705" lon="8.044050164986402"><ele>965.6299743652344</ele></trkpt><trkpt lat="46.7636602059938" lon="8.043940166011453"><ele>973.0599975585938</ele></trkpt><trkpt lat="46.76378020690754" lon="8.043870166875422"><ele>978.0799865722656</ele></trkpt><trkpt lat="46.76382020767778" lon="8.043810167349875"><ele>980.219970703125</ele></trkpt><trkpt lat="46.76384020783007" lon="8.043740167282522"><ele>981.8999938964844</ele></trkpt><trkpt lat="46.76393020898104" lon="8.043520168401301"><ele>987.5999755859375</ele></trkpt><trkpt lat="46.76399020943791" lon="8.043440168723464"><ele>989.6599731445312</ele></trkpt><trkpt lat="46.76401021005586" lon="8.043400168884546"><ele>991.72998046875</ele></trkpt><trkpt lat="46.764080211054534" lon="8.043240169994533"><ele>997.0099792480469</ele></trkpt><trkpt lat="46.76415021158755" lon="8.043150170706213"><ele>1000.3399963378906</ele></trkpt><trkpt lat="46.764250212349" lon="8.043060171417892"><ele>1004.8799743652344</ele></trkpt><trkpt lat="46.76435021404177" lon="8.042960172053427"><ele>1011.0999755859375</ele></trkpt><trkpt lat="46.76443021465093" lon="8.042790173087269"><ele>1015.6799926757812</ele></trkpt><trkpt lat="46.76450021518394" lon="8.042720173019916"><ele>1016.7599792480469</ele></trkpt><trkpt lat="46.76456021517515" lon="8.042640173342079"><ele>1018.5699768066406</ele></trkpt><trkpt lat="46.764630215708166" lon="8.04262017365545"><ele>1020.97998046875</ele></trkpt><trkpt lat="46.76468021655455" lon="8.042600174434483"><ele>1023.3999938964844</ele></trkpt><trkpt lat="46.76472021685913" lon="8.04257017467171"><ele>1025.6699829101562</ele></trkpt><trkpt lat="46.76476021716371" lon="8.042520175222307"><ele>1028.25</ele></trkpt><trkpt lat="46.76478021778166" lon="8.042470175307244"><ele>1029.3799743652344</ele></trkpt><trkpt lat="46.76484021823853" lon="8.04246017569676"><ele>1032.3199768066406</ele></trkpt><trkpt lat="46.76489021861926" lon="8.042410176247358"><ele>1034.5899963378906</ele></trkpt><trkpt lat="46.76493021892384" lon="8.04235017625615"><ele>1036.3099975585938</ele></trkpt><trkpt lat="46.76535022165626" lon="8.042080178391188"><ele>1049.5999755859375</ele></trkpt><trkpt lat="46.76552022295073" lon="8.041910179425031"><ele>1056.1599731445312</ele></trkpt><trkpt lat="46.765700224321336" lon="8.041750180535018"><ele>1063.3599853515625</ele></trkpt><trkpt lat="46.765760224778205" lon="8.041690181009471"><ele>1065.0099792480469</ele></trkpt><trkpt lat="46.765950224362314" lon="8.041560180485249"><ele>1062.8999938964844</ele></trkpt><trkpt lat="46.76599022420123" lon="8.041510180570185"><ele>1061.6399841308594</ele></trkpt><trkpt lat="46.766020223964006" lon="8.041450180578977"><ele>1061.5599975585938</ele></trkpt><trkpt lat="46.766040224116296" lon="8.041390180587769"><ele>1061.75</ele></trkpt><trkpt lat="46.766080224420875" lon="8.041280180681497"><ele>1063.3999938964844</ele></trkpt><trkpt lat="46.76628022501245" lon="8.041260180994868"><ele>1066.1299743652344</ele></trkpt><trkpt lat="46.766410225536674" lon="8.04124018130824"><ele>1067.9199829101562</ele></trkpt><trkpt lat="46.76648022560403" lon="8.041220181621611"><ele>1068.8599853515625</ele></trkpt><trkpt lat="46.76655022567138" lon="8.041180181782693"><ele>1069.969970703125</ele></trkpt><trkpt lat="46.76663022628054" lon="8.04113018186763"><ele>1071.3099975585938</ele></trkpt><trkpt lat="46.76670022634789" lon="8.041100182104856"><ele>1072.3599853515625</ele></trkpt><trkpt lat="46.76680022664368" lon="8.041060182265937"><ele>1073.8699951171875</ele></trkpt><trkpt lat="46.766930227167904" lon="8.041040182579309"><ele>1075.5899963378906</ele></trkpt><trkpt lat="46.767020226921886" lon="8.04100018274039"><ele>1076.0599975585938</ele></trkpt><trkpt lat="46.76717022713274" lon="8.040900182444602"><ele>1075.469970703125</ele></trkpt><trkpt lat="46.76732022687793" lon="8.040830182377249"><ele>1074.489990234375</ele></trkpt><trkpt lat="46.767420226708055" lon="8.04077018238604"><ele>1073.489990234375</ele></trkpt><trkpt lat="46.76747022662312" lon="8.040760182309896"><ele>1073.0499877929688</ele></trkpt><trkpt lat="46.767570226453245" lon="8.040760182309896"><ele>1072.0</ele></trkpt><trkpt lat="46.76767022628337" lon="8.04075018176809"><ele>1071.0199890136719</ele></trkpt><trkpt lat="46.76775022596121" lon="8.0407301816158"><ele>1070.47998046875</ele></trkpt><trkpt lat="46.76778022572398" lon="8.040720182005316"><ele>1070.25</ele></trkpt><trkpt lat="46.76788022601977" lon="8.040670181624591"><ele>1070.5199890136719</ele></trkpt><trkpt lat="46.76800022600219" lon="8.040630181785673"><ele>1071.25</ele></trkpt><trkpt lat="46.76807022606954" lon="8.0406001820229"><ele>1071.97998046875</ele></trkpt><trkpt lat="46.76813022652641" lon="8.040590182412416"><ele>1072.7699890136719</ele></trkpt><trkpt lat="46.76816022628918" lon="8.040590182412416"><ele>1073.0899963378906</ele></trkpt><trkpt lat="46.76824022689834" lon="8.04062018264085"><ele>1074.2899780273438</ele></trkpt><trkpt lat="46.76834022719413" lon="8.040680182632059"><ele>1075.5199890136719</ele></trkpt><trkpt lat="46.76843022741377" lon="8.040710182860494"><ele>1076.5999755859375</ele></trkpt><trkpt lat="46.768540227320045" lon="8.040710182860494"><ele>1077.6699829101562</ele></trkpt><trkpt lat="46.76862022746354" lon="8.040720182936639"><ele>1078.5799865722656</ele></trkpt><trkpt lat="46.76868022792041" lon="8.040740183088928"><ele>1079.1199951171875</ele></trkpt><trkpt lat="46.768770227674395" lon="8.040800183545798"><ele>1079.8299865722656</ele></trkpt><trkpt lat="46.76891022827476" lon="8.041030183434486"><ele>1081.1099853515625</ele></trkpt><trkpt lat="46.769000228494406" lon="8.041150183882564"><ele>1081.7699890136719</ele></trkpt><trkpt lat="46.76914022862911" lon="8.041320184245706"><ele>1083.72998046875</ele></trkpt><trkpt lat="46.76922022877261" lon="8.041440184228122"><ele>1084.72998046875</ele></trkpt><trkpt lat="46.76922022877261" lon="8.041420184075832"><ele>1084.9199829101562</ele></trkpt><trkpt lat="46.769230228848755" lon="8.041360184084624"><ele>1085.5199890136719</ele></trkpt><trkpt lat="46.76921022916213" lon="8.041300184559077"><ele>1087.0199890136719</ele></trkpt><trkpt lat="46.76922022923827" lon="8.041290184482932"><ele>1087.489990234375</ele></trkpt><trkpt lat="46.76926022954285" lon="8.041300184559077"><ele>1088.0499877929688</ele></trkpt><trkpt lat="46.769370229914784" lon="8.041330185253173"><ele>1090.8899841308594</ele></trkpt><trkpt lat="46.76940023014322" lon="8.041330185253173"><ele>1091.6499938964844</ele></trkpt><trkpt lat="46.769410230219364" lon="8.0413001854904"><ele>1092.2099914550781</ele></trkpt><trkpt lat="46.769410230685025" lon="8.041260185651481"><ele>1093.47998046875</ele></trkpt><trkpt lat="46.769410230685025" lon="8.041230185888708"><ele>1094.1399841308594</ele></trkpt><trkpt lat="46.7693902309984" lon="8.0411701858975"><ele>1095.4199829101562</ele></trkpt><trkpt lat="46.76935023162514" lon="8.041040186304599"><ele>1098.5899963378906</ele></trkpt><trkpt lat="46.769340232014656" lon="8.041010186541826"><ele>1099.0299987792969</ele></trkpt><trkpt lat="46.7693502320908" lon="8.040950186550617"><ele>1100.0299987792969</ele></trkpt><trkpt lat="46.769360232166946" lon="8.04087018687278"><ele>1101.4099731445312</ele></trkpt><trkpt lat="46.76939023286104" lon="8.040690187364817"><ele>1103.9099731445312</ele></trkpt><trkpt lat="46.76938023325056" lon="8.040600187610835"><ele>1105.1199951171875</ele></trkpt><trkpt lat="46.76938023325056" lon="8.040500187780708"><ele>1106.8699951171875</ele></trkpt><trkpt lat="46.76938023371622" lon="8.040410188026726"><ele>1107.969970703125</ele></trkpt><trkpt lat="46.7693702345714" lon="8.040270188357681"><ele>1111.7599792480469</ele></trkpt><trkpt lat="46.76936023449525" lon="8.040220188908279"><ele>1112.5999755859375</ele></trkpt><trkpt lat="46.7694602352567" lon="8.040020189248025"><ele>1117.1499938964844</ele></trkpt><trkpt lat="46.76951023610309" lon="8.039910189807415"><ele>1119.0899963378906</ele></trkpt><trkpt lat="46.76957023655996" lon="8.039710190612823"><ele>1123.2099914550781</ele></trkpt><trkpt lat="46.76959023717791" lon="8.039650190621614"><ele>1124.9199829101562</ele></trkpt><trkpt lat="46.7696102373302" lon="8.03964019101113"><ele>1125.6699829101562</ele></trkpt><trkpt lat="46.76964023755863" lon="8.03970019100234"><ele>1127.3599853515625</ele></trkpt><trkpt lat="46.76965023763478" lon="8.039800191298127"><ele>1128.1099853515625</ele></trkpt><trkpt lat="46.769680238328874" lon="8.039960191585124"><ele>1130.9499816894531</ele></trkpt><trkpt lat="46.76971023855731" lon="8.040060191880912"><ele>1132.9199829101562</ele></trkpt><trkpt lat="46.76978023909032" lon="8.040170192252845"><ele>1135.4499816894531</ele></trkpt><trkpt lat="46.7698202393949" lon="8.040250192396343"><ele>1136.8099975585938</ele></trkpt><trkpt lat="46.76986023969948" lon="8.040290192700922"><ele>1137.4499816894531</ele></trkpt><trkpt lat="46.769910239614546" lon="8.040330193005502"><ele>1138.3199768066406</ele></trkpt><trkpt lat="46.76998024061322" lon="8.040480193216354"><ele>1141.5299987792969</ele></trkpt><trkpt lat="46.77004024107009" lon="8.040560193825513"><ele>1143.7699890136719</ele></trkpt><trkpt lat="46.77008024137467" lon="8.040630193892866"><ele>1145.469970703125</ele></trkpt><trkpt lat="46.770110241137445" lon="8.040660194121301"><ele>1145.9099731445312</ele></trkpt><trkpt lat="46.770130241289735" lon="8.040660194121301"><ele>1146.5099792480469</ele></trkpt><trkpt lat="46.77011024253443" lon="8.040410195011646"><ele>1152.489990234375</ele></trkpt><trkpt lat="46.77010024338961" lon="8.040210195817053"><ele>1156.469970703125</ele></trkpt><trkpt lat="46.77012024400756" lon="8.040050195995718"><ele>1158.7699890136719</ele></trkpt><trkpt lat="46.77014024415985" lon="8.039950196631253"><ele>1160.6099853515625</ele></trkpt><trkpt lat="46.77015024423599" lon="8.039950196631253"><ele>1160.989990234375</ele></trkpt><trkpt lat="46.77019024454057" lon="8.040020196698606"><ele>1162.6599731445312</ele></trkpt><trkpt lat="46.77026024553925" lon="8.040150197222829"><ele>1165.8299865722656</ele></trkpt><trkpt lat="46.77030024584383" lon="8.040200197603554"><ele>1167.3199768066406</ele></trkpt><trkpt lat="46.77032024599612" lon="8.040220197755843"><ele>1167.75</ele></trkpt><trkpt lat="46.77035024575889" lon="8.040220197755843"><ele>1168.5099792480469</ele></trkpt><trkpt lat="46.7703602463007" lon="8.040200198069215"><ele>1169.1999816894531</ele></trkpt><trkpt lat="46.77037024637684" lon="8.04017019784078"><ele>1169.8799743652344</ele></trkpt><trkpt lat="46.7703602463007" lon="8.040140198078007"><ele>1170.7599792480469</ele></trkpt><trkpt lat="46.77034024661407" lon="8.040100198239088"><ele>1171.72998046875</ele></trkpt><trkpt lat="46.77032024692744" lon="8.040070198476315"><ele>1172.5699768066406</ele></trkpt><trkpt lat="46.77032024692744" lon="8.040020198561251"><ele>1172.9499816894531</ele></trkpt><trkpt lat="46.770310246851295" lon="8.039970198646188"><ele>1173.5899963378906</ele></trkpt><trkpt lat="46.77032024692744" lon="8.039950198493898"><ele>1173.9299926757812</ele></trkpt><trkpt lat="46.770330247003585" lon="8.03995019895956"><ele>1174.47998046875</ele></trkpt><trkpt lat="46.770350247155875" lon="8.039970198646188"><ele>1174.7899780273438</ele></trkpt><trkpt lat="46.770370247308165" lon="8.039990198798478"><ele>1175.8599853515625</ele></trkpt><trkpt lat="46.7704002475366" lon="8.040000198874623"><ele>1176.719970703125</ele></trkpt><trkpt lat="46.770430247765034" lon="8.039960199501365"><ele>1177.8299865722656</ele></trkpt><trkpt lat="46.770490248687565" lon="8.039850200060755"><ele>1182.0</ele></trkpt><trkpt lat="46.77049024915323" lon="8.039770200382918"><ele>1183.8399963378906</ele></trkpt><trkpt lat="46.77050024922937" lon="8.039730200544"><ele>1184.8699951171875</ele></trkpt><trkpt lat="46.770530249457806" lon="8.039710200857371"><ele>1186.5399780273438</ele></trkpt><trkpt lat="46.7705602501519" lon="8.039650200866163"><ele>1188.3499755859375</ele></trkpt><trkpt lat="46.77058025030419" lon="8.03962020110339"><ele>1189.3899841308594</ele></trkpt><trkpt lat="46.77063025068492" lon="8.03962020156905"><ele>1190.8699951171875</ele></trkpt><trkpt lat="46.77064025076106" lon="8.039590201340616"><ele>1191.9399719238281</ele></trkpt><trkpt lat="46.77065025083721" lon="8.039530201815069"><ele>1193.0799865722656</ele></trkpt><trkpt lat="46.7706702509895" lon="8.039460201747715"><ele>1193.239990234375</ele></trkpt><trkpt lat="46.77070025121793" lon="8.039370201993734"><ele>1193.2899780273438</ele></trkpt><trkpt lat="46.77078025089577" lon="8.039290201850235"><ele>1193.6799926757812</ele></trkpt><trkpt lat="46.77082025120035" lon="8.039250202011317"><ele>1194.3799743652344</ele></trkpt><trkpt lat="46.77086025150493" lon="8.03915020218119"><ele>1196.25</ele></trkpt><trkpt lat="46.77090025180951" lon="8.03902020258829"><ele>1197.72998046875</ele></trkpt><trkpt lat="46.77094025257975" lon="8.038920202758163"><ele>1200.2099914550781</ele></trkpt><trkpt lat="46.77094025257975" lon="8.038880202919245"><ele>1201.1199951171875</ele></trkpt><trkpt lat="46.770950252655894" lon="8.038860203232616"><ele>1201.8599853515625</ele></trkpt><trkpt lat="46.77097025280818" lon="8.038820203393698"><ele>1202.6899719238281</ele></trkpt><trkpt lat="46.77099025296047" lon="8.038800203241408"><ele>1203.0899963378906</ele></trkpt><trkpt lat="46.77103025326505" lon="8.038750203792006"><ele>1204.5999755859375</ele></trkpt><trkpt lat="46.77107025356963" lon="8.03874020371586"><ele>1205.47998046875</ele></trkpt><trkpt lat="46.771140253636986" lon="8.038730204105377"><ele>1206.9299926757812</ele></trkpt><trkpt lat="46.771200254093856" lon="8.038700204342604"><ele>1207.8499755859375</ele></trkpt><trkpt lat="46.77123025385663" lon="8.038680204190314"><ele>1208.2599792480469</ele></trkpt><trkpt lat="46.771240253932774" lon="8.038680204190314"><ele>1208.1099853515625</ele></trkpt><trkpt lat="46.7712902543135" lon="8.038570204284042"><ele>1208.739990234375</ele></trkpt><trkpt lat="46.77135025430471" lon="8.038520204368979"><ele>1209.0999755859375</ele></trkpt><trkpt lat="46.771390254143625" lon="8.03844020422548"><ele>1209.7899780273438</ele></trkpt><trkpt lat="46.77141025476158" lon="8.038370204623789"><ele>1211.7799987792969</ele></trkpt><trkpt lat="46.77140025515109" lon="8.038210205268115"><ele>1214.3499755859375</ele></trkpt><trkpt lat="46.771380255930126" lon="8.037950205616653"><ele>1218.0499877929688</ele></trkpt><trkpt lat="46.77138025639579" lon="8.037870205938816"><ele>1218.739990234375</ele></trkpt><trkpt lat="46.77134025655687" lon="8.037790205795318"><ele>1219.5199890136719</ele></trkpt><trkpt lat="46.771310256794095" lon="8.037710206583142"><ele>1221.8799743652344</ele></trkpt><trkpt lat="46.771310257259756" lon="8.037670206744224"><ele>1223.0399780273438</ele></trkpt><trkpt lat="46.771330257412046" lon="8.037650206591934"><ele>1224.4299926757812</ele></trkpt><trkpt lat="46.771410257555544" lon="8.03768020728603"><ele>1226.3599853515625</ele></trkpt><trkpt lat="46.77148025808856" lon="8.037690207362175"><ele>1228.5099792480469</ele></trkpt><trkpt lat="46.771490258164704" lon="8.037670207675546"><ele>1229.0899963378906</ele></trkpt><trkpt lat="46.771490258164704" lon="8.037660207599401"><ele>1229.5</ele></trkpt><trkpt lat="46.77141025895253" lon="8.03757020784542"><ele>1231.6199951171875</ele></trkpt><trkpt lat="46.77140025887638" lon="8.037540208082646"><ele>1232.5899963378906</ele></trkpt><trkpt lat="46.77140025887638" lon="8.037510208319873"><ele>1233.0899963378906</ele></trkpt><trkpt lat="46.77142025902867" lon="8.03746020840481"><ele>1233.75</ele></trkpt><trkpt lat="46.77144025918096" lon="8.037390208337456"><ele>1234.5699768066406</ele></trkpt><trkpt lat="46.771440259646624" lon="8.0372702088207"><ele>1235.969970703125</ele></trkpt><trkpt lat="46.771460260264575" lon="8.037110208999366"><ele>1238.1799926757812</ele></trkpt><trkpt lat="46.77141026081517" lon="8.03686020988971"><ele>1242.3299865722656</ele></trkpt><trkpt lat="46.771430261433125" lon="8.036720210220665"><ele>1245.3099975585938</ele></trkpt><trkpt lat="46.77144026197493" lon="8.036640210542828"><ele>1246.3399963378906</ele></trkpt><trkpt lat="46.771470262203366" lon="8.036540210712701"><ele>1247.5599975585938</ele></trkpt><trkpt lat="46.771490262355655" lon="8.036420210730284"><ele>1249.8499755859375</ele></trkpt><trkpt lat="46.77149026282132" lon="8.036320211365819"><ele>1251.5799865722656</ele></trkpt><trkpt lat="46.77149026328698" lon="8.036160211544484"><ele>1254.8099975585938</ele></trkpt><trkpt lat="46.771560264285654" lon="8.035970212426037"><ele>1258.4099731445312</ele></trkpt><trkpt lat="46.771580264437944" lon="8.035890212282538"><ele>1259.3899841308594</ele></trkpt><trkpt lat="46.77161026466638" lon="8.035860212519765"><ele>1259.3899841308594</ele></trkpt><trkpt lat="46.77179026370868" lon="8.03573021152988"><ele>1255.0899963378906</ele></trkpt><trkpt lat="46.77181026339531" lon="8.035720211453736"><ele>1254.6099853515625</ele></trkpt><trkpt lat="46.77196026267484" lon="8.035680211149156"><ele>1251.6999816894531</ele></trkpt><trkpt lat="46.77202026313171" lon="8.035670211538672"><ele>1252.97998046875</ele></trkpt><trkpt lat="46.77207026304677" lon="8.035670211538672"><ele>1253.469970703125</ele></trkpt><trkpt lat="46.772140263114125" lon="8.035680211149156"><ele>1252.3899841308594</ele></trkpt><trkpt lat="46.7721702628769" lon="8.035660211462528"><ele>1252.3699951171875</ele></trkpt><trkpt lat="46.77219026302919" lon="8.035650211386383"><ele>1251.8799743652344</ele></trkpt><trkpt lat="46.77221026271582" lon="8.035620211157948"><ele>1251.72998046875</ele></trkpt><trkpt lat="46.77222026279196" lon="8.035590210929513"><ele>1251.6999816894531</ele></trkpt><trkpt lat="46.7722202623263" lon="8.035550210624933"><ele>1249.2099914550781</ele></trkpt><trkpt lat="46.77221026271582" lon="8.035500211175531"><ele>1250.8699951171875</ele></trkpt><trkpt lat="46.77220026310533" lon="8.035450211260468"><ele>1252.7899780273438</ele></trkpt><trkpt lat="46.77219026349485" lon="8.03543021157384"><ele>1253.739990234375</ele></trkpt><trkpt lat="46.77219026349485" lon="8.03539021173492"><ele>1253.989990234375</ele></trkpt><trkpt lat="46.77219026349485" lon="8.035350211430341"><ele>1254.4499816894531</ele></trkpt><trkpt lat="46.772180263418704" lon="8.035320211667567"><ele>1254.97998046875</ele></trkpt><trkpt lat="46.772180263884366" lon="8.035290211904794"><ele>1255.4299926757812</ele></trkpt><trkpt lat="46.77217026380822" lon="8.03526021167636"><ele>1256.1099853515625</ele></trkpt><trkpt lat="46.77217026427388" lon="8.035160212311894"><ele>1258.3999938964844</ele></trkpt><trkpt lat="46.77216026419774" lon="8.035130212083459"><ele>1258.72998046875</ele></trkpt><trkpt lat="46.77217026427388" lon="8.035050212405622"><ele>1259.3999938964844</ele></trkpt><trkpt lat="46.77214026404545" lon="8.034930212423205"><ele>1258.4299926757812</ele></trkpt><trkpt lat="46.77213026443496" lon="8.03490021219477"><ele>1258.3699951171875</ele></trkpt><trkpt lat="46.772110264282674" lon="8.034870212431997"><ele>1258.5099792480469</ele></trkpt><trkpt lat="46.772090264130384" lon="8.034840212203562"><ele>1258.6999816894531</ele></trkpt><trkpt lat="46.7720802645199" lon="8.034810212440789"><ele>1259.1699829101562</ele></trkpt><trkpt lat="46.7720802645199" lon="8.034760212525725"><ele>1259.3099975585938</ele></trkpt><trkpt lat="46.772050264291465" lon="8.034670212306082"><ele>1259.1799926757812</ele></trkpt><trkpt lat="46.77204026468098" lon="8.034650212153792"><ele>1259.4499816894531</ele></trkpt><trkpt lat="46.77203026460484" lon="8.034630212467164"><ele>1260.2799987792969</ele></trkpt><trkpt lat="46.77203026460484" lon="8.03460021270439"><ele>1261.1099853515625</ele></trkpt><trkpt lat="46.77204026468098" lon="8.034590212628245"><ele>1261.22998046875</ele></trkpt><trkpt lat="46.77208026498556" lon="8.03460021270439"><ele>1262.0699768066406</ele></trkpt><trkpt lat="46.772090265061706" lon="8.03460021270439"><ele>1262.3499755859375</ele></trkpt><trkpt lat="46.77205026522279" lon="8.034550212789327"><ele>1263.239990234375</ele></trkpt><trkpt lat="46.772040265612304" lon="8.034520213026553"><ele>1263.9299926757812</ele></trkpt><trkpt lat="46.77205026522279" lon="8.034480213187635"><ele>1264.1799926757812</ele></trkpt><trkpt lat="46.77207026537508" lon="8.034430213272572"><ele>1265.0399780273438</ele></trkpt><trkpt lat="46.772080265916884" lon="8.034380213357508"><ele>1265.8599853515625</ele></trkpt><trkpt lat="46.772080265916884" lon="8.034280213527381"><ele>1267.1899719238281</ele></trkpt><trkpt lat="46.772060266230255" lon="8.034250213764608"><ele>1267.4299926757812</ele></trkpt><trkpt lat="46.77201026631519" lon="8.034220214001834"><ele>1268.7799987792969</ele></trkpt><trkpt lat="46.77185026649386" lon="8.034170214086771"><ele>1270.3599853515625</ele></trkpt><trkpt lat="46.77182026673108" lon="8.034150213934481"><ele>1270.0899963378906</ele></trkpt><trkpt lat="46.771740266587585" lon="8.034120214171708"><ele>1269.4499816894531</ele></trkpt><trkpt lat="46.77158026723191" lon="8.03404021449387"><ele>1272.0699768066406</ele></trkpt><trkpt lat="46.77149026747793" lon="8.033980214502662"><ele>1273.5899963378906</ele></trkpt><trkpt lat="46.77139026718214" lon="8.033800214529037"><ele>1272.4399719238281</ele></trkpt><trkpt lat="46.77134026726708" lon="8.03374021453783"><ele>1272.4399719238281</ele></trkpt><trkpt lat="46.771290267352015" lon="8.033670214470476"><ele>1273.3999938964844</ele></trkpt><trkpt lat="46.77119026798755" lon="8.033540214877576"><ele>1276.0599975585938</ele></trkpt><trkpt lat="46.77119026798755" lon="8.033510215114802"><ele>1276.4599914550781</ele></trkpt><trkpt lat="46.771160268224776" lon="8.03342021536082"><ele>1277.9599914550781</ele></trkpt><trkpt lat="46.77115026861429" lon="8.033310215454549"><ele>1279.8899841308594</ele></trkpt><trkpt lat="46.77114026946947" lon="8.033120216336101"><ele>1283.2699890136719</ele></trkpt><trkpt lat="46.77114026946947" lon="8.033090216107666"><ele>1283.739990234375</ele></trkpt><trkpt lat="46.771150269545615" lon="8.033060216344893"><ele>1284.3599853515625</ele></trkpt><trkpt lat="46.771150269545615" lon="8.032990216743201"><ele>1285.4499816894531</ele></trkpt><trkpt lat="46.77116027008742" lon="8.032960216514766"><ele>1286.1399841308594</ele></trkpt><trkpt lat="46.77116027008742" lon="8.032940216828138"><ele>1286.4499816894531</ele></trkpt><trkpt lat="46.771190270315856" lon="8.032820216845721"><ele>1288.4599914550781</ele></trkpt><trkpt lat="46.771230270154774" lon="8.032730216626078"><ele>1286.8599853515625</ele></trkpt><trkpt lat="46.771280269604176" lon="8.03265021648258"><ele>1285.7099914550781</ele></trkpt><trkpt lat="46.77131026983261" lon="8.032580216415226"><ele>1284.97998046875</ele></trkpt><trkpt lat="46.77141027059406" lon="8.032480217516422"><ele>1290.6999816894531</ele></trkpt><trkpt lat="46.77150027034804" lon="8.032390216831118"><ele>1288.1799926757812</ele></trkpt><trkpt lat="46.77156027033925" lon="8.032340216916054"><ele>1287.3199768066406</ele></trkpt><trkpt lat="46.7716202698648" lon="8.032300216611475"><ele>1286.5499877929688</ele></trkpt><trkpt lat="46.77165027009323" lon="8.032270216848701"><ele>1286.2999877929688</ele></trkpt><trkpt lat="46.77167026977986" lon="8.032240216620266"><ele>1286.1199951171875</ele></trkpt><trkpt lat="46.77167026977986" lon="8.032200216781348"><ele>1285.7799987792969</ele></trkpt><trkpt lat="46.77167026977986" lon="8.032150216400623"><ele>1285.1199951171875</ele></trkpt><trkpt lat="46.77167026977986" lon="8.032110216561705"><ele>1284.8299865722656</ele></trkpt><trkpt lat="46.77169026946649" lon="8.03208021633327"><ele>1284.0799865722656</ele></trkpt><trkpt lat="46.77172026922926" lon="8.032050216104835"><ele>1283.6099853515625</ele></trkpt><trkpt lat="46.77175026899204" lon="8.0320202158764"><ele>1282.6799926757812</ele></trkpt><trkpt lat="46.77177026914433" lon="8.03200021572411"><ele>1281.8699951171875</ele></trkpt><trkpt lat="46.771790268830955" lon="8.031990215647966"><ele>1281.3099975585938</ele></trkpt><trkpt lat="46.77182026859373" lon="8.031960215885192"><ele>1280.6999816894531</ele></trkpt><trkpt lat="46.77183026866987" lon="8.031920215580612"><ele>1279.6299743652344</ele></trkpt><trkpt lat="46.77184026828036" lon="8.031880215276033"><ele>1278.4299926757812</ele></trkpt><trkpt lat="46.77184026828036" lon="8.031820215284824"><ele>1277.1499938964844</ele></trkpt><trkpt lat="46.77184026828036" lon="8.031780215445906"><ele>1277.5999755859375</ele></trkpt><trkpt lat="46.77187026804313" lon="8.031740215141326"><ele>1277.3399963378906</ele></trkpt><trkpt lat="46.77191026788205" lon="8.031730215065181"><ele>1277.1499938964844</ele></trkpt><trkpt lat="46.771920267958194" lon="8.031700215302408"><ele>1276.8399963378906</ele></trkpt><trkpt lat="46.77193026803434" lon="8.031680215150118"><ele>1276.8399963378906</ele></trkpt><trkpt lat="46.77191026788205" lon="8.031540215015411"><ele>1277.2999877929688</ele></trkpt><trkpt lat="46.77189026819542" lon="8.031500215176493"><ele>1278.2899780273438</ele></trkpt><trkpt lat="46.77190026873723" lon="8.031400215812027"><ele>1279.8999938964844</ele></trkpt><trkpt lat="46.77190026873723" lon="8.03134021582082"><ele>1281.3799743652344</ele></trkpt><trkpt lat="46.77190026920289" lon="8.03132021566853"><ele>1281.6799926757812</ele></trkpt><trkpt lat="46.77190026920289" lon="8.03128021582961"><ele>1281.969970703125</ele></trkpt><trkpt lat="46.77189026912674" lon="8.031250216066837"><ele>1282.6299743652344</ele></trkpt><trkpt lat="46.77191026927903" lon="8.031190216075629"><ele>1283.3199768066406</ele></trkpt><trkpt lat="46.77190026920289" lon="8.03115021623671"><ele>1283.5799865722656</ele></trkpt><trkpt lat="46.77188026951626" lon="8.031120216008276"><ele>1283.5199890136719</ele></trkpt><trkpt lat="46.771870269440114" lon="8.031080216169357"><ele>1283.3999938964844</ele></trkpt><trkpt lat="46.771850269287825" lon="8.031010216102004"><ele>1283.2999877929688</ele></trkpt><trkpt lat="46.77184026921168" lon="8.03098021633923"><ele>1283.1899719238281</ele></trkpt><trkpt lat="46.77184026921168" lon="8.03096021618694"><ele>1283.3699951171875</ele></trkpt><trkpt lat="46.771830269601196" lon="8.030910216271877"><ele>1283.7699890136719</ele></trkpt><trkpt lat="46.771790269296616" lon="8.030890216119587"><ele>1282.719970703125</ele></trkpt><trkpt lat="46.77177026914433" lon="8.030850215815008"><ele>1281.6499938964844</ele></trkpt><trkpt lat="46.77177026914433" lon="8.03081021597609"><ele>1281.8799743652344</ele></trkpt><trkpt lat="46.77174026891589" lon="8.030780215747654"><ele>1281.4499816894531</ele></trkpt><trkpt lat="46.77173026883975" lon="8.03077021567151"><ele>1281.5099792480469</ele></trkpt><trkpt lat="46.77173026883975" lon="8.030730215832591"><ele>1281.9499816894531</ele></trkpt><trkpt lat="46.77171026915312" lon="8.030680215917528"><ele>1282.5499877929688</ele></trkpt><trkpt lat="46.77171026915312" lon="8.030650216154754"><ele>1282.6999816894531</ele></trkpt><trkpt lat="46.771660269238055" lon="8.030560215935111"><ele>1282.7699890136719</ele></trkpt><trkpt lat="46.771620268933475" lon="8.030500215943903"><ele>1282.22998046875</ele></trkpt><trkpt lat="46.77157026901841" lon="8.030330215580761"><ele>1281.4099731445312</ele></trkpt><trkpt lat="46.77155026840046" lon="8.030270215589553"><ele>1279.9199829101562</ele></trkpt><trkpt lat="46.771500268019736" lon="8.030130214989185"><ele>1276.8399963378906</ele></trkpt><trkpt lat="46.77143026748672" lon="8.029940214473754"><ele>1273.72998046875</ele></trkpt><trkpt lat="46.77134026680142" lon="8.029810213949531"><ele>1270.0699768066406</ele></trkpt><trkpt lat="46.77125026565045" lon="8.029610213357955"><ele>1265.8499755859375</ele></trkpt><trkpt lat="46.77111026458442" lon="8.029290212318301"><ele>1259.6299743652344</ele></trkpt><trkpt lat="46.77105026412755" lon="8.029170211870223"><ele>1256.75</ele></trkpt><trkpt lat="46.77102026389912" lon="8.02908021165058"><ele>1255.6899719238281</ele></trkpt><trkpt lat="46.7708602626808" lon="8.028840210754424"><ele>1250.1299743652344</ele></trkpt><trkpt lat="46.770850262604654" lon="8.028790210839361"><ele>1250.2699890136719</ele></trkpt><trkpt lat="46.770870262756944" lon="8.028730210848153"><ele>1249.989990234375</ele></trkpt><trkpt lat="46.77091026259586" lon="8.028670210856944"><ele>1250.47998046875</ele></trkpt><trkpt lat="46.77090026251972" lon="8.028620210941881"><ele>1250.3799743652344</ele></trkpt><trkpt lat="46.770850262604654" lon="8.028550210874528"><ele>1250.8699951171875</ele></trkpt><trkpt lat="46.77076026238501" lon="8.028460210654885"><ele>1248.6799926757812</ele></trkpt><trkpt lat="46.770730262156576" lon="8.028420210350305"><ele>1247.8099975585938</ele></trkpt><trkpt lat="46.77060026116669" lon="8.028250209521502"><ele>1243.469970703125</ele></trkpt><trkpt lat="46.77052026055753" lon="8.02812020899728"><ele>1240.0699768066406</ele></trkpt><trkpt lat="46.77041025971994" lon="8.028020208701491"><ele>1237.3099975585938</ele></trkpt><trkpt lat="46.770340259652585" lon="8.027910208329558"><ele>1234.8699951171875</ele></trkpt><trkpt lat="46.770240258891135" lon="8.027740207500756"><ele>1231.5099792480469</ele></trkpt><trkpt lat="46.77019025851041" lon="8.027690207585692"><ele>1230.7799987792969</ele></trkpt><trkpt lat="46.7701302585192" lon="8.027660207357258"><ele>1230.6699829101562</ele></trkpt><trkpt lat="46.77010025875643" lon="8.027630207594484"><ele>1231.219970703125</ele></trkpt><trkpt lat="46.77008025860414" lon="8.027570207603276"><ele>1231.0499877929688</ele></trkpt><trkpt lat="46.77006025891751" lon="8.027480207849294"><ele>1232.5</ele></trkpt><trkpt lat="46.77005025977269" lon="8.027240208350122"><ele>1236.0799865722656</ele></trkpt><trkpt lat="46.77005026023835" lon="8.027140208519995"><ele>1237.8199768066406</ele></trkpt><trkpt lat="46.77005026023835" lon="8.027100208681077"><ele>1238.8799743652344</ele></trkpt><trkpt lat="46.77005026023835" lon="8.027070208918303"><ele>1239.3299865722656</ele></trkpt><trkpt lat="46.77002026094124" lon="8.026960209477693"><ele>1242.219970703125</ele></trkpt><trkpt lat="46.769990261178464" lon="8.026860209647566"><ele>1244.0399780273438</ele></trkpt><trkpt lat="46.769940262660384" lon="8.026550210546702"><ele>1250.1499938964844</ele></trkpt><trkpt lat="46.76993026258424" lon="8.026490210555494"><ele>1250.489990234375</ele></trkpt><trkpt lat="46.769940262660384" lon="8.02644021064043"><ele>1250.97998046875</ele></trkpt><trkpt lat="46.769940262660384" lon="8.026400210801512"><ele>1251.1799926757812</ele></trkpt><trkpt lat="46.769940262660384" lon="8.026390210725367"><ele>1251.3799743652344</ele></trkpt><trkpt lat="46.76995026273653" lon="8.026330210734159"><ele>1251.97998046875</ele></trkpt><trkpt lat="46.769940263126045" lon="8.026270211208612"><ele>1252.6099853515625</ele></trkpt><trkpt lat="46.76990026328713" lon="8.026210211217403"><ele>1254.0499877929688</ele></trkpt><trkpt lat="46.769830264151096" lon="8.026080211624503"><ele>1257.72998046875</ele></trkpt><trkpt lat="46.76977026462555" lon="8.025970212183893"><ele>1260.8699951171875</ele></trkpt><trkpt lat="46.769760265015066" lon="8.02594021242112"><ele>1261.8199768066406</ele></trkpt><trkpt lat="46.769780265167356" lon="8.025870212819427"><ele>1264.0199890136719</ele></trkpt><trkpt lat="46.76980026578531" lon="8.025830212980509"><ele>1265.47998046875</ele></trkpt><trkpt lat="46.7698202659376" lon="8.025780213065445"><ele>1266.5399780273438</ele></trkpt><trkpt lat="46.76982026640326" lon="8.025690213777125"><ele>1268.4099731445312</ele></trkpt><trkpt lat="46.76981026632711" lon="8.025650213472545"><ele>1269.1199951171875</ele></trkpt><trkpt lat="46.76982026640326" lon="8.025620213709772"><ele>1269.1799926757812</ele></trkpt><trkpt lat="46.76982026640326" lon="8.025610213633627"><ele>1268.8399963378906</ele></trkpt><trkpt lat="46.76986026670784" lon="8.025690213777125"><ele>1269.6499938964844</ele></trkpt><trkpt lat="46.769940266851336" lon="8.025810213759542"><ele>1270.5899963378906</ele></trkpt><trkpt lat="46.7699902667664" lon="8.02589021390304"><ele>1271.1599731445312</ele></trkpt><trkpt lat="46.7700702669099" lon="8.025960213970393"><ele>1271.4099731445312</ele></trkpt><trkpt lat="46.770130266901106" lon="8.025980214122683"><ele>1272.22998046875</ele></trkpt><trkpt lat="46.770210267044604" lon="8.026040214113891"><ele>1273.2099914550781</ele></trkpt><trkpt lat="46.77027026750147" lon="8.026040214579552"><ele>1274.5699768066406</ele></trkpt><trkpt lat="46.77040026849136" lon="8.026060215197504"><ele>1278.3199768066406</ele></trkpt><trkpt lat="46.770440268330276" lon="8.026080215349793"><ele>1279.1599731445312</ele></trkpt><trkpt lat="46.770480268634856" lon="8.026100215502083"><ele>1280.2599792480469</ele></trkpt><trkpt lat="46.77047026855871" lon="8.02605021558702"><ele>1280.6299743652344</ele></trkpt><trkpt lat="46.77046026894823" lon="8.026010215748101"><ele>1281.25</ele></trkpt><trkpt lat="46.77042026910931" lon="8.025970215909183"><ele>1282.0</ele></trkpt><trkpt lat="46.77038026927039" lon="8.025950215756893"><ele>1282.969970703125</ele></trkpt><trkpt lat="46.7703102696687" lon="8.025890216231346"><ele>1285.2699890136719</ele></trkpt><trkpt lat="46.77027026982978" lon="8.025840216316283"><ele>1285.9399719238281</ele></trkpt><trkpt lat="46.77025027014315" lon="8.025740216951817"><ele>1288.2699890136719</ele></trkpt><trkpt lat="46.77024027053267" lon="8.025690217036754"><ele>1289.0699768066406</ele></trkpt><trkpt lat="46.77025027060881" lon="8.02566021727398"><ele>1290.0399780273438</ele></trkpt><trkpt lat="46.77026027068496" lon="8.025650217197835"><ele>1290.4399719238281</ele></trkpt><trkpt lat="46.77029027091339" lon="8.025670217350125"><ele>1290.97998046875</ele></trkpt><trkpt lat="46.77030027098954" lon="8.02570021757856"><ele>1292.0199890136719</ele></trkpt><trkpt lat="46.77034027129412" lon="8.025730217806995"><ele>1293.4499816894531</ele></trkpt><trkpt lat="46.77035027137026" lon="8.02574021788314"><ele>1293.72998046875</ele></trkpt><trkpt lat="46.77036027144641" lon="8.025730217806995"><ele>1294.3999938964844</ele></trkpt><trkpt lat="46.77037027198821" lon="8.025650218129158"><ele>1296.1199951171875</ele></trkpt><trkpt lat="46.77036027237773" lon="8.025550218299031"><ele>1298.1299743652344</ele></trkpt><trkpt lat="46.77035027323291" lon="8.025390218943357"><ele>1301.5399780273438</ele></trkpt><trkpt lat="46.77034027315676" lon="8.02533021895215"><ele>1301.5899963378906</ele></trkpt><trkpt lat="46.77035027323291" lon="8.025320218876004"><ele>1301.8299865722656</ele></trkpt><trkpt lat="46.77036027330905" lon="8.02529021911323"><ele>1302.1799926757812</ele></trkpt><trkpt lat="46.77036027330905" lon="8.025250219274312"><ele>1302.5</ele></trkpt><trkpt lat="46.77032027347013" lon="8.025110219139606"><ele>1304.1899719238281</ele></trkpt><trkpt lat="46.77029027370736" lon="8.025030219461769"><ele>1305.3199768066406</ele></trkpt><trkpt lat="46.77027027402073" lon="8.024910219945014"><ele>1306.6999816894531</ele></trkpt><trkpt lat="46.7702502743341" lon="8.024830219801515"><ele>1308.25</ele></trkpt><trkpt lat="46.77022027457133" lon="8.024760220199823"><ele>1309.3799743652344</ele></trkpt><trkpt lat="46.77018027473241" lon="8.024670220445842"><ele>1310.5199890136719</ele></trkpt><trkpt lat="46.770120275206864" lon="8.024570220615715"><ele>1313.25</ele></trkpt><trkpt lat="46.769990276545286" lon="8.024310221895576"><ele>1318.8499755859375</ele></trkpt><trkpt lat="46.769920276943594" lon="8.024190221913159"><ele>1320.5699768066406</ele></trkpt><trkpt lat="46.769900276791304" lon="8.02415022207424"><ele>1320.739990234375</ele></trkpt><trkpt lat="46.769900277256966" lon="8.024090222083032"><ele>1321.75</ele></trkpt><trkpt lat="46.76991027733311" lon="8.023990222252905"><ele>1323.1799926757812</ele></trkpt><trkpt lat="46.76993027795106" lon="8.023880222812295"><ele>1325.0399780273438</ele></trkpt><trkpt lat="46.76994027802721" lon="8.023810222744942"><ele>1325.989990234375</ele></trkpt><trkpt lat="46.76994027849287" lon="8.023710222914815"><ele>1327.7799987792969</ele></trkpt><trkpt lat="46.76995027856901" lon="8.023660222999752"><ele>1328.4399719238281</ele></trkpt><trkpt lat="46.7699702787213" lon="8.02361022355035"><ele>1329.2599792480469</ele></trkpt><trkpt lat="46.76999027887359" lon="8.02357022324577"><ele>1329.9299926757812</ele></trkpt><trkpt lat="46.77003027871251" lon="8.023530223406851"><ele>1330.219970703125</ele></trkpt><trkpt lat="46.77009027916938" lon="8.023480223491788"><ele>1330.7899780273438</ele></trkpt><trkpt lat="46.770230278838426" lon="8.023370223585516"><ele>1331.2099914550781</ele></trkpt><trkpt lat="46.770310278981924" lon="8.023310223594308"><ele>1331.2699890136719</ele></trkpt><trkpt lat="46.77040027920157" lon="8.0232502236031"><ele>1331.0599975585938</ele></trkpt><trkpt lat="46.77053027879447" lon="8.023200223688036"><ele>1330.72998046875</ele></trkpt><trkpt lat="46.770590278785676" lon="8.023160223383456"><ele>1330.7099914550781</ele></trkpt><trkpt lat="46.7706402791664" lon="8.023110223468393"><ele>1330.7599792480469</ele></trkpt><trkpt lat="46.77076027914882" lon="8.02293022396043"><ele>1332.22998046875</ele></trkpt><trkpt lat="46.770880279596895" lon="8.022790223825723"><ele>1333.6599731445312</ele></trkpt><trkpt lat="46.77097027981654" lon="8.022670224308968"><ele>1334.989990234375</ele></trkpt><trkpt lat="46.77102028019726" lon="8.02263022447005"><ele>1335.8399963378906</ele></trkpt><trkpt lat="46.77110028034076" lon="8.02259022463113"><ele>1336.8899841308594</ele></trkpt><trkpt lat="46.77114028064534" lon="8.022550224792212"><ele>1337.969970703125</ele></trkpt><trkpt lat="46.771210280712694" lon="8.022500224877149"><ele>1339.5499877929688</ele></trkpt><trkpt lat="46.77135028131306" lon="8.022380225360394"><ele>1342.6799926757812</ele></trkpt><trkpt lat="46.77141028176993" lon="8.022340225521475"><ele>1343.5799865722656</ele></trkpt><trkpt lat="46.771460281684995" lon="8.022310225758702"><ele>1344.6799926757812</ele></trkpt><trkpt lat="46.77149028191343" lon="8.022290226072073"><ele>1345.1399841308594</ele></trkpt><trkpt lat="46.7715502823703" lon="8.02222022600472"><ele>1346.5499877929688</ele></trkpt><trkpt lat="46.77166028274223" lon="8.022100226487964"><ele>1349.219970703125</ele></trkpt><trkpt lat="46.77168028289452" lon="8.02207022672519"><ele>1349.6099853515625</ele></trkpt><trkpt lat="46.77169028297067" lon="8.022040226496756"><ele>1349.8499755859375</ele></trkpt><trkpt lat="46.77170028304681" lon="8.022010226733983"><ele>1350.1499938964844</ele></trkpt><trkpt lat="46.771770283114165" lon="8.021820226684213"><ele>1351.3499755859375</ele></trkpt><trkpt lat="46.77181028295308" lon="8.021720226854086"><ele>1350.8999938964844</ele></trkpt><trkpt lat="46.77185028325766" lon="8.021660226862878"><ele>1350.9599914550781</ele></trkpt><trkpt lat="46.77188028302044" lon="8.021610226947814"><ele>1350.8599853515625</ele></trkpt><trkpt lat="46.77195028308779" lon="8.021510226652026"><ele>1350.6799926757812</ele></trkpt><trkpt lat="46.77204028284177" lon="8.02137022651732"><ele>1350.6299743652344</ele></trkpt><trkpt lat="46.772430282551795" lon="8.020680226385593"><ele>1348.6999816894531</ele></trkpt><trkpt lat="46.77248028246686" lon="8.020560226403177"><ele>1348.8699951171875</ele></trkpt><trkpt lat="46.77254028292373" lon="8.02044022642076"><ele>1349.5999755859375</ele></trkpt><trkpt lat="46.77255028299987" lon="8.020420226734132"><ele>1349.7099914550781</ele></trkpt><trkpt lat="46.77258028276265" lon="8.020350226666778"><ele>1350.2999877929688</ele></trkpt><trkpt lat="46.77261028299108" lon="8.02027022652328"><ele>1350.6099853515625</ele></trkpt><trkpt lat="46.77263028314337" lon="8.020240226760507"><ele>1350.7699890136719</ele></trkpt><trkpt lat="46.77267028298229" lon="8.020210226532072"><ele>1350.4299926757812</ele></trkpt><trkpt lat="46.77271028282121" lon="8.020190226845443"><ele>1350.3999938964844</ele></trkpt><trkpt lat="46.77274028304964" lon="8.020130226854235"><ele>1350.239990234375</ele></trkpt><trkpt lat="46.77274028304964" lon="8.02012022677809"><ele>1350.1799926757812</ele></trkpt></trkseg></trk></gpx>