<?xml version="1.0" encoding="utf-8"?><gpx version="1.1" creator="MySchweizMobil - https://map.schweizmobil.ch/" xmlns:xsi="http://www.w3.org/2001/XMLSchema-instance" xmlns="http://www.topografix.com/GPX/1/1" xsi:schemaLocation="http://www.topografix.com/GPX/1/1 http://www.topografix.com/GPX/1/1/gpx.xsd"><metadata><name>Roselaui</name><bounds minlat="46.65570040233433" minlon="8.101850328501314" maxlat="46.675970300100744" maxlon="8.134170248173177" /></metadata><trk><name>Roselaui</name><trkseg><trkpt lat="46.675970300100744" lon="8.134050246328115"><ele>1449.9299926757812</ele></trkpt><trkpt lat="46.675950300414115" lon="8.134040246717632"><ele>1450.2899780273438</ele></trkpt><trkpt lat="46.67579030059278" lon="8.133980246726424"><ele>1451.7099914550781</ele></trkpt><trkpt lat="46.67575030075386" lon="8.133960246574134"><ele>1452.0</ele></trkpt><trkpt lat="46.675650300923735" lon="8.133980246726424"><ele>1452.5399780273438</ele></trkpt><trkpt lat="46.675630300771445" lon="8.133980246726424"><ele>1452.72998046875</ele></trkpt><trkpt lat="46.67554030101746" lon="8.134000246878713"><ele>1453.1799926757812</ele></trkpt><trkpt lat="46.675460300873965" lon="8.134030247107148"><ele>1453.72998046875</ele></trkpt><trkpt lat="46.675440301187336" lon="8.134030247107148"><ele>1453.7699890136719</ele></trkpt><trkpt lat="46.675180301535875" lon="8.134120247326791"><ele>1455.2699890136719</ele></trkpt><trkpt lat="46.67517030145973" lon="8.134120247326791"><ele>1455.0999755859375</ele></trkpt><trkpt lat="46.675140301231295" lon="8.134130247402936"><ele>1455.25</ele></trkpt><trkpt lat="46.675140301231295" lon="8.134130247402936"><ele>1455.4099731445312</ele></trkpt><trkpt lat="46.67511030146852" lon="8.134140247479081"><ele>1455.3999938964844</ele></trkpt><trkpt lat="46.67508030124009" lon="8.134150247555226"><ele>1455.5099792480469</ele></trkpt><trkpt lat="46.67507030116394" lon="8.134150247555226"><ele>1455.5099792480469</ele></trkpt><trkpt lat="46.67503030132502" lon="8.134150247555226"><ele>1455.5799865722656</ele></trkpt><trkpt lat="46.675010301638395" lon="8.134150247555226"><ele>1455.6999816894531</ele></trkpt><trkpt lat="46.67490030126646" lon="8.134090247564018"><ele>1455.7099914550781</ele></trkpt><trkpt lat="46.67490030126646" lon="8.134080247487873"><ele>1455.719970703125</ele></trkpt><trkpt lat="46.67481030151248" lon="8.13403024757281"><ele>1456.0999755859375</ele></trkpt><trkpt lat="46.674800301436335" lon="8.13401024742052"><ele>1456.0899963378906</ele></trkpt><trkpt lat="46.674780301284045" lon="8.133980247657746"><ele>1456.0999755859375</ele></trkpt><trkpt lat="46.674760301597416" lon="8.133970247581601"><ele>1456.0999755859375</ele></trkpt><trkpt lat="46.67475030152127" lon="8.133950247429311"><ele>1456.2599792480469</ele></trkpt><trkpt lat="46.67474030144513" lon="8.133950247429311"><ele>1456.2699890136719</ele></trkpt><trkpt lat="46.67474030144513" lon="8.133950247429311"><ele>1456.0999755859375</ele></trkpt><trkpt lat="46.67472030129284" lon="8.13399024726823"><ele>1456.1999816894531</ele></trkpt><trkpt lat="46.67469030153006" lon="8.134020247496665"><ele>1456.219970703125</ele></trkpt><trkpt lat="46.67469030153006" lon="8.13403024757281"><ele>1456.2999877929688</ele></trkpt><trkpt lat="46.674630301538855" lon="8.1340502477251"><ele>1456.2999877929688</ele></trkpt><trkpt lat="46.67462030146271" lon="8.134060247335583"><ele>1456.3899841308594</ele></trkpt><trkpt lat="46.67454030178487" lon="8.134080247487873"><ele>1456.3999938964844</ele></trkpt><trkpt lat="46.67452030163258" lon="8.134100247640163"><ele>1456.8499755859375</ele></trkpt><trkpt lat="46.67447030171752" lon="8.134150247555226"><ele>1457.0999755859375</ele></trkpt><trkpt lat="46.67445030203089" lon="8.134160247631371"><ele>1458.1699829101562</ele></trkpt><trkpt lat="46.674440301954746" lon="8.134170247707516"><ele>1457.8999938964844</ele></trkpt><trkpt lat="46.6743803024292" lon="8.134170248173177"><ele>1459.9199829101562</ele></trkpt><trkpt lat="46.674370302353054" lon="8.134170248173177"><ele>1459.6999816894531</ele></trkpt><trkpt lat="46.67436030227691" lon="8.134150248020887"><ele>1460.5599975585938</ele></trkpt><trkpt lat="46.67432030290365" lon="8.13411024864763"><ele>1462.1299743652344</ele></trkpt><trkpt lat="46.67432030290365" lon="8.13411024864763"><ele>1462.0699768066406</ele></trkpt><trkpt lat="46.67430030275136" lon="8.13407024834305"><ele>1461.6999816894531</ele></trkpt><trkpt lat="46.67429030267522" lon="8.134030248504132"><ele>1461.8499755859375</ele></trkpt><trkpt lat="46.67427030252293" lon="8.133960248436779"><ele>1462.0</ele></trkpt><trkpt lat="46.67426030244678" lon="8.133950248360634"><ele>1461.9599914550781</ele></trkpt><trkpt lat="46.6742503028363" lon="8.133930248674005"><ele>1462.1999816894531</ele></trkpt><trkpt lat="46.674220302607864" lon="8.13390024844557"><ele>1462.5</ele></trkpt><trkpt lat="46.67421030253172" lon="8.133890248369426"><ele>1462.4499816894531</ele></trkpt><trkpt lat="46.674180302768946" lon="8.133780248463154"><ele>1463.2999877929688</ele></trkpt><trkpt lat="46.674130303319544" lon="8.133710248861462"><ele>1464.1999816894531</ele></trkpt><trkpt lat="46.6741203032434" lon="8.133650248870254"><ele>1464.5999755859375</ele></trkpt><trkpt lat="46.674090303480625" lon="8.13360024895519"><ele>1465.0999755859375</ele></trkpt><trkpt lat="46.674050303176045" lon="8.133480248972774"><ele>1465.0</ele></trkpt><trkpt lat="46.674030303023756" lon="8.133420248515904"><ele>1463.7999877929688</ele></trkpt><trkpt lat="46.674010302871466" lon="8.133320248685777"><ele>1463.1999816894531</ele></trkpt><trkpt lat="46.67400030279532" lon="8.133260248694569"><ele>1463.3999938964844</ele></trkpt><trkpt lat="46.67400030279532" lon="8.133190248627216"><ele>1463.5999755859375</ele></trkpt><trkpt lat="46.67399030318484" lon="8.133120248559862"><ele>1463.7999877929688</ele></trkpt><trkpt lat="46.67397030303255" lon="8.13305024849251"><ele>1463.8999938964844</ele></trkpt><trkpt lat="46.67395030288026" lon="8.132980248890817"><ele>1463.8999938964844</ele></trkpt><trkpt lat="46.673900302965194" lon="8.132920248899609"><ele>1463.7999877929688</ele></trkpt><trkpt lat="46.673860303126276" lon="8.13288024859503"><ele>1463.7999877929688</ele></trkpt><trkpt lat="46.673820302821696" lon="8.13284024875611"><ele>1463.6999816894531</ele></trkpt><trkpt lat="46.67380030313507" lon="8.132760248612612"><ele>1463.9099731445312</ele></trkpt><trkpt lat="46.673750303220004" lon="8.132600248791277"><ele>1464.5</ele></trkpt><trkpt lat="46.673690303228796" lon="8.132450249046087"><ele>1465.1899719238281</ele></trkpt><trkpt lat="46.67366030346602" lon="8.132390249054879"><ele>1465.6499938964844</ele></trkpt><trkpt lat="46.67365030338988" lon="8.13235024921596"><ele>1466.0999755859375</ele></trkpt><trkpt lat="46.67364030331373" lon="8.132320248987526"><ele>1466.239990234375</ele></trkpt><trkpt lat="46.67363030370325" lon="8.132290249224752"><ele>1466.5</ele></trkpt><trkpt lat="46.67361030355096" lon="8.132210249081254"><ele>1466.6599731445312</ele></trkpt><trkpt lat="46.67361030355096" lon="8.132210249081254"><ele>1466.6599731445312</ele></trkpt><trkpt lat="46.67361030355096" lon="8.132130249403417"><ele>1467.1999816894531</ele></trkpt><trkpt lat="46.67363030370325" lon="8.132050249259919"><ele>1467.8999938964844</ele></trkpt><trkpt lat="46.67364030377939" lon="8.13199024926871"><ele>1468.0999755859375</ele></trkpt><trkpt lat="46.67363030416891" lon="8.131920249667019"><ele>1468.6999816894531</ele></trkpt><trkpt lat="46.673620304092765" lon="8.131890249438584"><ele>1468.8599853515625</ele></trkpt><trkpt lat="46.673600304406136" lon="8.13184024952352"><ele>1469.5999755859375</ele></trkpt><trkpt lat="46.67359030432999" lon="8.13182024937123"><ele>1469.5499877929688</ele></trkpt><trkpt lat="46.673580304253846" lon="8.131790249608457"><ele>1469.8999938964844</ele></trkpt><trkpt lat="46.67356030410156" lon="8.131750249769539"><ele>1470.0999755859375</ele></trkpt><trkpt lat="46.67355030449107" lon="8.131720249541104"><ele>1470.489990234375</ele></trkpt><trkpt lat="46.67354030441493" lon="8.13167024962604"><ele>1470.7999877929688</ele></trkpt><trkpt lat="46.67352030426264" lon="8.131630249787122"><ele>1470.7999877929688</ele></trkpt><trkpt lat="46.67350030457601" lon="8.131600250024348"><ele>1471.1299743652344</ele></trkpt><trkpt lat="46.67350030457601" lon="8.131600250024348"><ele>1471.1399841308594</ele></trkpt><trkpt lat="46.6734403045848" lon="8.131470249965787"><ele>1472.0999755859375</ele></trkpt><trkpt lat="46.67337030498311" lon="8.131410249974579"><ele>1473.0</ele></trkpt><trkpt lat="46.673340305220336" lon="8.131330250296742"><ele>1474.2999877929688</ele></trkpt><trkpt lat="46.6732603055425" lon="8.131210250314325"><ele>1475.3999938964844</ele></trkpt><trkpt lat="46.67325030500069" lon="8.131210250314325"><ele>1473.9299926757812</ele></trkpt><trkpt lat="46.673210305161774" lon="8.131180250551552"><ele>1474.5</ele></trkpt><trkpt lat="46.67316030524671" lon="8.131170250475407"><ele>1473.7999877929688</ele></trkpt><trkpt lat="46.67308030417189" lon="8.131340249441564"><ele>1469.8999938964844</ele></trkpt><trkpt lat="46.673070304561406" lon="8.131340249907225"><ele>1470.739990234375</ele></trkpt><trkpt lat="46.67300030449405" lon="8.131290249992162"><ele>1471.0</ele></trkpt><trkpt lat="46.6729303044267" lon="8.131270249839872"><ele>1471.6399841308594</ele></trkpt><trkpt lat="46.67286030435935" lon="8.131270249839872"><ele>1471.6099853515625</ele></trkpt><trkpt lat="46.67284030467272" lon="8.131300250068307"><ele>1472.0699768066406</ele></trkpt><trkpt lat="46.672810304909945" lon="8.131310250144452"><ele>1472.2899780273438</ele></trkpt><trkpt lat="46.672790304757655" lon="8.131320250220597"><ele>1472.7999877929688</ele></trkpt><trkpt lat="46.6728003048338" lon="8.131360250059515"><ele>1473.5799865722656</ele></trkpt><trkpt lat="46.67280030529946" lon="8.13139025028795"><ele>1474.25</ele></trkpt><trkpt lat="46.672790305223316" lon="8.13141025044024"><ele>1474.7799987792969</ele></trkpt><trkpt lat="46.67276030546054" lon="8.131420250516385"><ele>1475.6899719238281</ele></trkpt><trkpt lat="46.67273030569777" lon="8.131460250820965"><ele>1476.739990234375</ele></trkpt><trkpt lat="46.67271030601114" lon="8.13147025089711"><ele>1477.6599731445312</ele></trkpt><trkpt lat="46.67269030585885" lon="8.13147025089711"><ele>1478.7099914550781</ele></trkpt><trkpt lat="46.67269030632451" lon="8.131430251058191"><ele>1479.8199768066406</ele></trkpt><trkpt lat="46.67267030617222" lon="8.131400251295418"><ele>1480.6499938964844</ele></trkpt><trkpt lat="46.67264030640945" lon="8.131410251371562"><ele>1481.5099792480469</ele></trkpt><trkpt lat="46.6725803068839" lon="8.131400251761079"><ele>1482.7799987792969</ele></trkpt><trkpt lat="46.672570306807756" lon="8.131370251532644"><ele>1482.5999755859375</ele></trkpt><trkpt lat="46.67252030689269" lon="8.131280251778662"><ele>1482.5999755859375</ele></trkpt><trkpt lat="46.672420307062566" lon="8.131160252261907"><ele>1484.5</ele></trkpt><trkpt lat="46.67238030722365" lon="8.131120251957327"><ele>1485.3499755859375</ele></trkpt><trkpt lat="46.672350307460874" lon="8.13108025258407"><ele>1487.0999755859375</ele></trkpt><trkpt lat="46.6723203076981" lon="8.131040252745152"><ele>1487.5199890136719</ele></trkpt><trkpt lat="46.672310307621956" lon="8.131030252669007"><ele>1487.5999755859375</ele></trkpt><trkpt lat="46.672310307621956" lon="8.131000252440572"><ele>1487.0899963378906</ele></trkpt><trkpt lat="46.672290307469666" lon="8.130920252297074"><ele>1487.0999755859375</ele></trkpt><trkpt lat="46.67226030770689" lon="8.130860252305865"><ele>1487.0</ele></trkpt><trkpt lat="46.67223030794412" lon="8.130840252619237"><ele>1487.3899841308594</ele></trkpt><trkpt lat="46.67217030795291" lon="8.130810252856463"><ele>1488.5999755859375</ele></trkpt><trkpt lat="46.672160307876766" lon="8.130800252780318"><ele>1488.9299926757812</ele></trkpt><trkpt lat="46.672090308275074" lon="8.13078025309369"><ele>1490.8999938964844</ele></trkpt><trkpt lat="46.6720603085123" lon="8.13078025309369"><ele>1491.97998046875</ele></trkpt><trkpt lat="46.67204030882567" lon="8.130790253169835"><ele>1492.8999938964844</ele></trkpt><trkpt lat="46.67202030913904" lon="8.130780253559351"><ele>1493.3999938964844</ele></trkpt><trkpt lat="46.6720103090629" lon="8.130780253559351"><ele>1494.0999755859375</ele></trkpt><trkpt lat="46.67200030898675" lon="8.130780253559351"><ele>1494.2999877929688</ele></trkpt><trkpt lat="46.67197030922398" lon="8.130780253559351"><ele>1495.1599731445312</ele></trkpt><trkpt lat="46.671960309147835" lon="8.130780254025012"><ele>1495.5999755859375</ele></trkpt><trkpt lat="46.67195030953735" lon="8.130830253940076"><ele>1497.0</ele></trkpt><trkpt lat="46.67194030992687" lon="8.130890254396945"><ele>1497.8999938964844</ele></trkpt><trkpt lat="46.67194031039253" lon="8.131060254760087"><ele>1500.6999816894531</ele></trkpt><trkpt lat="46.67194031039253" lon="8.131100255064666"><ele>1501.75</ele></trkpt><trkpt lat="46.67194031039253" lon="8.13113025482744"><ele>1501.1999816894531</ele></trkpt><trkpt lat="46.67194031085819" lon="8.131140254903585"><ele>1502.219970703125</ele></trkpt><trkpt lat="46.67194031085819" lon="8.131140254903585"><ele>1502.4099731445312</ele></trkpt><trkpt lat="46.67194031085819" lon="8.131140254903585"><ele>1502.1999816894531</ele></trkpt><trkpt lat="46.6719203107059" lon="8.131130255293101"><ele>1503.2999877929688</ele></trkpt><trkpt lat="46.67190031101927" lon="8.131100255064666"><ele>1504.0999755859375</ele></trkpt><trkpt lat="46.67188031133264" lon="8.131100255530328"><ele>1505.1299743652344</ele></trkpt><trkpt lat="46.6718703112565" lon="8.131110255606472"><ele>1505.3899841308594</ele></trkpt><trkpt lat="46.67187031172216" lon="8.131140255834907"><ele>1506.6999816894531</ele></trkpt><trkpt lat="46.67187031172216" lon="8.131160255521536"><ele>1506.6999816894531</ele></trkpt><trkpt lat="46.671860312111676" lon="8.131200255826116"><ele>1508.0999755859375</ele></trkpt><trkpt lat="46.67185031203553" lon="8.131220255978405"><ele>1508.6299743652344</ele></trkpt><trkpt lat="46.671840311959386" lon="8.131180256139487"><ele>1509.3999938964844</ele></trkpt><trkpt lat="46.671820311807096" lon="8.131130256224424"><ele>1508.7699890136719</ele></trkpt><trkpt lat="46.671820311807096" lon="8.131110256072134"><ele>1508.5999755859375</ele></trkpt><trkpt lat="46.671820311807096" lon="8.131130256224424"><ele>1508.7699890136719</ele></trkpt><trkpt lat="46.67177031189203" lon="8.130970255937427"><ele>1508.6999816894531</ele></trkpt><trkpt lat="46.671710311900824" lon="8.1308702561073"><ele>1508.4499816894531</ele></trkpt><trkpt lat="46.671670312061906" lon="8.130840256344527"><ele>1509.4199829101562</ele></trkpt><trkpt lat="46.67165031237528" lon="8.130820256192237"><ele>1510.1999816894531</ele></trkpt><trkpt lat="46.67163031222299" lon="8.130820256192237"><ele>1510.5899963378906</ele></trkpt><trkpt lat="46.67161031253636" lon="8.130810256581753"><ele>1511.5999755859375</ele></trkpt><trkpt lat="46.67157031269744" lon="8.130750256590545"><ele>1511.3999938964844</ele></trkpt><trkpt lat="46.67153031239286" lon="8.13072025636211"><ele>1510.7999877929688</ele></trkpt><trkpt lat="46.67152031278238" lon="8.130710256751627"><ele>1511.9299926757812</ele></trkpt><trkpt lat="46.67151031224057" lon="8.130710256285965"><ele>1510.7999877929688</ele></trkpt><trkpt lat="46.6714803124778" lon="8.130640256218612"><ele>1510.7999877929688</ele></trkpt><trkpt lat="46.67146031232551" lon="8.130600256379694"><ele>1510.8499755859375</ele></trkpt><trkpt lat="46.67145031224936" lon="8.130600256379694"><ele>1510.7999877929688</ele></trkpt><trkpt lat="46.671370312571526" lon="8.13053025631234"><ele>1511.5999755859375</ele></trkpt><trkpt lat="46.67131031258032" lon="8.130460256710649"><ele>1512.6599731445312</ele></trkpt><trkpt lat="46.671220312826335" lon="8.130350256804377"><ele>1513.7999877929688</ele></trkpt><trkpt lat="46.671130313072354" lon="8.13027025712654"><ele>1514.3999938964844</ele></trkpt><trkpt lat="46.671090312767774" lon="8.130200256593525"><ele>1513.3999938964844</ele></trkpt><trkpt lat="46.67100031301379" lon="8.130100256763399"><ele>1513.7999877929688</ele></trkpt><trkpt lat="46.67099031293765" lon="8.130080256611109"><ele>1513.3899841308594</ele></trkpt><trkpt lat="46.67099031293765" lon="8.130050256848335"><ele>1513.5999755859375</ele></trkpt><trkpt lat="46.670900313183665" lon="8.129950257018209"><ele>1514.8799743652344</ele></trkpt><trkpt lat="46.67086031334475" lon="8.12991025717929"><ele>1515.6999816894531</ele></trkpt><trkpt lat="46.67082031350583" lon="8.129850257188082"><ele>1516.5999755859375</ele></trkpt><trkpt lat="46.670770313590765" lon="8.129690257366747"><ele>1517.7999877929688</ele></trkpt><trkpt lat="46.67074031382799" lon="8.129640257451683"><ele>1518.6999816894531</ele></trkpt><trkpt lat="46.670700314454734" lon="8.129580257926136"><ele>1520.0</ele></trkpt><trkpt lat="46.670700314454734" lon="8.129530258011073"><ele>1520.469970703125</ele></trkpt><trkpt lat="46.670700314454734" lon="8.129490258172154"><ele>1521.0999755859375</ele></trkpt><trkpt lat="46.670680314768106" lon="8.129450258333236"><ele>1522.0999755859375</ele></trkpt><trkpt lat="46.670630315318704" lon="8.129400258418173"><ele>1524.5999755859375</ele></trkpt><trkpt lat="46.670610315166414" lon="8.12935025850311"><ele>1525.4099731445312</ele></trkpt><trkpt lat="46.67060031555593" lon="8.129340258892626"><ele>1525.8099975585938</ele></trkpt><trkpt lat="46.67056031571701" lon="8.129290258977562"><ele>1527.0999755859375</ele></trkpt><trkpt lat="46.67055031610653" lon="8.129260259214789"><ele>1528.3999938964844</ele></trkpt><trkpt lat="46.67053031595424" lon="8.129220258910209"><ele>1528.1999816894531</ele></trkpt><trkpt lat="46.670520316343755" lon="8.129160259384662"><ele>1530.1299743652344</ele></trkpt><trkpt lat="46.67049031658098" lon="8.129010259639472"><ele>1530.5</ele></trkpt><trkpt lat="46.67038031667471" lon="8.128740259911865"><ele>1532.8999938964844</ele></trkpt><trkpt lat="46.67033031722531" lon="8.128680260386318"><ele>1534.5999755859375</ele></trkpt><trkpt lat="46.67023031739518" lon="8.12862026039511"><ele>1536.6999816894531</ele></trkpt><trkpt lat="46.670110317412764" lon="8.128530260641128"><ele>1536.1299743652344</ele></trkpt><trkpt lat="46.670110317878425" lon="8.128530260641128"><ele>1537.7999877929688</ele></trkpt><trkpt lat="46.67002031719312" lon="8.128380260430276"><ele>1535.4299926757812</ele></trkpt><trkpt lat="46.67000031750649" lon="8.128350260667503"><ele>1536.8999938964844</ele></trkpt><trkpt lat="46.66986031783745" lon="8.128270260989666"><ele>1538.6999816894531</ele></trkpt><trkpt lat="46.66955031873658" lon="8.12815026147291"><ele>1542.2999877929688</ele></trkpt><trkpt lat="46.66952031850815" lon="8.12815026147291"><ele>1541.9399719238281</ele></trkpt><trkpt lat="46.669280319008976" lon="8.1281702616252"><ele>1543.7699890136719</ele></trkpt><trkpt lat="46.66915031988174" lon="8.128180262167007"><ele>1548.1999816894531</ele></trkpt><trkpt lat="46.668990320991725" lon="8.12799026304856"><ele>1553.0999755859375</ele></trkpt><trkpt lat="46.668820321559906" lon="8.127940264064819"><ele>1557.2999877929688</ele></trkpt><trkpt lat="46.66876032203436" lon="8.127910263836384"><ele>1558.1499938964844</ele></trkpt><trkpt lat="46.668710322119296" lon="8.12788026407361"><ele>1559.5199890136719</ele></trkpt><trkpt lat="46.66870032250881" lon="8.127870264463127"><ele>1560.2999877929688</ele></trkpt><trkpt lat="46.66869032243267" lon="8.127870264463127"><ele>1560.5999755859375</ele></trkpt><trkpt lat="46.66867032228038" lon="8.127880264539272"><ele>1560.6599731445312</ele></trkpt><trkpt lat="46.66866032266989" lon="8.127890264615417"><ele>1561.0</ele></trkpt><trkpt lat="46.66865032259375" lon="8.127890264615417"><ele>1561.0</ele></trkpt><trkpt lat="46.668620322830975" lon="8.127870264463127"><ele>1561.97998046875</ele></trkpt><trkpt lat="46.66861032275483" lon="8.127860264852643"><ele>1562.2999877929688</ele></trkpt><trkpt lat="46.668600322678685" lon="8.127860264852643"><ele>1562.6099853515625</ele></trkpt><trkpt lat="46.66859032260254" lon="8.127870264928788"><ele>1562.5999755859375</ele></trkpt><trkpt lat="46.66857032291591" lon="8.127880265004933"><ele>1563.3899841308594</ele></trkpt><trkpt lat="46.66856032283977" lon="8.127880265004933"><ele>1563.5999755859375</ele></trkpt><trkpt lat="46.66856032283977" lon="8.127900264691561"><ele>1563.5799865722656</ele></trkpt><trkpt lat="46.66855032322928" lon="8.127940264996141"><ele>1564.0</ele></trkpt><trkpt lat="46.668510323390365" lon="8.127950265072286"><ele>1564.989990234375</ele></trkpt><trkpt lat="46.668470323551446" lon="8.127960265148431"><ele>1566.1999816894531</ele></trkpt><trkpt lat="46.66844032378867" lon="8.128010265529156"><ele>1567.6499938964844</ele></trkpt><trkpt lat="46.66844032378867" lon="8.128010265529156"><ele>1568.0</ele></trkpt><trkpt lat="46.66837032418698" lon="8.12804026575759"><ele>1569.5</ele></trkpt><trkpt lat="46.668270324356854" lon="8.12808026606217"><ele>1571.5</ele></trkpt><trkpt lat="46.66826032474637" lon="8.12808026606217"><ele>1571.4199829101562</ele></trkpt><trkpt lat="46.66826032474637" lon="8.128090266138315"><ele>1571.6999816894531</ele></trkpt><trkpt lat="46.668250324670225" lon="8.12808026606217"><ele>1571.5899963378906</ele></trkpt><trkpt lat="46.66822032444179" lon="8.128060266375542"><ele>1572.0999755859375</ele></trkpt><trkpt lat="46.66820032475516" lon="8.128040266223252"><ele>1572.3999938964844</ele></trkpt><trkpt lat="46.66813032515347" lon="8.128010266460478"><ele>1574.3999938964844</ele></trkpt><trkpt lat="46.6681003253907" lon="8.12801026692614"><ele>1574.7999877929688</ele></trkpt><trkpt lat="46.66806032508612" lon="8.128020267002285"><ele>1575.2999877929688</ele></trkpt><trkpt lat="46.66805032547563" lon="8.128020267002285"><ele>1575.5</ele></trkpt><trkpt lat="46.66803032532334" lon="8.12803026707843"><ele>1575.8999938964844</ele></trkpt><trkpt lat="46.667990325484425" lon="8.128050266765058"><ele>1576.0999755859375</ele></trkpt><trkpt lat="46.6678903256543" lon="8.12805026723072"><ele>1577.9499816894531</ele></trkpt><trkpt lat="46.6678903256543" lon="8.12805026723072"><ele>1577.969970703125</ele></trkpt><trkpt lat="46.66783032612875" lon="8.12803026754409"><ele>1578.5999755859375</ele></trkpt><trkpt lat="46.6677603260614" lon="8.128040267620236"><ele>1579.3999938964844</ele></trkpt><trkpt lat="46.66772032622248" lon="8.12803026754409"><ele>1580.0999755859375</ele></trkpt><trkpt lat="46.66768032638356" lon="8.128020267933607"><ele>1580.6999816894531</ele></trkpt><trkpt lat="46.66765032662079" lon="8.127960267942399"><ele>1581.0999755859375</ele></trkpt><trkpt lat="46.66762032639235" lon="8.12790026795119"><ele>1581.5</ele></trkpt><trkpt lat="46.66761032631621" lon="8.1278802677989"><ele>1581.5</ele></trkpt><trkpt lat="46.66759032662958" lon="8.127870267722756"><ele>1581.5</ele></trkpt><trkpt lat="46.66753032710403" lon="8.127870268188417"><ele>1583.8599853515625</ele></trkpt><trkpt lat="46.66753032710403" lon="8.127870268188417"><ele>1583.8999938964844</ele></trkpt><trkpt lat="46.66741032758728" lon="8.127860268577933"><ele>1585.7999877929688</ele></trkpt><trkpt lat="46.66739032743499" lon="8.127840268425643"><ele>1585.8999938964844</ele></trkpt><trkpt lat="46.66735032759607" lon="8.127850268501788"><ele>1586.9599914550781</ele></trkpt><trkpt lat="46.66733032790944" lon="8.12785026896745"><ele>1587.22998046875</ele></trkpt><trkpt lat="46.667300327215344" lon="8.127840268425643"><ele>1586.0</ele></trkpt><trkpt lat="46.6672403276898" lon="8.12779026851058"><ele>1586.3999938964844</ele></trkpt><trkpt lat="46.66721032746136" lon="8.127720268908888"><ele>1586.8999938964844</ele></trkpt><trkpt lat="46.66718032769859" lon="8.127700268756598"><ele>1588.3699951171875</ele></trkpt><trkpt lat="46.667170328088105" lon="8.12768026906997"><ele>1588.5399780273438</ele></trkpt><trkpt lat="46.66714032785967" lon="8.127600268926471"><ele>1588.0999755859375</ele></trkpt><trkpt lat="46.667130327783525" lon="8.12751026917249"><ele>1588.7999877929688</ele></trkpt><trkpt lat="46.667130327783525" lon="8.127430269028991"><ele>1588.3999938964844</ele></trkpt><trkpt lat="46.667130328249186" lon="8.127380269113928"><ele>1590.0</ele></trkpt><trkpt lat="46.66714032832533" lon="8.12734026927501"><ele>1590.5999755859375</ele></trkpt><trkpt lat="46.667150328401476" lon="8.127290269359946"><ele>1590.7099914550781</ele></trkpt><trkpt lat="46.66716032847762" lon="8.127270269207656"><ele>1591.1999816894531</ele></trkpt><trkpt lat="46.66716032847762" lon="8.127230269368738"><ele>1591.5</ele></trkpt><trkpt lat="46.667150328401476" lon="8.127200269605964"><ele>1591.5999755859375</ele></trkpt><trkpt lat="46.667130328249186" lon="8.12719026952982"><ele>1590.8099975585938</ele></trkpt><trkpt lat="46.667130328249186" lon="8.127190269064158"><ele>1590.2999877929688</ele></trkpt><trkpt lat="46.66706032818183" lon="8.127170268911868"><ele>1589.5</ele></trkpt><trkpt lat="46.6670303279534" lon="8.127160269301385"><ele>1589.72998046875</ele></trkpt><trkpt lat="46.66701032826677" lon="8.12713026907295"><ele>1589.1999816894531</ele></trkpt><trkpt lat="46.666960327886045" lon="8.12713026907295"><ele>1588.5</ele></trkpt><trkpt lat="46.6669503278099" lon="8.127120268996805"><ele>1588.1999816894531</ele></trkpt><trkpt lat="46.66693032765761" lon="8.127000269014388"><ele>1588.0</ele></trkpt><trkpt lat="46.66693032812327" lon="8.12696026917547"><ele>1588.7899780273438</ele></trkpt><trkpt lat="46.666940328199416" lon="8.12692026887089"><ele>1589.2899780273438</ele></trkpt><trkpt lat="46.66695032827556" lon="8.126860269345343"><ele>1590.2999877929688</ele></trkpt><trkpt lat="46.666960328351706" lon="8.126820269506425"><ele>1590.8999938964844</ele></trkpt><trkpt lat="46.667000328190625" lon="8.126750269439071"><ele>1590.8999938964844</ele></trkpt><trkpt lat="46.66701032826677" lon="8.126730269286782"><ele>1590.8999938964844</ele></trkpt><trkpt lat="46.667000328190625" lon="8.126710269134492"><ele>1590.5499877929688</ele></trkpt><trkpt lat="46.66699032811448" lon="8.126690269447863"><ele>1590.3299865722656</ele></trkpt><trkpt lat="46.66699032811448" lon="8.126660269219428"><ele>1590.1999816894531</ele></trkpt><trkpt lat="46.66692032804713" lon="8.12658026907593"><ele>1588.8999938964844</ele></trkpt><trkpt lat="46.6668703276664" lon="8.12656026892364"><ele>1588.1999816894531</ele></trkpt><trkpt lat="46.66682032775134" lon="8.126570268999785"><ele>1588.0999755859375</ele></trkpt><trkpt lat="46.666620327625424" lon="8.126300268340856"><ele>1586.1999816894531</ele></trkpt><trkpt lat="46.66661032754928" lon="8.126290268264711"><ele>1585.9099731445312</ele></trkpt><trkpt lat="46.66659032739699" lon="8.126260268501937"><ele>1586.0999755859375</ele></trkpt><trkpt lat="46.6665703272447" lon="8.126230268273503"><ele>1586.0</ele></trkpt><trkpt lat="46.666560327168554" lon="8.126190268434584"><ele>1585.8999938964844</ele></trkpt><trkpt lat="46.666560327168554" lon="8.126130268443376"><ele>1585.8999938964844</ele></trkpt><trkpt lat="46.66655032709241" lon="8.126090268604457"><ele>1585.5</ele></trkpt><trkpt lat="46.666520327329636" lon="8.126020268537104"><ele>1585.2999877929688</ele></trkpt><trkpt lat="46.666520327329636" lon="8.125900268089026"><ele>1584.6999816894531</ele></trkpt><trkpt lat="46.666520327329636" lon="8.125860268250108"><ele>1584.5999755859375</ele></trkpt><trkpt lat="46.66653032694012" lon="8.125840268097818"><ele>1584.2999877929688</ele></trkpt><trkpt lat="46.666540327016264" lon="8.125790268182755"><ele>1584.5</ele></trkpt><trkpt lat="46.66657032677904" lon="8.125750268343836"><ele>1583.8799743652344</ele></trkpt><trkpt lat="46.66660032700747" lon="8.125720268115401"><ele>1584.1999816894531</ele></trkpt><trkpt lat="46.66664032684639" lon="8.125660268124193"><ele>1583.5</ele></trkpt><trkpt lat="46.66675032675266" lon="8.125480268150568"><ele>1583.0</ele></trkpt><trkpt lat="46.66681032674387" lon="8.125420267693698"><ele>1581.8999938964844</ele></trkpt><trkpt lat="46.66688032634556" lon="8.125380267389119"><ele>1580.5299987792969</ele></trkpt><trkpt lat="46.66691032610834" lon="8.125350267626345"><ele>1580.0</ele></trkpt><trkpt lat="46.666950325947255" lon="8.125350267626345"><ele>1579.6399841308594</ele></trkpt><trkpt lat="46.6669603260234" lon="8.125350267626345"><ele>1579.5</ele></trkpt><trkpt lat="46.66703032609075" lon="8.1253402675502"><ele>1579.6499938964844</ele></trkpt><trkpt lat="46.66705032624304" lon="8.125330267474055"><ele>1579.5</ele></trkpt><trkpt lat="46.66706032631919" lon="8.125330267474055"><ele>1579.6099853515625</ele></trkpt><trkpt lat="46.66707032592967" lon="8.12532026739791"><ele>1579.5999755859375</ele></trkpt><trkpt lat="46.66707032592967" lon="8.12530026724562"><ele>1579.6299743652344</ele></trkpt><trkpt lat="46.66708032600582" lon="8.125290267635137"><ele>1579.6999816894531</ele></trkpt><trkpt lat="46.66709032608196" lon="8.125260267406702"><ele>1579.8999938964844</ele></trkpt><trkpt lat="46.66708032600582" lon="8.125230267643929"><ele>1579.8099975585938</ele></trkpt><trkpt lat="46.66708032600582" lon="8.125200267415494"><ele>1580.0</ele></trkpt><trkpt lat="46.66708032600582" lon="8.125160267576575"><ele>1579.8899841308594</ele></trkpt><trkpt lat="46.66709032608196" lon="8.125120267271996"><ele>1580.0999755859375</ele></trkpt><trkpt lat="46.66708032647148" lon="8.125060267280787"><ele>1580.22998046875</ele></trkpt><trkpt lat="46.66708032647148" lon="8.125040267594159"><ele>1580.2999877929688</ele></trkpt><trkpt lat="46.66706032631919" lon="8.12498026760295"><ele>1580.0999755859375</ele></trkpt><trkpt lat="46.66706032631919" lon="8.124970267526805"><ele>1579.969970703125</ele></trkpt><trkpt lat="46.66707032639533" lon="8.124920267611742"><ele>1580.2999877929688</ele></trkpt><trkpt lat="46.66707032639533" lon="8.124840267468244"><ele>1580.2599792480469</ele></trkpt><trkpt lat="46.66706032631919" lon="8.124700267799199"><ele>1580.6999816894531</ele></trkpt><trkpt lat="46.66706032631919" lon="8.124680267646909"><ele>1580.6899719238281</ele></trkpt><trkpt lat="46.66705032624304" lon="8.124640267342329"><ele>1580.6999816894531</ele></trkpt><trkpt lat="46.66704032663256" lon="8.124590267427266"><ele>1581.0899963378906</ele></trkpt><trkpt lat="46.667030326556414" lon="8.124570267740637"><ele>1581.0599975585938</ele></trkpt><trkpt lat="46.667010326404124" lon="8.124530267436057"><ele>1580.6999816894531</ele></trkpt><trkpt lat="46.666970326565206" lon="8.124370267614722"><ele>1582.0299987792969</ele></trkpt><trkpt lat="46.66694032680243" lon="8.124310267623514"><ele>1582.3999938964844</ele></trkpt><trkpt lat="46.66694032680243" lon="8.124290267936885"><ele>1582.239990234375</ele></trkpt><trkpt lat="46.66693032672629" lon="8.12426026770845"><ele>1582.5</ele></trkpt><trkpt lat="46.666900326963514" lon="8.124230267945677"><ele>1582.6999816894531</ele></trkpt><trkpt lat="46.666860326658934" lon="8.124140267726034"><ele>1582.6299743652344</ele></trkpt><trkpt lat="46.666820326820016" lon="8.124080267734826"><ele>1582.8199768066406</ele></trkpt><trkpt lat="46.66681032674387" lon="8.124050267972052"><ele>1582.8799743652344</ele></trkpt><trkpt lat="46.666800326667726" lon="8.124020267743617"><ele>1583.0999755859375</ele></trkpt><trkpt lat="46.6667803269811" lon="8.12394026806578"><ele>1583.3999938964844</ele></trkpt><trkpt lat="46.66677032690495" lon="8.123900268226862"><ele>1583.5099792480469</ele></trkpt><trkpt lat="46.66676032682881" lon="8.123880268074572"><ele>1583.7999877929688</ele></trkpt><trkpt lat="46.66674032714218" lon="8.123840268235654"><ele>1583.8399963378906</ele></trkpt><trkpt lat="46.666710326913744" lon="8.123760268092155"><ele>1583.9199829101562</ele></trkpt><trkpt lat="46.66668032715097" lon="8.123700268100947"><ele>1584.2999877929688</ele></trkpt><trkpt lat="46.666670327074826" lon="8.123590268194675"><ele>1584.8899841308594</ele></trkpt><trkpt lat="46.66666032746434" lon="8.123550268355757"><ele>1585.5</ele></trkpt><trkpt lat="46.66664032777771" lon="8.12347026867792"><ele>1587.3999938964844</ele></trkpt><trkpt lat="46.66661032801494" lon="8.123360268771648"><ele>1589.3999938964844</ele></trkpt><trkpt lat="46.66661032801494" lon="8.123350268695503"><ele>1589.0</ele></trkpt><trkpt lat="46.66661032801494" lon="8.12334026908502"><ele>1589.2999877929688</ele></trkpt><trkpt lat="46.666640328709036" lon="8.12321026949212"><ele>1592.0</ele></trkpt><trkpt lat="46.66667032893747" lon="8.123160269577056"><ele>1593.2999877929688</ele></trkpt><trkpt lat="46.66667032893747" lon="8.123130269814283"><ele>1593.6999816894531</ele></trkpt><trkpt lat="46.66669032908976" lon="8.123050269670784"><ele>1594.7999877929688</ele></trkpt><trkpt lat="46.666720329318196" lon="8.123000269755721"><ele>1595.2999877929688</ele></trkpt><trkpt lat="46.666720329318196" lon="8.122970269992948"><ele>1596.0999755859375</ele></trkpt><trkpt lat="46.66670032963157" lon="8.12289027031511"><ele>1596.7999877929688</ele></trkpt><trkpt lat="46.66670033009723" lon="8.122830270323902"><ele>1598.219970703125</ele></trkpt><trkpt lat="46.66670032963157" lon="8.122800270561129"><ele>1598.0</ele></trkpt><trkpt lat="46.66672033024952" lon="8.122780270408839"><ele>1599.3999938964844</ele></trkpt><trkpt lat="46.66673033032566" lon="8.122780270408839"><ele>1599.5699768066406</ele></trkpt><trkpt lat="46.66679033031687" lon="8.122770270798355"><ele>1600.8999938964844</ele></trkpt><trkpt lat="46.66683033062145" lon="8.122790270950645"><ele>1602.7999877929688</ele></trkpt><trkpt lat="46.66687033092603" lon="8.122790270950645"><ele>1603.0</ele></trkpt><trkpt lat="46.666880331002176" lon="8.122790270950645"><ele>1603.1699829101562</ele></trkpt><trkpt lat="46.66689033107832" lon="8.122790271416306"><ele>1603.2999877929688</ele></trkpt><trkpt lat="46.66689033107832" lon="8.122780271340162"><ele>1603.2699890136719</ele></trkpt><trkpt lat="46.666900331154466" lon="8.122770271264017"><ele>1603.6999816894531</ele></trkpt><trkpt lat="46.66693033091724" lon="8.122760271187872"><ele>1603.719970703125</ele></trkpt><trkpt lat="46.66699033090845" lon="8.122740271501243"><ele>1604.3899841308594</ele></trkpt><trkpt lat="46.66708033159375" lon="8.122730271425098"><ele>1606.0</ele></trkpt><trkpt lat="46.66712033143267" lon="8.122720271814615"><ele>1606.3999938964844</ele></trkpt><trkpt lat="46.66724033188075" lon="8.122650271747261"><ele>1607.6999816894531</ele></trkpt><trkpt lat="46.667340332176536" lon="8.122590272221714"><ele>1608.6999816894531</ele></trkpt><trkpt lat="46.667360331863165" lon="8.122570272069424"><ele>1608.7899780273438</ele></trkpt><trkpt lat="46.6673903320916" lon="8.12254027230665"><ele>1609.2999877929688</ele></trkpt><trkpt lat="46.66744033200666" lon="8.122470272239298"><ele>1609.7999877929688</ele></trkpt><trkpt lat="46.66746033215895" lon="8.122420272324234"><ele>1609.9399719238281</ele></trkpt><trkpt lat="46.66749033238739" lon="8.122330272570252"><ele>1610.5</ele></trkpt><trkpt lat="46.66756033245474" lon="8.122080272529274"><ele>1611.5</ele></trkpt><trkpt lat="46.66760033275932" lon="8.12186027271673"><ele>1611.9599914550781</ele></trkpt><trkpt lat="46.66760033275932" lon="8.121810272801667"><ele>1612.0099792480469</ele></trkpt><trkpt lat="46.66762033291161" lon="8.121630272828043"><ele>1612.1999816894531</ele></trkpt><trkpt lat="46.667650332674384" lon="8.121460272464901"><ele>1612.1599731445312</ele></trkpt><trkpt lat="46.66768033290282" lon="8.121300272643566"><ele>1612.5</ele></trkpt><trkpt lat="46.667690332978964" lon="8.121250272728503"><ele>1612.4599914550781</ele></trkpt><trkpt lat="46.66770033305511" lon="8.121210272889584"><ele>1612.6999816894531</ele></trkpt><trkpt lat="46.66773033281788" lon="8.121110272593796"><ele>1612.8099975585938</ele></trkpt><trkpt lat="46.66774033289403" lon="8.121090272907168"><ele>1612.8599853515625</ele></trkpt><trkpt lat="46.66774033289403" lon="8.121080272831023"><ele>1612.8799743652344</ele></trkpt><trkpt lat="46.667800332885236" lon="8.121000272687525"><ele>1613.1999816894531</ele></trkpt><trkpt lat="46.66789033310488" lon="8.120870272628963"><ele>1613.6999816894531</ele></trkpt><trkpt lat="46.66795033309609" lon="8.120790272951126"><ele>1614.2999877929688</ele></trkpt><trkpt lat="46.66809033323079" lon="8.120640273205936"><ele>1615.2999877929688</ele></trkpt><trkpt lat="46.66814033361152" lon="8.120570273138583"><ele>1615.6799926757812</ele></trkpt><trkpt lat="46.66821033367887" lon="8.1204802733846"><ele>1616.489990234375</ele></trkpt><trkpt lat="46.668220333755016" lon="8.120460273232311"><ele>1616.5999755859375</ele></trkpt><trkpt lat="46.66825033351779" lon="8.120410273317248"><ele>1616.989990234375</ele></trkpt><trkpt lat="46.66827033367008" lon="8.12037027347833"><ele>1617.3999938964844</ele></trkpt><trkpt lat="46.668300333898515" lon="8.120280273258686"><ele>1617.739990234375</ele></trkpt><trkpt lat="46.668300333898515" lon="8.120280273258686"><ele>1617.6999816894531</ele></trkpt><trkpt lat="46.66831033397466" lon="8.120240273419768"><ele>1617.75</ele></trkpt><trkpt lat="46.66831033397466" lon="8.120240273419768"><ele>1617.75</ele></trkpt><trkpt lat="46.66831033397466" lon="8.120230273343623"><ele>1617.7599792480469</ele></trkpt><trkpt lat="46.66833033412695" lon="8.120150273665786"><ele>1618.3999938964844</ele></trkpt><trkpt lat="46.668340334203094" lon="8.120070273522288"><ele>1619.2999877929688</ele></trkpt><trkpt lat="46.6682703346014" lon="8.119750274345279"><ele>1621.7699890136719</ele></trkpt><trkpt lat="46.668250334914774" lon="8.119650274515152"><ele>1622.8999938964844</ele></trkpt><trkpt lat="46.668250334914774" lon="8.119560274295509"><ele>1623.5999755859375</ele></trkpt><trkpt lat="46.668250334914774" lon="8.11952027445659"><ele>1624.0999755859375</ele></trkpt><trkpt lat="46.66824033530429" lon="8.119460274465382"><ele>1624.4299926757812</ele></trkpt><trkpt lat="46.668220335152" lon="8.119410274550319"><ele>1625.0999755859375</ele></trkpt><trkpt lat="46.66819033585489" lon="8.119290275033563"><ele>1626.5</ele></trkpt><trkpt lat="46.66818033577874" lon="8.1192402751185"><ele>1627.5</ele></trkpt><trkpt lat="46.6681703357026" lon="8.119230275042355"><ele>1627.9499816894531</ele></trkpt><trkpt lat="46.66817033616826" lon="8.119220275431871"><ele>1628.5</ele></trkpt><trkpt lat="46.668160336092114" lon="8.11922027496621"><ele>1628.3399963378906</ele></trkpt><trkpt lat="46.66815033601597" lon="8.119220275431871"><ele>1628.9299926757812</ele></trkpt><trkpt lat="46.668120336253196" lon="8.119230275508016"><ele>1630.0999755859375</ele></trkpt><trkpt lat="46.668050336651504" lon="8.119230275973678"><ele>1632.1999816894531</ele></trkpt><trkpt lat="46.66804033657536" lon="8.119220275897533"><ele>1632.3799743652344</ele></trkpt><trkpt lat="46.668030336964875" lon="8.119210275821388"><ele>1632.6999816894531</ele></trkpt><trkpt lat="46.66801033727825" lon="8.11915027583018"><ele>1633.6999816894531</ele></trkpt><trkpt lat="46.6680003372021" lon="8.119110275991261"><ele>1634.1499938964844</ele></trkpt><trkpt lat="46.66796033736318" lon="8.11898027639836"><ele>1635.6699829101562</ele></trkpt><trkpt lat="46.66795033728704" lon="8.11896027624607"><ele>1635.7999877929688</ele></trkpt><trkpt lat="46.6679503377527" lon="8.118920276407152"><ele>1636.1099853515625</ele></trkpt><trkpt lat="46.6679503377527" lon="8.118860276415944"><ele>1636.5999755859375</ele></trkpt><trkpt lat="46.6679503377527" lon="8.118840276729316"><ele>1636.7799987792969</ele></trkpt><trkpt lat="46.66791033837944" lon="8.118640277069062"><ele>1640.6999816894531</ele></trkpt><trkpt lat="46.66790033923462" lon="8.118480277713388"><ele>1644.0999755859375</ele></trkpt><trkpt lat="46.66787033947185" lon="8.118360278196633"><ele>1645.9399719238281</ele></trkpt><trkpt lat="46.66786033986136" lon="8.118280278053135"><ele>1647.0</ele></trkpt><trkpt lat="46.66785033978522" lon="8.118170278612524"><ele>1648.1499938964844</ele></trkpt><trkpt lat="46.66783034009859" lon="8.118060278706253"><ele>1649.2999877929688</ele></trkpt><trkpt lat="46.667820340488106" lon="8.11801027879119"><ele>1650.1099853515625</ele></trkpt><trkpt lat="46.667800340335816" lon="8.117960278876126"><ele>1651.0999755859375</ele></trkpt><trkpt lat="46.667770341038704" lon="8.117860279045999"><ele>1652.5999755859375</ele></trkpt><trkpt lat="46.66776034096256" lon="8.117830279283226"><ele>1652.7799987792969</ele></trkpt><trkpt lat="46.667750340886414" lon="8.117810279130936"><ele>1653.5</ele></trkpt><trkpt lat="46.667750340886414" lon="8.117790279444307"><ele>1653.489990234375</ele></trkpt><trkpt lat="46.667750341352075" lon="8.117580279707909"><ele>1655.7999877929688</ele></trkpt><trkpt lat="46.66776034189388" lon="8.117500280030072"><ele>1657.0</ele></trkpt><trkpt lat="46.667790342122316" lon="8.117380280047655"><ele>1658.8999938964844</ele></trkpt><trkpt lat="46.66780034219846" lon="8.117320280056447"><ele>1659.5699768066406</ele></trkpt><trkpt lat="46.66780034219846" lon="8.117300280369818"><ele>1659.8999938964844</ele></trkpt><trkpt lat="46.66780034266412" lon="8.117140280548483"><ele>1662.2099914550781</ele></trkpt><trkpt lat="46.667800343129784" lon="8.117040280718356"><ele>1663.8999938964844</ele></trkpt><trkpt lat="46.66781034320593" lon="8.116930281277746"><ele>1665.0199890136719</ele></trkpt><trkpt lat="46.66781034367159" lon="8.116910281125456"><ele>1665.3999938964844</ele></trkpt><trkpt lat="46.66781034367159" lon="8.116780281532556"><ele>1667.5999755859375</ele></trkpt><trkpt lat="46.66779034445062" lon="8.116570281796157"><ele>1670.3999938964844</ele></trkpt><trkpt lat="46.667770344763994" lon="8.116440282203257"><ele>1672.3999938964844</ele></trkpt><trkpt lat="46.667750345077366" lon="8.116400282364339"><ele>1673.0999755859375</ele></trkpt><trkpt lat="46.66774034546688" lon="8.116280282847583"><ele>1674.6999816894531</ele></trkpt><trkpt lat="46.66774034546688" lon="8.116270282771438"><ele>1674.8499755859375</ele></trkpt><trkpt lat="46.66774034546688" lon="8.116270282771438"><ele>1674.8899841308594</ele></trkpt><trkpt lat="46.66773034539074" lon="8.116240282543004"><ele>1675.3999938964844</ele></trkpt><trkpt lat="46.66773034539074" lon="8.116240282543004"><ele>1675.3099975585938</ele></trkpt><trkpt lat="46.66773034539074" lon="8.116240282543004"><ele>1675.3199768066406</ele></trkpt><trkpt lat="46.66771034570411" lon="8.116190283093601"><ele>1676.5999755859375</ele></trkpt><trkpt lat="46.667660345789045" lon="8.116140283178538"><ele>1678.1999816894531</ele></trkpt><trkpt lat="46.667660345789045" lon="8.116130283102393"><ele>1677.969970703125</ele></trkpt><trkpt lat="46.66763034602627" lon="8.11610028333962"><ele>1678.1699829101562</ele></trkpt><trkpt lat="46.66761034587398" lon="8.116070283111185"><ele>1678.5999755859375</ele></trkpt><trkpt lat="46.66756034595892" lon="8.115980283357203"><ele>1678.6999816894531</ele></trkpt><trkpt lat="46.667530346196145" lon="8.115880283527076"><ele>1679.4099731445312</ele></trkpt><trkpt lat="46.667530346196145" lon="8.115870283450931"><ele>1679.4499816894531</ele></trkpt><trkpt lat="46.66752034658566" lon="8.115810283459723"><ele>1680.3999938964844</ele></trkpt><trkpt lat="46.66752034658566" lon="8.115800283383578"><ele>1680.1999816894531</ele></trkpt><trkpt lat="46.66748034674674" lon="8.115770283620805"><ele>1680.6999816894531</ele></trkpt><trkpt lat="46.66745034651831" lon="8.115730283781886"><ele>1681.5</ele></trkpt><trkpt lat="46.66743034683168" lon="8.115700284019113"><ele>1682.0</ele></trkpt><trkpt lat="46.66739034699276" lon="8.115680283866823"><ele>1682.8999938964844</ele></trkpt><trkpt lat="46.667360346764326" lon="8.11565028410405"><ele>1683.0999755859375</ele></trkpt><trkpt lat="46.66733034700155" lon="8.115600284188986"><ele>1683.8599853515625</ele></trkpt><trkpt lat="46.66732034739107" lon="8.115580284036696"><ele>1684.0499877929688</ele></trkpt><trkpt lat="46.66728034755215" lon="8.115490284282714"><ele>1685.1999816894531</ele></trkpt><trkpt lat="46.66721034795046" lon="8.115340284537524"><ele>1687.5</ele></trkpt><trkpt lat="46.66717034811154" lon="8.115300284698606"><ele>1688.3999938964844</ele></trkpt><trkpt lat="46.66706034867093" lon="8.115230285096914"><ele>1690.3999938964844</ele></trkpt><trkpt lat="46.66702034883201" lon="8.115190285257995"><ele>1691.3999938964844</ele></trkpt><trkpt lat="46.66700034867972" lon="8.11518028518185"><ele>1691.5599975585938</ele></trkpt><trkpt lat="46.66698034852743" lon="8.115180285647511"><ele>1691.8999938964844</ele></trkpt><trkpt lat="46.66695034923032" lon="8.115120285656303"><ele>1693.5</ele></trkpt><trkpt lat="46.666940349154174" lon="8.115060285665095"><ele>1694.1999816894531</ele></trkpt><trkpt lat="46.66693034954369" lon="8.114970285911113"><ele>1695.6999816894531</ele></trkpt><trkpt lat="46.66693035000935" lon="8.11479028640315"><ele>1698.1199951171875</ele></trkpt><trkpt lat="46.66693035000935" lon="8.114760286640376"><ele>1698.5999755859375</ele></trkpt><trkpt lat="46.66692035039887" lon="8.114680286496878"><ele>1699.2999877929688</ele></trkpt><trkpt lat="46.66688035055995" lon="8.114610286895186"><ele>1700.5999755859375</ele></trkpt><trkpt lat="46.66683035064489" lon="8.114560286980122"><ele>1701.5999755859375</ele></trkpt><trkpt lat="46.66678035072982" lon="8.11447028722614"><ele>1702.5</ele></trkpt><trkpt lat="46.66668035136536" lon="8.11432028748095"><ele>1704.3999938964844</ele></trkpt><trkpt lat="46.666650351602584" lon="8.114240287803113"><ele>1705.6999816894531</ele></trkpt><trkpt lat="46.66660035168752" lon="8.114150288049132"><ele>1707.6499938964844</ele></trkpt><trkpt lat="46.66657035192475" lon="8.114070288371295"><ele>1708.7999877929688</ele></trkpt><trkpt lat="46.66655035223812" lon="8.11404028814286"><ele>1709.4299926757812</ele></trkpt><trkpt lat="46.6665103523992" lon="8.113980288617313"><ele>1710.7999877929688</ele></trkpt><trkpt lat="46.66645035287365" lon="8.113890288863331"><ele>1713.1899719238281</ele></trkpt><trkpt lat="46.66645035287365" lon="8.113890288863331"><ele>1713.1999816894531</ele></trkpt><trkpt lat="46.666370353195816" lon="8.11376028927043"><ele>1714.6199951171875</ele></trkpt><trkpt lat="46.66636035311967" lon="8.113750289194286"><ele>1714.8099975585938</ele></trkpt><trkpt lat="46.66636035358533" lon="8.113750289194286"><ele>1714.8799743652344</ele></trkpt><trkpt lat="46.666320353746414" lon="8.113650289364159"><ele>1717.0</ele></trkpt><trkpt lat="46.66627035429701" lon="8.113560289610177"><ele>1718.5999755859375</ele></trkpt><trkpt lat="46.66625035414472" lon="8.11350029008463"><ele>1719.3399963378906</ele></trkpt><trkpt lat="46.66624035453424" lon="8.113470289856195"><ele>1719.8999938964844</ele></trkpt><trkpt lat="46.66622035438195" lon="8.113430290017277"><ele>1720.1499938964844</ele></trkpt><trkpt lat="46.666190354619175" lon="8.113390290178359"><ele>1720.6999816894531</ele></trkpt><trkpt lat="46.666190354619175" lon="8.11335029033944"><ele>1720.969970703125</ele></trkpt><trkpt lat="46.66618035454303" lon="8.113280290272087"><ele>1721.5999755859375</ele></trkpt><trkpt lat="46.66618035454303" lon="8.113280290272087"><ele>1721.6899719238281</ele></trkpt><trkpt lat="46.66618035454303" lon="8.113280290272087"><ele>1721.7099914550781</ele></trkpt><trkpt lat="46.66615035478026" lon="8.113220290280879"><ele>1721.5999755859375</ele></trkpt><trkpt lat="46.66613035509363" lon="8.11314029013738"><ele>1722.5</ele></trkpt><trkpt lat="46.66609035525471" lon="8.113060290459543"><ele>1723.8999938964844</ele></trkpt><trkpt lat="46.66599035542458" lon="8.112850290723145"><ele>1726.1999816894531</ele></trkpt><trkpt lat="46.665930355899036" lon="8.11275029135868"><ele>1727.3599853515625</ele></trkpt><trkpt lat="46.66592035582289" lon="8.11273029120639"><ele>1727.5999755859375</ele></trkpt><trkpt lat="46.66588035598397" lon="8.112650291528553"><ele>1728.6999816894531</ele></trkpt><trkpt lat="46.665840356610715" lon="8.112530291546136"><ele>1730.0999755859375</ele></trkpt><trkpt lat="46.66581035638228" lon="8.112490291707218"><ele>1730.5</ele></trkpt><trkpt lat="46.6658003567718" lon="8.112460291944444"><ele>1731.0999755859375</ele></trkpt><trkpt lat="46.66577035654336" lon="8.112420291639864"><ele>1731.1999816894531</ele></trkpt><trkpt lat="46.66577035654336" lon="8.112400291953236"><ele>1731.4299926757812</ele></trkpt><trkpt lat="46.66576035693288" lon="8.112360292114317"><ele>1732.0</ele></trkpt><trkpt lat="46.66574035678059" lon="8.112330291885883"><ele>1732.5</ele></trkpt><trkpt lat="46.66574035678059" lon="8.112330291885883"><ele>1732.5899963378906</ele></trkpt><trkpt lat="46.665730357170105" lon="8.112320291809738"><ele>1732.7999877929688</ele></trkpt><trkpt lat="46.665730357170105" lon="8.112320291809738"><ele>1732.8499755859375</ele></trkpt><trkpt lat="46.66572035709396" lon="8.112320292275399"><ele>1733.0999755859375</ele></trkpt><trkpt lat="46.66565035749227" lon="8.112310292199254"><ele>1734.5</ele></trkpt><trkpt lat="46.66564035741612" lon="8.112300292123109"><ele>1734.6699829101562</ele></trkpt><trkpt lat="46.66557035781443" lon="8.112220292445272"><ele>1736.5</ele></trkpt><trkpt lat="46.66553035797551" lon="8.112140292767435"><ele>1737.5999755859375</ele></trkpt><trkpt lat="46.66552035789937" lon="8.112110293004662"><ele>1738.0</ele></trkpt><trkpt lat="46.665510358288884" lon="8.112030292861164"><ele>1739.1999816894531</ele></trkpt><trkpt lat="46.66550035821274" lon="8.111980293411762"><ele>1740.1999816894531</ele></trkpt><trkpt lat="46.665490358602256" lon="8.111940293107182"><ele>1740.47998046875</ele></trkpt><trkpt lat="46.66548035852611" lon="8.111900293268263"><ele>1741.0</ele></trkpt><trkpt lat="46.66548035852611" lon="8.111900293268263"><ele>1740.97998046875</ele></trkpt><trkpt lat="46.6654203585349" lon="8.111880293581635"><ele>1741.5999755859375</ele></trkpt><trkpt lat="46.665380358695984" lon="8.1118502933532"><ele>1742.1299743652344</ele></trkpt><trkpt lat="46.665340358857065" lon="8.111800293438137"><ele>1742.6299743652344</ele></trkpt><trkpt lat="46.66530035901815" lon="8.111760293599218"><ele>1743.0999755859375</ele></trkpt><trkpt lat="46.665290358942" lon="8.11174029391259"><ele>1743.2599792480469</ele></trkpt><trkpt lat="46.66522035934031" lon="8.111620293930173"><ele>1744.3399963378906</ele></trkpt><trkpt lat="46.66522035934031" lon="8.111610293854028"><ele>1744.3999938964844</ele></trkpt><trkpt lat="46.66519035957754" lon="8.111530294176191"><ele>1745.0</ele></trkpt><trkpt lat="46.66518035950139" lon="8.111480294261128"><ele>1745.3999938964844</ele></trkpt><trkpt lat="46.66518035950139" lon="8.111470294184983"><ele>1745.5799865722656</ele></trkpt><trkpt lat="46.66518035950139" lon="8.111450294032693"><ele>1745.6699829101562</ele></trkpt><trkpt lat="46.66517035942525" lon="8.11138029396534"><ele>1746.2999877929688</ele></trkpt><trkpt lat="46.665100359823555" lon="8.111300294287503"><ele>1746.3799743652344</ele></trkpt><trkpt lat="46.66509035974741" lon="8.111280294135213"><ele>1746.4599914550781</ele></trkpt><trkpt lat="46.66502036014572" lon="8.111190294381231"><ele>1747.6999816894531</ele></trkpt><trkpt lat="46.66499035991728" lon="8.111140294466168"><ele>1748.6999816894531</ele></trkpt><trkpt lat="46.6649803603068" lon="8.111040294636041"><ele>1749.8199768066406</ele></trkpt><trkpt lat="46.664970360230654" lon="8.111010294873267"><ele>1750.2899780273438</ele></trkpt><trkpt lat="46.66496036062017" lon="8.110900294966996"><ele>1751.2999877929688</ele></trkpt><trkpt lat="46.66494036046788" lon="8.110840294975787"><ele>1751.5499877929688</ele></trkpt><trkpt lat="46.66494036093354" lon="8.110820294823498"><ele>1751.5999755859375</ele></trkpt><trkpt lat="46.66489036101848" lon="8.110750295221806"><ele>1753.1799926757812</ele></trkpt><trkpt lat="46.66487036133185" lon="8.110720295459032"><ele>1753.6999816894531</ele></trkpt><trkpt lat="46.66484036156908" lon="8.110650295391679"><ele>1754.8099975585938</ele></trkpt><trkpt lat="46.66483036149293" lon="8.110650295391679"><ele>1754.8499755859375</ele></trkpt><trkpt lat="46.66478036157787" lon="8.110470295883715"><ele>1755.7999877929688</ele></trkpt><trkpt lat="46.66476036142558" lon="8.110420295968652"><ele>1756.2099914550781</ele></trkpt><trkpt lat="46.664750361815095" lon="8.110360295977443"><ele>1756.6999816894531</ele></trkpt><trkpt lat="46.66471036197618" lon="8.1102702957578"><ele>1757.5</ele></trkpt><trkpt lat="46.66459036245942" lon="8.110050296410918"><ele>1760.1999816894531</ele></trkpt><trkpt lat="46.664530362933874" lon="8.109940296504647"><ele>1761.5999755859375</ele></trkpt><trkpt lat="46.664470362942666" lon="8.10984029667452"><ele>1763.0</ele></trkpt><trkpt lat="46.664450362790376" lon="8.109800296835601"><ele>1763.1599731445312</ele></trkpt><trkpt lat="46.6644203630276" lon="8.109730296768248"><ele>1763.6999816894531</ele></trkpt><trkpt lat="46.66441036341712" lon="8.109680296853185"><ele>1764.1599731445312</ele></trkpt><trkpt lat="46.664400363340974" lon="8.109630296938121"><ele>1764.6999816894531</ele></trkpt><trkpt lat="46.6643703635782" lon="8.109550297260284"><ele>1765.0399780273438</ele></trkpt><trkpt lat="46.66435036342591" lon="8.109500297345221"><ele>1765.3999938964844</ele></trkpt><trkpt lat="46.66431036358699" lon="8.109330297447741"><ele>1766.5</ele></trkpt><trkpt lat="46.66429036390036" lon="8.109270297456533"><ele>1766.8899841308594</ele></trkpt><trkpt lat="46.664270363748074" lon="8.10918029770255"><ele>1767.5</ele></trkpt><trkpt lat="46.664250364061445" lon="8.109130297787488"><ele>1767.7899780273438</ele></trkpt><trkpt lat="46.664230363909155" lon="8.109090297482908"><ele>1768.0999755859375</ele></trkpt><trkpt lat="46.66422036383301" lon="8.10905029764399"><ele>1768.239990234375</ele></trkpt><trkpt lat="46.66421036422253" lon="8.109000297728926"><ele>1768.5999755859375</ele></trkpt><trkpt lat="46.66415036423132" lon="8.108930297661573"><ele>1769.2999877929688</ele></trkpt><trkpt lat="46.66413036454469" lon="8.108890297822654"><ele>1769.8999938964844</ele></trkpt><trkpt lat="46.66409036470577" lon="8.108750298153609"><ele>1771.6999816894531</ele></trkpt><trkpt lat="46.664080364629626" lon="8.108720298390836"><ele>1772.3099975585938</ele></trkpt><trkpt lat="46.66404036525637" lon="8.108650298789144"><ele>1773.7699890136719</ele></trkpt><trkpt lat="46.66397036565468" lon="8.108490298967808"><ele>1777.0999755859375</ele></trkpt><trkpt lat="46.66395036596805" lon="8.1084302989766"><ele>1777.5999755859375</ele></trkpt><trkpt lat="46.66391036612913" lon="8.108390299137682"><ele>1778.0999755859375</ele></trkpt><trkpt lat="46.66389036597684" lon="8.108380299527198"><ele>1778.5699768066406</ele></trkpt><trkpt lat="46.66387036629021" lon="8.108370299451053"><ele>1779.0999755859375</ele></trkpt><trkpt lat="46.66380036668852" lon="8.108300299849361"><ele>1781.2999877929688</ele></trkpt><trkpt lat="46.6637603668496" lon="8.108260300010443"><ele>1782.0999755859375</ele></trkpt><trkpt lat="46.66374036716297" lon="8.10821030009538"><ele>1782.8999938964844</ele></trkpt><trkpt lat="46.66373036708683" lon="8.108170300256461"><ele>1783.5999755859375</ele></trkpt><trkpt lat="46.66373036708683" lon="8.108140300028026"><ele>1784.2099914550781</ele></trkpt><trkpt lat="46.66373036708683" lon="8.108120300341398"><ele>1784.3499755859375</ele></trkpt><trkpt lat="46.66373036708683" lon="8.108120300341398"><ele>1784.3999938964844</ele></trkpt><trkpt lat="46.66373036708683" lon="8.108100300189108"><ele>1784.3199768066406</ele></trkpt><trkpt lat="46.6637103674002" lon="8.108030300121754"><ele>1784.3999938964844</ele></trkpt><trkpt lat="46.663680367171764" lon="8.107910300139338"><ele>1784.3599853515625</ele></trkpt><trkpt lat="46.66367036709562" lon="8.10787030030042"><ele>1784.3999938964844</ele></trkpt><trkpt lat="46.663660367485136" lon="8.1078303004615"><ele>1784.6899719238281</ele></trkpt><trkpt lat="46.663640367332846" lon="8.107780300546438"><ele>1785.0</ele></trkpt><trkpt lat="46.6635803678073" lon="8.10766030056402"><ele>1786.0899963378906</ele></trkpt><trkpt lat="46.663570367731154" lon="8.107630300335586"><ele>1786.2999877929688</ele></trkpt><trkpt lat="46.66354036796838" lon="8.107580300420523"><ele>1786.7899780273438</ele></trkpt><trkpt lat="46.66350036812946" lon="8.107500300742686"><ele>1787.5999755859375</ele></trkpt><trkpt lat="46.66349036805332" lon="8.107470300979912"><ele>1787.8499755859375</ele></trkpt><trkpt lat="46.663460368290544" lon="8.107410300988704"><ele>1788.5299987792969</ele></trkpt><trkpt lat="46.66343036806211" lon="8.10734030092135"><ele>1789.2999877929688</ele></trkpt><trkpt lat="46.66336036846042" lon="8.107220301404595"><ele>1791.3999938964844</ele></trkpt><trkpt lat="46.66335036884993" lon="8.10721030132845"><ele>1791.3999938964844</ele></trkpt><trkpt lat="46.66333036869764" lon="8.107130301650614"><ele>1792.5</ele></trkpt><trkpt lat="46.66332036908716" lon="8.107090301811695"><ele>1792.8399963378906</ele></trkpt><trkpt lat="46.663310369011015" lon="8.107040301896632"><ele>1793.1999816894531</ele></trkpt><trkpt lat="46.66330036893487" lon="8.107020301744342"><ele>1793.7599792480469</ele></trkpt><trkpt lat="46.663290369324386" lon="8.106980301905423"><ele>1794.5199890136719</ele></trkpt><trkpt lat="46.6632803697139" lon="8.106920301914215"><ele>1795.5999755859375</ele></trkpt><trkpt lat="46.66326036956161" lon="8.106880302075297"><ele>1796.1499938964844</ele></trkpt><trkpt lat="46.66316037019715" lon="8.10663030249998"><ele>1798.5</ele></trkpt><trkpt lat="46.663110370282084" lon="8.106490302830935"><ele>1799.5999755859375</ele></trkpt><trkpt lat="46.663070370443165" lon="8.106360302772373"><ele>1800.2999877929688</ele></trkpt><trkpt lat="46.66305037075654" lon="8.106250302866101"><ele>1801.0999755859375</ele></trkpt><trkpt lat="46.66300037084147" lon="8.106120303273201"><ele>1802.5</ele></trkpt><trkpt lat="46.66295037092641" lon="8.10603030351922"><ele>1803.6999816894531</ele></trkpt><trkpt lat="46.662920371163636" lon="8.10597030352801"><ele>1804.9199829101562</ele></trkpt><trkpt lat="46.66286037163809" lon="8.105900303926319"><ele>1807.0</ele></trkpt><trkpt lat="46.6627903720364" lon="8.105850304011256"><ele>1808.5</ele></trkpt><trkpt lat="46.66277037234977" lon="8.105830304324627"><ele>1809.0299987792969</ele></trkpt><trkpt lat="46.662760372273624" lon="8.105820304248482"><ele>1809.0999755859375</ele></trkpt><trkpt lat="46.66275037219748" lon="8.105780304409564"><ele>1810.1499938964844</ele></trkpt><trkpt lat="46.662740372586995" lon="8.10575030464679"><ele>1810.3999938964844</ele></trkpt><trkpt lat="46.66272037290037" lon="8.105690304655582"><ele>1811.739990234375</ele></trkpt><trkpt lat="46.66269037313759" lon="8.1056003049016"><ele>1813.6999816894531</ele></trkpt><trkpt lat="46.6626703729853" lon="8.105550304986537"><ele>1813.8699951171875</ele></trkpt><trkpt lat="46.66266037337482" lon="8.105500305071473"><ele>1814.1999816894531</ele></trkpt><trkpt lat="46.662630373612046" lon="8.105370305478573"><ele>1816.2999877929688</ele></trkpt><trkpt lat="46.66260037384927" lon="8.105270305182785"><ele>1816.3999938964844</ele></trkpt><trkpt lat="46.66259037377313" lon="8.105230305343866"><ele>1816.5199890136719</ele></trkpt><trkpt lat="46.66257037362084" lon="8.105180305428803"><ele>1816.5999755859375</ele></trkpt><trkpt lat="46.662560374010354" lon="8.105120305437595"><ele>1817.1099853515625</ele></trkpt><trkpt lat="46.66255037393421" lon="8.105100305750966"><ele>1817.3999938964844</ele></trkpt><trkpt lat="46.66251037409529" lon="8.105020305607468"><ele>1818.2999877929688</ele></trkpt><trkpt lat="46.66250037448481" lon="8.104950306005776"><ele>1819.5999755859375</ele></trkpt><trkpt lat="46.66248037479818" lon="8.104910306166857"><ele>1820.8999938964844</ele></trkpt><trkpt lat="46.66242037480697" lon="8.10485030617565"><ele>1822.5</ele></trkpt><trkpt lat="46.66240037512034" lon="8.104820306412876"><ele>1823.0399780273438</ele></trkpt><trkpt lat="46.66235037520528" lon="8.104760306421667"><ele>1824.1299743652344</ele></trkpt><trkpt lat="46.66229037567973" lon="8.10468030674383"><ele>1826.1999816894531</ele></trkpt><trkpt lat="46.66226037591696" lon="8.104660307057202"><ele>1826.6999816894531</ele></trkpt><trkpt lat="46.66226037591696" lon="8.104690306819975"><ele>1826.6999816894531</ele></trkpt><trkpt lat="46.66223037568852" lon="8.104690307285637"><ele>1827.0</ele></trkpt><trkpt lat="46.66216037608683" lon="8.104640307370573"><ele>1828.2999877929688</ele></trkpt><trkpt lat="46.662150376010686" lon="8.104640307370573"><ele>1828.7999877929688</ele></trkpt><trkpt lat="46.662150376010686" lon="8.104630307294428"><ele>1828.5199890136719</ele></trkpt><trkpt lat="46.662150376010686" lon="8.104620307218283"><ele>1828.8499755859375</ele></trkpt><trkpt lat="46.6621403764002" lon="8.104580307379365"><ele>1829.5899963378906</ele></trkpt><trkpt lat="46.66213037632406" lon="8.104570307768881"><ele>1830.25</ele></trkpt><trkpt lat="46.66211037663743" lon="8.104570307768881"><ele>1830.5</ele></trkpt><trkpt lat="46.6620903769508" lon="8.104540308006108"><ele>1831.6699829101562</ele></trkpt><trkpt lat="46.66204037703574" lon="8.104440308175981"><ele>1833.1399841308594</ele></trkpt><trkpt lat="46.66202037688345" lon="8.104420308023691"><ele>1833.239990234375</ele></trkpt><trkpt lat="46.66191037744284" lon="8.104350308422"><ele>1834.1999816894531</ele></trkpt><trkpt lat="46.66186037706211" lon="8.104290308430791"><ele>1834.0</ele></trkpt><trkpt lat="46.66185037698597" lon="8.104290308430791"><ele>1833.9299926757812</ele></trkpt><trkpt lat="46.66184037737548" lon="8.104290308430791"><ele>1834.0999755859375</ele></trkpt><trkpt lat="46.66183037729934" lon="8.104290308430791"><ele>1834.0</ele></trkpt><trkpt lat="46.66181037714705" lon="8.104280308354646"><ele>1834.0999755859375</ele></trkpt><trkpt lat="46.661740377079695" lon="8.10433030826971"><ele>1833.5999755859375</ele></trkpt><trkpt lat="46.66173037700355" lon="8.10433030826971"><ele>1833.8599853515625</ele></trkpt><trkpt lat="46.66170037724078" lon="8.104340308345854"><ele>1833.7999877929688</ele></trkpt><trkpt lat="46.66168037708849" lon="8.104340308345854"><ele>1833.6999816894531</ele></trkpt><trkpt lat="46.66168037708849" lon="8.104340308345854"><ele>1833.6799926757812</ele></trkpt><trkpt lat="46.661650377325714" lon="8.104300308041275"><ele>1833.7999877929688</ele></trkpt><trkpt lat="46.661650377325714" lon="8.104300308041275"><ele>1833.5699768066406</ele></trkpt><trkpt lat="46.661590376868844" lon="8.104260308202356"><ele>1833.5599975585938</ele></trkpt><trkpt lat="46.661550377029926" lon="8.104240308050066"><ele>1833.5</ele></trkpt><trkpt lat="46.661530376877636" lon="8.104220308363438"><ele>1833.5</ele></trkpt><trkpt lat="46.66152037726715" lon="8.104240308050066"><ele>1833.4499816894531</ele></trkpt><trkpt lat="46.6615303773433" lon="8.104300308041275"><ele>1833.7999877929688</ele></trkpt><trkpt lat="46.66153037780896" lon="8.10450030863285"><ele>1836.7999877929688</ele></trkpt><trkpt lat="46.66152037773281" lon="8.10452030878514"><ele>1837.1499938964844</ele></trkpt><trkpt lat="46.66152037773281" lon="8.104530308861285"><ele>1837.3399963378906</ele></trkpt><trkpt lat="46.66151037765667" lon="8.10454030893743"><ele>1837.2999877929688</ele></trkpt><trkpt lat="46.66151037765667" lon="8.10454030893743"><ele>1837.4199829101562</ele></trkpt><trkpt lat="46.66147037781775" lon="8.10454030893743"><ele>1838.0</ele></trkpt><trkpt lat="46.66144037805498" lon="8.104490309022367"><ele>1839.1299743652344</ele></trkpt><trkpt lat="46.6613603788428" lon="8.104380309581757"><ele>1842.239990234375</ele></trkpt><trkpt lat="46.661350378766656" lon="8.104350309818983"><ele>1842.97998046875</ele></trkpt><trkpt lat="46.66133037908003" lon="8.104330309666693"><ele>1843.8999938964844</ele></trkpt><trkpt lat="46.6613103793934" lon="8.104270310141146"><ele>1844.5999755859375</ele></trkpt><trkpt lat="46.66129037970677" lon="8.104090310167521"><ele>1846.9599914550781</ele></trkpt><trkpt lat="46.66128038009629" lon="8.10398031072691"><ele>1848.3999938964844</ele></trkpt><trkpt lat="46.66127038002014" lon="8.103930310811847"><ele>1849.1399841308594</ele></trkpt><trkpt lat="46.66126038040966" lon="8.103860310744494"><ele>1850.1099853515625</ele></trkpt><trkpt lat="46.66125038033351" lon="8.10383031098172"><ele>1850.5</ele></trkpt><trkpt lat="46.661210380960256" lon="8.103760310914367"><ele>1852.0</ele></trkpt><trkpt lat="46.66120038088411" lon="8.103710311464965"><ele>1852.8299865722656</ele></trkpt><trkpt lat="46.66120038088411" lon="8.10370031138882"><ele>1853.1099853515625</ele></trkpt><trkpt lat="46.66120038088411" lon="8.103690311312675"><ele>1853.1699829101562</ele></trkpt><trkpt lat="46.661170381587" lon="8.103630311787128"><ele>1854.8999938964844</ele></trkpt><trkpt lat="46.661140381358564" lon="8.10359031194821"><ele>1855.7999877929688</ele></trkpt><trkpt lat="46.66111038159579" lon="8.103550312109292"><ele>1857.1199951171875</ele></trkpt><trkpt lat="46.66110038198531" lon="8.103540312033147"><ele>1857.1999816894531</ele></trkpt><trkpt lat="46.66105038207024" lon="8.103510312270373"><ele>1858.7599792480469</ele></trkpt><trkpt lat="46.66102038230747" lon="8.1034803125076"><ele>1859.5999755859375</ele></trkpt><trkpt lat="46.660990382544696" lon="8.103470312431455"><ele>1860.2099914550781</ele></trkpt><trkpt lat="46.66096038231626" lon="8.10346031235531"><ele>1860.6999816894531</ele></trkpt><trkpt lat="46.660920382943004" lon="8.103440312668681"><ele>1861.8999938964844</ele></trkpt><trkpt lat="46.660860382951796" lon="8.103420312982053"><ele>1863.3699951171875</ele></trkpt><trkpt lat="46.66085038334131" lon="8.103410312905908"><ele>1863.7099914550781</ele></trkpt><trkpt lat="46.660810383502394" lon="8.103380313143134"><ele>1864.6999816894531</ele></trkpt><trkpt lat="46.660790383815765" lon="8.103340313304216"><ele>1866.1999816894531</ele></trkpt><trkpt lat="46.66078038373962" lon="8.103300313465297"><ele>1867.0799865722656</ele></trkpt><trkpt lat="46.66077038412914" lon="8.103260313626379"><ele>1867.6999816894531</ele></trkpt><trkpt lat="46.66076038405299" lon="8.103230313863605"><ele>1868.5099792480469</ele></trkpt><trkpt lat="46.66076038405299" lon="8.103180313948542"><ele>1869.2999877929688</ele></trkpt><trkpt lat="46.66074038436636" lon="8.103130314033478"><ele>1870.2999877929688</ele></trkpt><trkpt lat="46.66073038429022" lon="8.103120313957334"><ele>1870.5</ele></trkpt><trkpt lat="46.660720384679735" lon="8.10311031434685"><ele>1870.7599792480469</ele></trkpt><trkpt lat="46.6606903844513" lon="8.103100314270705"><ele>1871.3999938964844</ele></trkpt><trkpt lat="46.660660384688526" lon="8.103090314660221"><ele>1872.2999877929688</ele></trkpt><trkpt lat="46.66063038492575" lon="8.103100314736366"><ele>1872.9599914550781</ele></trkpt><trkpt lat="46.66063038492575" lon="8.103100314736366"><ele>1872.969970703125</ele></trkpt><trkpt lat="46.66062038484961" lon="8.10311031434685"><ele>1873.0</ele></trkpt><trkpt lat="46.660610385239124" lon="8.10317031480372"><ele>1873.5</ele></trkpt><trkpt lat="46.66060038516298" lon="8.103180314879864"><ele>1873.7999877929688</ele></trkpt><trkpt lat="46.660590385086834" lon="8.103180314879864"><ele>1874.4199829101562</ele></trkpt><trkpt lat="46.66052038548514" lon="8.103180314879864"><ele>1875.989990234375</ele></trkpt><trkpt lat="46.66052038548514" lon="8.103180314879864"><ele>1876.0999755859375</ele></trkpt><trkpt lat="46.660500385798514" lon="8.10317031526938"><ele>1876.5</ele></trkpt><trkpt lat="46.660480386111885" lon="8.103130315430462"><ele>1877.6999816894531</ele></trkpt><trkpt lat="46.66046038642526" lon="8.102980315685272"><ele>1879.8399963378906</ele></trkpt><trkpt lat="46.66045038634911" lon="8.102930315770209"><ele>1880.5999755859375</ele></trkpt><trkpt lat="46.66045038681477" lon="8.102860316168517"><ele>1881.6999816894531</ele></trkpt><trkpt lat="46.66045038681477" lon="8.102860316168517"><ele>1881.9099731445312</ele></trkpt><trkpt lat="46.66044038673863" lon="8.102840316016227"><ele>1882.3999938964844</ele></trkpt><trkpt lat="46.660430387128145" lon="8.102830315940082"><ele>1882.7999877929688</ele></trkpt><trkpt lat="46.660420387052" lon="8.102820316329598"><ele>1882.8999938964844</ele></trkpt><trkpt lat="46.660410386975855" lon="8.102830316405743"><ele>1883.4499816894531</ele></trkpt><trkpt lat="46.660390387289226" lon="8.102840316481888"><ele>1883.9099731445312</ele></trkpt><trkpt lat="46.66035038745031" lon="8.102880316320807"><ele>1884.6999816894531</ele></trkpt><trkpt lat="46.660320387687534" lon="8.102920316625386"><ele>1885.6699829101562</ele></trkpt><trkpt lat="46.6602903874591" lon="8.102950316853821"><ele>1886.2999877929688</ele></trkpt><trkpt lat="46.660260387696326" lon="8.10303031699732"><ele>1887.0899963378906</ele></trkpt><trkpt lat="46.6602403880097" lon="8.103050316683948"><ele>1887.4599914550781</ele></trkpt><trkpt lat="46.66023038793355" lon="8.103080316912383"><ele>1887.1999816894531</ele></trkpt><trkpt lat="46.660190388094634" lon="8.103140316903591"><ele>1888.2999877929688</ele></trkpt><trkpt lat="46.660170388408005" lon="8.103150316979736"><ele>1889.0999755859375</ele></trkpt><trkpt lat="46.660150388255715" lon="8.103150317445397"><ele>1890.1699829101562</ele></trkpt><trkpt lat="46.66013038856909" lon="8.103150317445397"><ele>1890.3999938964844</ele></trkpt><trkpt lat="46.66013038856909" lon="8.103150317445397"><ele>1891.0799865722656</ele></trkpt><trkpt lat="46.6601103884168" lon="8.103130317758769"><ele>1891.2999877929688</ele></trkpt><trkpt lat="46.660080389119685" lon="8.10307031776756"><ele>1892.9499816894531</ele></trkpt><trkpt lat="46.66004038974643" lon="8.10296031832695"><ele>1895.8099975585938</ele></trkpt><trkpt lat="46.66003038967028" lon="8.102950318250805"><ele>1895.5999755859375</ele></trkpt><trkpt lat="46.66002038959414" lon="8.10294031817466"><ele>1896.5499877929688</ele></trkpt><trkpt lat="46.66000038990751" lon="8.10294031817466"><ele>1896.5999755859375</ele></trkpt><trkpt lat="46.659970390144736" lon="8.102910318411887"><ele>1897.7999877929688</ele></trkpt><trkpt lat="46.659970390144736" lon="8.102910318411887"><ele>1897.6899719238281</ele></trkpt><trkpt lat="46.65993039030582" lon="8.102880318649113"><ele>1898.6399841308594</ele></trkpt><trkpt lat="46.6598903904669" lon="8.102860318962485"><ele>1899.5999755859375</ele></trkpt><trkpt lat="46.659860390238464" lon="8.10285031888634"><ele>1900.3699951171875</ele></trkpt><trkpt lat="46.659860390238464" lon="8.102840318810195"><ele>1900.1999816894531</ele></trkpt><trkpt lat="46.65981039078906" lon="8.102840319275856"><ele>1901.8999938964844</ele></trkpt><trkpt lat="46.65978039102629" lon="8.10287031950429"><ele>1902.6499938964844</ele></trkpt><trkpt lat="46.65978039102629" lon="8.102860319428146"><ele>1902.7699890136719</ele></trkpt><trkpt lat="46.65977039095014" lon="8.102850319352001"><ele>1903.0299987792969</ele></trkpt><trkpt lat="46.659750391263515" lon="8.102830319665372"><ele>1903.3999938964844</ele></trkpt><trkpt lat="46.659750391263515" lon="8.102820319589227"><ele>1903.6199951171875</ele></trkpt><trkpt lat="46.659750391263515" lon="8.102810319513083"><ele>1903.8999938964844</ele></trkpt><trkpt lat="46.659750391263515" lon="8.102790319826454"><ele>1904.0999755859375</ele></trkpt><trkpt lat="46.65974039118737" lon="8.10276031959802"><ele>1904.7099914550781</ele></trkpt><trkpt lat="46.65974039118737" lon="8.10274031991139"><ele>1905.0999755859375</ele></trkpt><trkpt lat="46.65974039165303" lon="8.10261032031849"><ele>1907.0799865722656</ele></trkpt><trkpt lat="46.65974039211869" lon="8.102560320403427"><ele>1908.3699951171875</ele></trkpt><trkpt lat="46.65974039211869" lon="8.102530320174992"><ele>1908.3999938964844</ele></trkpt><trkpt lat="46.65974039211869" lon="8.102510320488364"><ele>1909.719970703125</ele></trkpt><trkpt lat="46.65975039219484" lon="8.10248032072559"><ele>1910.0999755859375</ele></trkpt><trkpt lat="46.65976039227098" lon="8.102450320497155"><ele>1910.3999938964844</ele></trkpt><trkpt lat="46.65976039227098" lon="8.10244032042101"><ele>1910.489990234375</ele></trkpt><trkpt lat="46.659760392736644" lon="8.102440320886672"><ele>1910.6999816894531</ele></trkpt><trkpt lat="46.659760392736644" lon="8.102430320810527"><ele>1910.7899780273438</ele></trkpt><trkpt lat="46.6597503926605" lon="8.102410320658237"><ele>1910.97998046875</ele></trkpt><trkpt lat="46.6597503926605" lon="8.102410320658237"><ele>1910.7999877929688</ele></trkpt><trkpt lat="46.659700392745435" lon="8.102450320962816"><ele>1911.5099792480469</ele></trkpt><trkpt lat="46.65969039266929" lon="8.102460321038961"><ele>1911.7799987792969</ele></trkpt><trkpt lat="46.65965039283037" lon="8.102490320801735"><ele>1912.5</ele></trkpt><trkpt lat="46.659570393152535" lon="8.102530321106315"><ele>1913.2599792480469</ele></trkpt><trkpt lat="46.659550393000245" lon="8.10254032118246"><ele>1913.4599914550781</ele></trkpt><trkpt lat="46.65949039300904" lon="8.10258032148704"><ele>1914.239990234375</ele></trkpt><trkpt lat="46.6594903934747" lon="8.10258032148704"><ele>1914.6999816894531</ele></trkpt><trkpt lat="46.65943039348349" lon="8.102610321249813"><ele>1915.5699768066406</ele></trkpt><trkpt lat="46.6594103933312" lon="8.102620321325958"><ele>1915.7999877929688</ele></trkpt><trkpt lat="46.65937039349228" lon="8.102630321402103"><ele>1916.2999877929688</ele></trkpt><trkpt lat="46.65932039357722" lon="8.102640321478248"><ele>1916.25</ele></trkpt><trkpt lat="46.659140394069254" lon="8.102690321858972"><ele>1918.9299926757812</ele></trkpt><trkpt lat="46.65905039431527" lon="8.102720322087407"><ele>1920.0999755859375</ele></trkpt><trkpt lat="46.658950394485146" lon="8.102740322239697"><ele>1921.25</ele></trkpt><trkpt lat="46.65883039496839" lon="8.102760322857648"><ele>1922.5499877929688</ele></trkpt><trkpt lat="46.658820394892246" lon="8.102770322468132"><ele>1922.3899841308594</ele></trkpt><trkpt lat="46.65875039482489" lon="8.102780322544277"><ele>1923.3999938964844</ele></trkpt><trkpt lat="46.658670395147055" lon="8.102780323009938"><ele>1924.3899841308594</ele></trkpt><trkpt lat="46.65862039523199" lon="8.102780323009938"><ele>1925.0</ele></trkpt><trkpt lat="46.65848039556295" lon="8.10276032332331"><ele>1926.5</ele></trkpt><trkpt lat="46.6584703954868" lon="8.102790323086083"><ele>1926.2899780273438</ele></trkpt><trkpt lat="46.6584703954868" lon="8.102800323162228"><ele>1926.2999877929688</ele></trkpt><trkpt lat="46.65843039564788" lon="8.102830323390663"><ele>1926.1899719238281</ele></trkpt><trkpt lat="46.65841039549559" lon="8.102840323466808"><ele>1926.3999938964844</ele></trkpt><trkpt lat="46.65838039573282" lon="8.102830323390663"><ele>1926.3299865722656</ele></trkpt><trkpt lat="46.65830039558932" lon="8.102810323238373"><ele>1926.7999877929688</ele></trkpt><trkpt lat="46.65827039582655" lon="8.102830323390663"><ele>1927.0299987792969</ele></trkpt><trkpt lat="46.65823039598763" lon="8.102850323542953"><ele>1927.3999938964844</ele></trkpt><trkpt lat="46.65821039583534" lon="8.102860323619097"><ele>1927.3999938964844</ele></trkpt><trkpt lat="46.65821039583534" lon="8.102860323619097"><ele>1927.5999755859375</ele></trkpt><trkpt lat="46.65814039576799" lon="8.102860323619097"><ele>1928.0999755859375</ele></trkpt><trkpt lat="46.65811039600521" lon="8.102850323542953"><ele>1928.5999755859375</ele></trkpt><trkpt lat="46.658030395861715" lon="8.102810323238373"><ele>1927.6999816894531</ele></trkpt><trkpt lat="46.65800039563328" lon="8.102790323551744"><ele>1927.2999877929688</ele></trkpt><trkpt lat="46.65798039594665" lon="8.102790323551744"><ele>1927.0899963378906</ele></trkpt><trkpt lat="46.65790039580315" lon="8.102790323086083"><ele>1926.8099975585938</ele></trkpt><trkpt lat="46.6578303957358" lon="8.102790323086083"><ele>1926.5399780273438</ele></trkpt><trkpt lat="46.657820395659655" lon="8.102790323086083"><ele>1926.5399780273438</ele></trkpt><trkpt lat="46.65777039574459" lon="8.102770323399454"><ele>1926.7999877929688</ele></trkpt><trkpt lat="46.65770039567724" lon="8.102750323247164"><ele>1927.2699890136719</ele></trkpt><trkpt lat="46.65758039616048" lon="8.10274032363668"><ele>1929.0999755859375</ele></trkpt><trkpt lat="46.65750039648265" lon="8.10274032363668"><ele>1929.5999755859375</ele></trkpt><trkpt lat="46.65742039633915" lon="8.102720323950052"><ele>1929.3099975585938</ele></trkpt><trkpt lat="46.657370396424085" lon="8.102710323873907"><ele>1929.6999816894531</ele></trkpt><trkpt lat="46.65734039619565" lon="8.102710323873907"><ele>1929.6199951171875</ele></trkpt><trkpt lat="46.65721039660275" lon="8.102690324187279"><ele>1931.5999755859375</ele></trkpt><trkpt lat="46.657050397247076" lon="8.102730324491858"><ele>1933.8999938964844</ele></trkpt><trkpt lat="46.65702039701864" lon="8.102740324568003"><ele>1934.1999816894531</ele></trkpt><trkpt lat="46.65701039740816" lon="8.102740324568003"><ele>1934.3299865722656</ele></trkpt><trkpt lat="46.65699039725587" lon="8.102740324568003"><ele>1934.3999938964844</ele></trkpt><trkpt lat="46.656960397493094" lon="8.102730324491858"><ele>1934.8999938964844</ele></trkpt><trkpt lat="46.656920397654176" lon="8.102720324881375"><ele>1935.8999938964844</ele></trkpt><trkpt lat="46.656880397349596" lon="8.10269032465294"><ele>1936.1999816894531</ele></trkpt><trkpt lat="46.65683039743453" lon="8.102640324737877"><ele>1936.1399841308594</ele></trkpt><trkpt lat="46.656810397747904" lon="8.102620325051248"><ele>1936.2899780273438</ele></trkpt><trkpt lat="46.65678039751947" lon="8.10258032521233"><ele>1937.0999755859375</ele></trkpt><trkpt lat="46.65671039791778" lon="8.10258032521233"><ele>1937.0999755859375</ele></trkpt><trkpt lat="46.65669039776549" lon="8.10258032521233"><ele>1937.5999755859375</ele></trkpt><trkpt lat="46.6566703976132" lon="8.102570325136185"><ele>1937.4199829101562</ele></trkpt><trkpt lat="46.65661039808765" lon="8.102540325373411"><ele>1938.5999755859375</ele></trkpt><trkpt lat="46.65657039824873" lon="8.102530325297266"><ele>1939.1999816894531</ele></trkpt><trkpt lat="46.656490398570895" lon="8.102510325610638"><ele>1941.1399841308594</ele></trkpt><trkpt lat="46.65647039888427" lon="8.102500325534493"><ele>1941.7999877929688</ele></trkpt><trkpt lat="46.6564203989692" lon="8.10247032577172"><ele>1943.2699890136719</ele></trkpt><trkpt lat="46.65639039920643" lon="8.10245032608509"><ele>1944.2999877929688</ele></trkpt><trkpt lat="46.65635039936751" lon="8.102450326550752"><ele>1945.5</ele></trkpt><trkpt lat="46.65633039968088" lon="8.102470326703042"><ele>1947.0999755859375</ele></trkpt><trkpt lat="46.65630039991811" lon="8.10253032669425"><ele>1948.0</ele></trkpt><trkpt lat="46.65628040023148" lon="8.10255032684654"><ele>1948.7999877929688</ele></trkpt><trkpt lat="46.656270400155336" lon="8.102560326922685"><ele>1948.5</ele></trkpt><trkpt lat="46.656250400003046" lon="8.102560326922685"><ele>1949.1999816894531</ele></trkpt><trkpt lat="46.656250400003046" lon="8.102560326922685"><ele>1949.5999755859375</ele></trkpt><trkpt lat="46.65621040062979" lon="8.102540327236056"><ele>1950.5</ele></trkpt><trkpt lat="46.6561904004775" lon="8.102540327236056"><ele>1950.7999877929688</ele></trkpt><trkpt lat="46.65617040079087" lon="8.102520327083766"><ele>1951.3099975585938</ele></trkpt><trkpt lat="46.65615040063858" lon="8.102500327397138"><ele>1951.8999938964844</ele></trkpt><trkpt lat="46.65611040079966" lon="8.102470327634364"><ele>1952.2999877929688</ele></trkpt><trkpt lat="46.65610040072352" lon="8.102470327634364"><ele>1953.0799865722656</ele></trkpt><trkpt lat="46.65608040103689" lon="8.102470327634364"><ele>1953.5999755859375</ele></trkpt><trkpt lat="46.65608040103689" lon="8.10248032771051"><ele>1953.6499938964844</ele></trkpt><trkpt lat="46.65607040096074" lon="8.102490327786654"><ele>1954.2099914550781</ele></trkpt><trkpt lat="46.65604040166363" lon="8.102560327854007"><ele>1955.8999938964844</ele></trkpt><trkpt lat="46.656010401435196" lon="8.102610328234732"><ele>1956.6999816894531</ele></trkpt><trkpt lat="46.65598040167242" lon="8.102630328387022"><ele>1957.1999816894531</ele></trkpt><trkpt lat="46.655960401985794" lon="8.102630328387022"><ele>1957.3999938964844</ele></trkpt><trkpt lat="46.655940401833504" lon="8.102600328158587"><ele>1957.7999877929688</ele></trkpt><trkpt lat="46.65593040175736" lon="8.102570328395814"><ele>1958.2999877929688</ele></trkpt><trkpt lat="46.655920402146876" lon="8.102560328319669"><ele>1958.5</ele></trkpt><trkpt lat="46.65591040207073" lon="8.102560328319669"><ele>1958.3099975585938</ele></trkpt><trkpt lat="46.655900401994586" lon="8.102560328319669"><ele>1958.5999755859375</ele></trkpt><trkpt lat="46.65589040191844" lon="8.102550328709185"><ele>1958.6999816894531</ele></trkpt><trkpt lat="46.65588040230796" lon="8.102530328556895"><ele>1959.0099792480469</ele></trkpt><trkpt lat="46.65588040230796" lon="8.102510328404605"><ele>1959.0999755859375</ele></trkpt><trkpt lat="46.65587040223181" lon="8.102480328641832"><ele>1959.719970703125</ele></trkpt><trkpt lat="46.65587040223181" lon="8.102440328802913"><ele>1960.2999877929688</ele></trkpt><trkpt lat="46.655870402697474" lon="8.10239032888785"><ele>1960.8999938964844</ele></trkpt><trkpt lat="46.65586040262133" lon="8.102350329048932"><ele>1961.3999938964844</ele></trkpt><trkpt lat="46.65584040246904" lon="8.102320328820497"><ele>1962.0</ele></trkpt><trkpt lat="46.6558404029347" lon="8.102310329210013"><ele>1962.22998046875</ele></trkpt><trkpt lat="46.6558404029347" lon="8.102310329210013"><ele>1962.2999877929688</ele></trkpt><trkpt lat="46.6558404029347" lon="8.102310329210013"><ele>1962.2699890136719</ele></trkpt><trkpt lat="46.6558404029347" lon="8.102280328981578"><ele>1962.2999877929688</ele></trkpt><trkpt lat="46.655810402706265" lon="8.102150329388678"><ele>1963.0</ele></trkpt><trkpt lat="46.65580040263012" lon="8.102080328855664"><ele>1962.2999877929688</ele></trkpt><trkpt lat="46.65580040263012" lon="8.10207032924518"><ele>1962.47998046875</ele></trkpt><trkpt lat="46.65570040233433" lon="8.101880328729749"><ele>1960.2699890136719</ele></trkpt><trkpt lat="46.65570040233433" lon="8.101880328729749"><ele>1960.5</ele></trkpt><trkpt lat="46.65570040233433" lon="8.101880328729749"><ele>1960.239990234375</ele></trkpt><trkpt lat="46.65571040241048" lon="8.101850328966975"><ele>1960.3799743652344</ele></trkpt><trkpt lat="46.65571040241048" lon="8.101850328501314"><ele>1960.0599975585938</ele></trkpt></trkseg></trk></gpx>