<?xml version="1.0" encoding="utf-8"?><gpx version="1.1" creator="MySchweizMobil - https://map.schweizmobil.ch/" xmlns:xsi="http://www.w3.org/2001/XMLSchema-instance" xmlns="http://www.topografix.com/GPX/1/1" xsi:schemaLocation="http://www.topografix.com/GPX/1/1 http://www.topografix.com/GPX/1/1/gpx.xsd"><metadata><name>Grosse Scheidegg to First</name><bounds minlat="46.655810402706265" minlon="8.053170359227806" maxlat="46.66803041426465" maxlon="8.101940329186618" /></metadata><trk><name>Grosse Scheidegg to First</name><trkseg><trkpt lat="46.655810402706265" lon="8.101940329186618"><ele>1962.0599975585938</ele></trkpt><trkpt lat="46.65582040278241" lon="8.101880328729749"><ele>1961.6299743652344</ele></trkpt><trkpt lat="46.65590040292591" lon="8.101870329119265"><ele>1962.3999938964844</ele></trkpt><trkpt lat="46.65590040292591" lon="8.101830329280347"><ele>1962.7999877929688</ele></trkpt><trkpt lat="46.65591040300205" lon="8.101790328975767"><ele>1962.8499755859375</ele></trkpt><trkpt lat="46.6559204030782" lon="8.101780329365283"><ele>1963.5</ele></trkpt><trkpt lat="46.65594040323049" lon="8.101750329136848"><ele>1963.6099853515625</ele></trkpt><trkpt lat="46.65596040338278" lon="8.10171032929793"><ele>1964.7999877929688</ele></trkpt><trkpt lat="46.656090403907" lon="8.10160032985732"><ele>1968.0</ele></trkpt><trkpt lat="46.656120404135436" lon="8.101560330018401"><ele>1968.5999755859375</ele></trkpt><trkpt lat="46.65615040436387" lon="8.10149033041671"><ele>1969.5</ele></trkpt><trkpt lat="46.65627040481195" lon="8.101220330689102"><ele>1971.469970703125</ele></trkpt><trkpt lat="46.65636040456593" lon="8.101060330402106"><ele>1970.8999938964844</ele></trkpt><trkpt lat="46.656370404642075" lon="8.101060330402106"><ele>1970.8899841308594</ele></trkpt><trkpt lat="46.65645040431991" lon="8.10096033057198"><ele>1970.8999938964844</ele></trkpt><trkpt lat="46.65664040390402" lon="8.100700329523534"><ele>1966.6999816894531</ele></trkpt><trkpt lat="46.65671040350571" lon="8.100620329380035"><ele>1965.6499938964844</ele></trkpt><trkpt lat="46.65671040350571" lon="8.100620329380035"><ele>1965.6599731445312</ele></trkpt><trkpt lat="46.65679040364921" lon="8.100560329388827"><ele>1965.8099975585938</ele></trkpt><trkpt lat="46.656800403725356" lon="8.100560329854488"><ele>1966.0999755859375</ele></trkpt><trkpt lat="46.656880403868854" lon="8.100400329567492"><ele>1966.7999877929688</ele></trkpt><trkpt lat="46.65696040401235" lon="8.100260329898447"><ele>1969.0</ele></trkpt><trkpt lat="46.65700040431693" lon="8.1002003303729"><ele>1970.489990234375</ele></trkpt><trkpt lat="46.65704040462151" lon="8.100140330381691"><ele>1971.0999755859375</ele></trkpt><trkpt lat="46.65712040476501" lon="8.10007033078"><ele>1973.1599731445312</ele></trkpt><trkpt lat="46.657170405145735" lon="8.100040331017226"><ele>1973.5999755859375</ele></trkpt><trkpt lat="46.657210405450314" lon="8.100030330941081"><ele>1974.4399719238281</ele></trkpt><trkpt lat="46.65725040528923" lon="8.100030330941081"><ele>1975.22998046875</ele></trkpt><trkpt lat="46.657380405813456" lon="8.100080331787467"><ele>1978.0</ele></trkpt><trkpt lat="46.65747040649876" lon="8.100110332015902"><ele>1979.5999755859375</ele></trkpt><trkpt lat="46.65752040641382" lon="8.100110332015902"><ele>1980.0599975585938</ele></trkpt><trkpt lat="46.65757040632889" lon="8.100110332015902"><ele>1980.72998046875</ele></trkpt><trkpt lat="46.6576404068619" lon="8.100100332405418"><ele>1981.8999938964844</ele></trkpt><trkpt lat="46.65768040670082" lon="8.100080332253128"><ele>1982.0899963378906</ele></trkpt><trkpt lat="46.657730407081544" lon="8.100050332490355"><ele>1982.7999877929688</ele></trkpt><trkpt lat="46.6578004071489" lon="8.100000332575291"><ele>1983.2099914550781</ele></trkpt><trkpt lat="46.6578004071489" lon="8.099990332499146"><ele>1983.239990234375</ele></trkpt><trkpt lat="46.657840406987816" lon="8.099940332584083"><ele>1983.3999938964844</ele></trkpt><trkpt lat="46.65791040705517" lon="8.099810332525522"><ele>1983.8399963378906</ele></trkpt><trkpt lat="46.65795040735975" lon="8.099750332534313"><ele>1983.6999816894531</ele></trkpt><trkpt lat="46.65804040711373" lon="8.099640332628042"><ele>1983.8499755859375</ele></trkpt><trkpt lat="46.65806040726602" lon="8.099610332399607"><ele>1983.7999877929688</ele></trkpt><trkpt lat="46.65810040710494" lon="8.099550332408398"><ele>1983.1899719238281</ele></trkpt><trkpt lat="46.658160406630486" lon="8.09945033211261"><ele>1982.1999816894531</ele></trkpt><trkpt lat="46.658330406062305" lon="8.099170331843197"><ele>1979.3299865722656</ele></trkpt><trkpt lat="46.658480406273156" lon="8.09892033180222"><ele>1978.6999816894531</ele></trkpt><trkpt lat="46.65861040633172" lon="8.098740331828594"><ele>1978.5999755859375</ele></trkpt><trkpt lat="46.65881040645763" lon="8.098470331635326"><ele>1979.2999877929688</ele></trkpt><trkpt lat="46.65895040612668" lon="8.098270331509411"><ele>1979.3199768066406</ele></trkpt><trkpt lat="46.65915040625259" lon="8.09797033155337"><ele>1979.8499755859375</ele></trkpt><trkpt lat="46.65923040639609" lon="8.097860331647098"><ele>1979.8999938964844</ele></trkpt><trkpt lat="46.65936040645465" lon="8.097700331825763"><ele>1979.8999938964844</ele></trkpt><trkpt lat="46.659410406369716" lon="8.09763033175841"><ele>1980.0</ele></trkpt><trkpt lat="46.65942040644586" lon="8.09761033160612"><ele>1980.0599975585938</ele></trkpt><trkpt lat="46.659430406522006" lon="8.097590331919491"><ele>1980.1299743652344</ele></trkpt><trkpt lat="46.65944040659815" lon="8.097560331691056"><ele>1980.2999877929688</ele></trkpt><trkpt lat="46.659450406674296" lon="8.097510331775993"><ele>1980.1999816894531</ele></trkpt><trkpt lat="46.659450406674296" lon="8.097500331699848"><ele>1980.3499755859375</ele></trkpt><trkpt lat="46.659450406674296" lon="8.097470331937075"><ele>1980.2999877929688</ele></trkpt><trkpt lat="46.65946040675044" lon="8.097410331945866"><ele>1980.5599975585938</ele></trkpt><trkpt lat="46.65946040675044" lon="8.097360332030803"><ele>1980.5</ele></trkpt><trkpt lat="46.65946040675044" lon="8.097360332030803"><ele>1980.719970703125</ele></trkpt><trkpt lat="46.65946040675044" lon="8.09731033211574"><ele>1980.7899780273438</ele></trkpt><trkpt lat="46.659450406674296" lon="8.097250332124531"><ele>1980.8999938964844</ele></trkpt><trkpt lat="46.659450406674296" lon="8.097110331989825"><ele>1981.5</ele></trkpt><trkpt lat="46.65944040659815" lon="8.097010332159698"><ele>1981.7999877929688</ele></trkpt><trkpt lat="46.65945040713996" lon="8.096730332355946"><ele>1983.0</ele></trkpt><trkpt lat="46.65945040713996" lon="8.096650332212448"><ele>1983.2999877929688</ele></trkpt><trkpt lat="46.65951040759683" lon="8.096130332443863"><ele>1984.7099914550781</ele></trkpt><trkpt lat="46.65952040720731" lon="8.096070332452655"><ele>1984.7999877929688</ele></trkpt><trkpt lat="46.65960040735081" lon="8.09570033242926"><ele>1985.239990234375</ele></trkpt><trkpt lat="46.6596204075031" lon="8.095620332751423"><ele>1985.0999755859375</ele></trkpt><trkpt lat="46.65967040741816" lon="8.095500332303345"><ele>1984.6999816894531</ele></trkpt><trkpt lat="46.65976040717214" lon="8.095330332405865"><ele>1984.1999816894531</ele></trkpt><trkpt lat="46.65982040716335" lon="8.095240332186222"><ele>1984.5</ele></trkpt><trkpt lat="46.659870407544076" lon="8.095210332423449"><ele>1984.5899963378906</ele></trkpt><trkpt lat="46.65994040761143" lon="8.095160332508385"><ele>1984.5</ele></trkpt><trkpt lat="46.66000040760264" lon="8.09515033243224"><ele>1984.5999755859375</ele></trkpt><trkpt lat="46.66007040720433" lon="8.09515033243224"><ele>1984.3999938964844</ele></trkpt><trkpt lat="46.66016040742397" lon="8.095180332195014"><ele>1984.3999938964844</ele></trkpt><trkpt lat="46.660440407693386" lon="8.095310332719237"><ele>1985.7799987792969</ele></trkpt><trkpt lat="46.660500407684594" lon="8.09534033248201"><ele>1985.8999938964844</ele></trkpt><trkpt lat="46.660630407743156" lon="8.095430332701653"><ele>1987.1399841308594</ele></trkpt><trkpt lat="46.66078040795401" lon="8.095530332997441"><ele>1987.5</ele></trkpt><trkpt lat="46.660860408097506" lon="8.095570333302021"><ele>1988.5299987792969</ele></trkpt><trkpt lat="46.660920408088714" lon="8.09559033298865"><ele>1988.6299743652344</ele></trkpt><trkpt lat="46.661030407994986" lon="8.095630332827568"><ele>1988.1999816894531</ele></trkpt><trkpt lat="46.661090408451855" lon="8.095650332979858"><ele>1988.5999755859375</ele></trkpt><trkpt lat="46.66112040821463" lon="8.095650332979858"><ele>1988.989990234375</ele></trkpt><trkpt lat="46.661720409523696" lon="8.09565033391118"><ele>1993.5999755859375</ele></trkpt><trkpt lat="46.661780409514904" lon="8.09567033406347"><ele>1994.5499877929688</ele></trkpt><trkpt lat="46.66179040959105" lon="8.09567033406347"><ele>1994.1999816894531</ele></trkpt><trkpt lat="46.662120409775525" lon="8.095780334435403"><ele>1995.5999755859375</ele></trkpt><trkpt lat="46.662350409664214" lon="8.095860334578902"><ele>1996.3999938964844</ele></trkpt><trkpt lat="46.66245040996" lon="8.09588033426553"><ele>1996.6999816894531</ele></trkpt><trkpt lat="46.662500409875065" lon="8.095890334341675"><ele>1997.4099731445312</ele></trkpt><trkpt lat="46.662560410331935" lon="8.09590033441782"><ele>1997.5</ele></trkpt><trkpt lat="46.66262041032314" lon="8.095910334493965"><ele>1998.25</ele></trkpt><trkpt lat="46.66272041015327" lon="8.095930334646255"><ele>1998.5999755859375</ele></trkpt><trkpt lat="46.66286041075364" lon="8.095930335111916"><ele>1999.5899963378906</ele></trkpt><trkpt lat="46.6629104106687" lon="8.095930335111916"><ele>1999.6999816894531</ele></trkpt><trkpt lat="46.66306041087955" lon="8.095920335035771"><ele>2000.2999877929688</ele></trkpt><trkpt lat="46.663300410844386" lon="8.095900335349143"><ele>2001.2999877929688</ele></trkpt><trkpt lat="46.6634204108268" lon="8.095900335349143"><ele>2002.0299987792969</ele></trkpt><trkpt lat="46.663530411198735" lon="8.095910335425287"><ele>2002.0299987792969</ele></trkpt><trkpt lat="46.66361041134223" lon="8.095910335425287"><ele>2002.2999877929688</ele></trkpt><trkpt lat="46.663740410935134" lon="8.095910335425287"><ele>2002.5</ele></trkpt><trkpt lat="46.663800411392" lon="8.095910335425287"><ele>2002.8999938964844</ele></trkpt><trkpt lat="46.66388041106984" lon="8.095900335349143"><ele>2002.7999877929688</ele></trkpt><trkpt lat="46.66398041136563" lon="8.095900335349143"><ele>2003.0</ele></trkpt><trkpt lat="46.66405041143298" lon="8.095920335501432"><ele>2003.219970703125</ele></trkpt><trkpt lat="46.66416041133925" lon="8.095950335264206"><ele>2002.8999938964844</ele></trkpt><trkpt lat="46.66422041133046" lon="8.095950335264206"><ele>2003.0</ele></trkpt><trkpt lat="46.66430041147396" lon="8.095930335577577"><ele>2003.1999816894531</ele></trkpt><trkpt lat="46.66449041152373" lon="8.095880335662514"><ele>2004.3999938964844</ele></trkpt><trkpt lat="46.664730411954224" lon="8.095860335975885"><ele>2005.9999694824219</ele></trkpt><trkpt lat="46.66477041179314" lon="8.095840336289257"><ele>2006.5</ele></trkpt><trkpt lat="46.66478041186929" lon="8.095830336213112"><ele>2006.3999938964844</ele></trkpt><trkpt lat="46.66481041209772" lon="8.095810336060822"><ele>2006.8999938964844</ele></trkpt><trkpt lat="46.66481041209772" lon="8.095810336060822"><ele>2006.8699951171875</ele></trkpt><trkpt lat="46.664880412165076" lon="8.095780336298048"><ele>2007.5999755859375</ele></trkpt><trkpt lat="46.664920412469655" lon="8.095750336069614"><ele>2008.0</ele></trkpt><trkpt lat="46.66500041214749" lon="8.095640336163342"><ele>2007.9199829101562</ele></trkpt><trkpt lat="46.66500041214749" lon="8.095630336087197"><ele>2007.5999755859375</ele></trkpt><trkpt lat="46.66502041229978" lon="8.095620336476713"><ele>2007.72998046875</ele></trkpt><trkpt lat="46.665050412062556" lon="8.095620336011052"><ele>2007.4999694824219</ele></trkpt><trkpt lat="46.66508041229099" lon="8.095590336248279"><ele>2007.1999816894531</ele></trkpt><trkpt lat="46.66510041197762" lon="8.095560336019844"><ele>2006.8499755859375</ele></trkpt><trkpt lat="46.66512041212991" lon="8.095530335791409"><ele>2006.2999877929688</ele></trkpt><trkpt lat="46.66516041196883" lon="8.095470336265862"><ele>2006.4499816894531</ele></trkpt><trkpt lat="46.6651904117316" lon="8.095430335961282"><ele>2006.1999816894531</ele></trkpt><trkpt lat="46.665200411807746" lon="8.095420335885137"><ele>2006.4499816894531</ele></trkpt><trkpt lat="46.665220411960036" lon="8.095360335893929"><ele>2006.2999877929688</ele></trkpt><trkpt lat="46.6652704118751" lon="8.095290336292237"><ele>2006.8999938964844</ele></trkpt><trkpt lat="46.66533041233197" lon="8.095190335996449"><ele>2007.2999877929688</ele></trkpt><trkpt lat="46.66544041223824" lon="8.095010336488485"><ele>2008.3999938964844</ele></trkpt><trkpt lat="46.665470412466675" lon="8.094960336573422"><ele>2008.6899719238281</ele></trkpt><trkpt lat="46.66550041269511" lon="8.094930336344987"><ele>2008.6999816894531</ele></trkpt><trkpt lat="46.66559041244909" lon="8.09483033651486"><ele>2009.0999755859375</ele></trkpt><trkpt lat="46.66571041243151" lon="8.094710336532444"><ele>2009.0</ele></trkpt><trkpt lat="46.6657304125838" lon="8.094690336380154"><ele>2009.239990234375</ele></trkpt><trkpt lat="46.66575041273609" lon="8.094670336227864"><ele>2009.0999755859375</ele></trkpt><trkpt lat="46.66579041257501" lon="8.094630336388946"><ele>2009.3499755859375</ele></trkpt><trkpt lat="46.665810412727296" lon="8.094590336550027"><ele>2009.1999816894531</ele></trkpt><trkpt lat="46.66584041249007" lon="8.094530336558819"><ele>2009.5</ele></trkpt><trkpt lat="46.66586041264236" lon="8.0944903367199"><ele>2009.5</ele></trkpt><trkpt lat="46.66596041293815" lon="8.094360336661339"><ele>2009.9499816894531</ele></trkpt><trkpt lat="46.66599041270092" lon="8.094310336746275"><ele>2009.8999938964844</ele></trkpt><trkpt lat="46.66605041269213" lon="8.094200336840004"><ele>2010.3999938964844</ele></trkpt><trkpt lat="46.666100413072854" lon="8.094010336790234"><ele>2011.2999877929688</ele></trkpt><trkpt lat="46.666110413149" lon="8.093900336883962"><ele>2011.7999877929688</ele></trkpt><trkpt lat="46.666100413072854" lon="8.093670336995274"><ele>2012.2599792480469</ele></trkpt><trkpt lat="46.66609041299671" lon="8.093590336851776"><ele>2012.2999877929688</ele></trkpt><trkpt lat="46.666100413072854" lon="8.09345033671707"><ele>2012.1999816894531</ele></trkpt><trkpt lat="46.666110413149" lon="8.093420336954296"><ele>2012.5399780273438</ele></trkpt><trkpt lat="46.666140413377434" lon="8.093340336810797"><ele>2012.6999816894531</ele></trkpt><trkpt lat="46.66618041321635" lon="8.093230336904526"><ele>2013.1099853515625</ele></trkpt><trkpt lat="46.6661904132925" lon="8.093200337141752"><ele>2013.1999816894531</ele></trkpt><trkpt lat="46.66624041320756" lon="8.093100336845964"><ele>2012.6999816894531</ele></trkpt><trkpt lat="46.666290413588285" lon="8.0930503369309"><ele>2013.1699829101562</ele></trkpt><trkpt lat="46.66630041319877" lon="8.093030336778611"><ele>2012.5999755859375</ele></trkpt><trkpt lat="46.66635041311383" lon="8.093010337091982"><ele>2012.7999877929688</ele></trkpt><trkpt lat="46.66642041364685" lon="8.093010337091982"><ele>2013.5</ele></trkpt><trkpt lat="46.666480413638055" lon="8.092990337405354"><ele>2014.5999755859375</ele></trkpt><trkpt lat="46.66653041355312" lon="8.092960337176919"><ele>2014.5999755859375</ele></trkpt><trkpt lat="46.66659041400999" lon="8.09294033749029"><ele>2015.7099914550781</ele></trkpt><trkpt lat="46.66666041407734" lon="8.092920337338"><ele>2016.1999816894531</ele></trkpt><trkpt lat="46.66672041406855" lon="8.092870337422937"><ele>2016.8999938964844</ele></trkpt><trkpt lat="46.666770414449275" lon="8.092840337660164"><ele>2017.5999755859375</ele></trkpt><trkpt lat="46.66684041451663" lon="8.092760337982327"><ele>2018.1999816894531</ele></trkpt><trkpt lat="46.66687041474506" lon="8.092740337830037"><ele>2018.7999877929688</ele></trkpt><trkpt lat="46.666880414355546" lon="8.092720338143408"><ele>2018.8699951171875</ele></trkpt><trkpt lat="46.6669504144229" lon="8.092630337923765"><ele>2019.1899719238281</ele></trkpt><trkpt lat="46.6670304145664" lon="8.092520338017493"><ele>2019.3999938964844</ele></trkpt><trkpt lat="46.66706041479483" lon="8.092480338178575"><ele>2019.6599731445312</ele></trkpt><trkpt lat="46.66712041478604" lon="8.092430338263512"><ele>2019.7999877929688</ele></trkpt><trkpt lat="46.66720041492954" lon="8.092310338281095"><ele>2020.2999877929688</ele></trkpt><trkpt lat="46.66722041508183" lon="8.09230033820495"><ele>2020.5</ele></trkpt><trkpt lat="46.66723041469231" lon="8.092290338128805"><ele>2020.4599914550781</ele></trkpt><trkpt lat="46.66724041476846" lon="8.09228033805266"><ele>2020.6999816894531</ele></trkpt><trkpt lat="46.66727041499689" lon="8.09228033805266"><ele>2020.5899963378906</ele></trkpt><trkpt lat="46.66728041507304" lon="8.09228033805266"><ele>2020.5</ele></trkpt><trkpt lat="46.66728041507304" lon="8.09228033805266"><ele>2020.6499938964844</ele></trkpt><trkpt lat="46.66731041483581" lon="8.092250338289887"><ele>2020.5</ele></trkpt><trkpt lat="46.667300414759666" lon="8.092200338374823"><ele>2020.5699768066406</ele></trkpt><trkpt lat="46.66729041514918" lon="8.092150337994099"><ele>2020.5999755859375</ele></trkpt><trkpt lat="46.667300414759666" lon="8.092120338231325"><ele>2020.4199829101562</ele></trkpt><trkpt lat="46.6673304149881" lon="8.092050338163972"><ele>2020.2999877929688</ele></trkpt><trkpt lat="46.667340414598584" lon="8.091960337944329"><ele>2019.8999938964844</ele></trkpt><trkpt lat="46.66737041482702" lon="8.091870338190347"><ele>2020.5099792480469</ele></trkpt><trkpt lat="46.66739041497931" lon="8.091780338436365"><ele>2020.7999877929688</ele></trkpt><trkpt lat="46.667400415055454" lon="8.091700338292867"><ele>2021.0999755859375</ele></trkpt><trkpt lat="46.6674104151316" lon="8.091670338064432"><ele>2020.8999938964844</ele></trkpt><trkpt lat="46.6674104151316" lon="8.091650338377804"><ele>2021.1599731445312</ele></trkpt><trkpt lat="46.667400415055454" lon="8.091610338073224"><ele>2020.6999816894531</ele></trkpt><trkpt lat="46.667420415207744" lon="8.091420338489115"><ele>2021.2599792480469</ele></trkpt><trkpt lat="46.66743041528389" lon="8.091310338117182"><ele>2021.3999938964844</ele></trkpt><trkpt lat="46.66743041528389" lon="8.091270338278264"><ele>2021.5699768066406</ele></trkpt><trkpt lat="46.66743041528389" lon="8.0912203383632"><ele>2021.3999938964844</ele></trkpt><trkpt lat="46.66745041497052" lon="8.091160338371992"><ele>2021.3399963378906</ele></trkpt><trkpt lat="46.66747041512281" lon="8.091060338541865"><ele>2021.7799987792969</ele></trkpt><trkpt lat="46.66748041519895" lon="8.09103033831343"><ele>2021.5999755859375</ele></trkpt><trkpt lat="46.66750041535124" lon="8.090980338398367"><ele>2023.0</ele></trkpt><trkpt lat="46.66751041542739" lon="8.090960338711739"><ele>2023.1799926757812</ele></trkpt><trkpt lat="46.66752041550353" lon="8.090920338407159"><ele>2023.3999938964844</ele></trkpt><trkpt lat="46.66753041557968" lon="8.090890338644385"><ele>2023.6399841308594</ele></trkpt><trkpt lat="46.66753041557968" lon="8.09086033841595"><ele>2023.5999755859375</ele></trkpt><trkpt lat="46.66756041580811" lon="8.090800338890404"><ele>2024.0</ele></trkpt><trkpt lat="46.667590415570885" lon="8.090760338585824"><ele>2024.6999816894531</ele></trkpt><trkpt lat="46.66764041595161" lon="8.090700339060277"><ele>2025.7899780273438</ele></trkpt><trkpt lat="46.66764041595161" lon="8.090690338984132"><ele>2025.5999755859375</ele></trkpt><trkpt lat="46.667650416027755" lon="8.090660338755697"><ele>2025.6999816894531</ele></trkpt><trkpt lat="46.66764041595161" lon="8.090620338916779"><ele>2026.0999755859375</ele></trkpt><trkpt lat="46.66759041650221" lon="8.090530339162797"><ele>2027.5699768066406</ele></trkpt><trkpt lat="46.66758041642606" lon="8.090510339476168"><ele>2027.7999877929688</ele></trkpt><trkpt lat="46.667560416739434" lon="8.090460339561105"><ele>2028.3999938964844</ele></trkpt><trkpt lat="46.667560416739434" lon="8.09043033933267"><ele>2028.8399963378906</ele></trkpt><trkpt lat="46.667560416739434" lon="8.090390339493752"><ele>2029.25</ele></trkpt><trkpt lat="46.667560416739434" lon="8.090370339341462"><ele>2029.0</ele></trkpt><trkpt lat="46.66759041650221" lon="8.090330339502543"><ele>2028.6999816894531</ele></trkpt><trkpt lat="46.66762041673064" lon="8.090290339197963"><ele>2028.2699890136719</ele></trkpt><trkpt lat="46.66762041626498" lon="8.090290339197963"><ele>2028.1999816894531</ele></trkpt><trkpt lat="46.667630416341126" lon="8.090270339511335"><ele>2028.22998046875</ele></trkpt><trkpt lat="46.667630416341126" lon="8.090270339511335"><ele>2028.219970703125</ele></trkpt><trkpt lat="46.667630416341126" lon="8.09026033943519"><ele>2028.219970703125</ele></trkpt><trkpt lat="46.667630416341126" lon="8.090170339215547"><ele>2028.5999755859375</ele></trkpt><trkpt lat="46.66764041688293" lon="8.09011033969"><ele>2029.239990234375</ele></trkpt><trkpt lat="46.66766041656956" lon="8.089950339403003"><ele>2029.239990234375</ele></trkpt><trkpt lat="46.66766041656956" lon="8.089940339326859"><ele>2029.0</ele></trkpt><trkpt lat="46.667670416645706" lon="8.08992033964023"><ele>2029.1899719238281</ele></trkpt><trkpt lat="46.66768041672185" lon="8.089890339411795"><ele>2029.0</ele></trkpt><trkpt lat="46.667670416645706" lon="8.089800339657813"><ele>2029.47998046875</ele></trkpt><trkpt lat="46.667670416645706" lon="8.089780339505523"><ele>2029.2999877929688</ele></trkpt><trkpt lat="46.66768041672185" lon="8.089770339429379"><ele>2029.6499938964844</ele></trkpt><trkpt lat="46.66768041672185" lon="8.089740339666605"><ele>2029.5</ele></trkpt><trkpt lat="46.66768041672185" lon="8.089720339514315"><ele>2029.8399963378906</ele></trkpt><trkpt lat="46.66766041656956" lon="8.089660339523107"><ele>2029.5999755859375</ele></trkpt><trkpt lat="46.66764041688293" lon="8.089620339684188"><ele>2030.3999938964844</ele></trkpt><trkpt lat="46.66759041696787" lon="8.089500339701772"><ele>2030.8199768066406</ele></trkpt><trkpt lat="46.667560417205095" lon="8.089430339634418"><ele>2030.6999816894531</ele></trkpt><trkpt lat="46.667540417052805" lon="8.0893903397955"><ele>2030.9599914550781</ele></trkpt><trkpt lat="46.667520416900516" lon="8.089330339804292"><ele>2031.0999755859375</ele></trkpt><trkpt lat="46.66751041729003" lon="8.089260339736938"><ele>2031.2999877929688</ele></trkpt><trkpt lat="46.66751041729003" lon="8.08922033989802"><ele>2031.8399963378906</ele></trkpt><trkpt lat="46.66751041729003" lon="8.089090339839458"><ele>2032.2699890136719</ele></trkpt><trkpt lat="46.667540417052805" lon="8.088980339933187"><ele>2031.7699890136719</ele></trkpt><trkpt lat="46.667540417052805" lon="8.088950339704752"><ele>2031.6699829101562</ele></trkpt><trkpt lat="46.667540417052805" lon="8.088950339704752"><ele>2031.6599731445312</ele></trkpt><trkpt lat="46.667560417205095" lon="8.088850339874625"><ele>2031.0999755859375</ele></trkpt><trkpt lat="46.66757041681558" lon="8.088770339731127"><ele>2030.7999877929688</ele></trkpt><trkpt lat="46.66757041681558" lon="8.08859033929184"><ele>2029.0999755859375</ele></trkpt><trkpt lat="46.66757041681558" lon="8.088580339215696"><ele>2029.2099914550781</ele></trkpt><trkpt lat="46.66758041642606" lon="8.088550339452922"><ele>2029.0</ele></trkpt><trkpt lat="46.66760041657835" lon="8.088530339300632"><ele>2028.97998046875</ele></trkpt><trkpt lat="46.66766041656956" lon="8.088430339470506"><ele>2028.6999816894531</ele></trkpt><trkpt lat="46.667670416645706" lon="8.088410339318216"><ele>2028.6999816894531</ele></trkpt><trkpt lat="46.667670416645706" lon="8.088400339242071"><ele>2028.7799987792969</ele></trkpt><trkpt lat="46.66766041656956" lon="8.088380339555442"><ele>2028.6999816894531</ele></trkpt><trkpt lat="46.66764041641727" lon="8.088280339259654"><ele>2028.6999816894531</ele></trkpt><trkpt lat="46.66763041680679" lon="8.088200339116156"><ele>2028.6999816894531</ele></trkpt><trkpt lat="46.66764041641727" lon="8.088110339362174"><ele>2028.0999755859375</ele></trkpt><trkpt lat="46.66766041656956" lon="8.088050338905305"><ele>2027.4499816894531</ele></trkpt><trkpt lat="46.66768041625619" lon="8.088010339066386"><ele>2026.9399719238281</ele></trkpt><trkpt lat="46.66771041601896" lon="8.087940338999033"><ele>2026.1999816894531</ele></trkpt><trkpt lat="46.66772041609511" lon="8.087930338922888"><ele>2026.1999816894531</ele></trkpt><trkpt lat="46.667780416086316" lon="8.08785033877939"><ele>2025.3999938964844</ele></trkpt><trkpt lat="46.667820415925235" lon="8.08781033847481"><ele>2025.0</ele></trkpt><trkpt lat="46.66783041600138" lon="8.087800338864326"><ele>2024.75</ele></trkpt><trkpt lat="46.66785041568801" lon="8.087780338712037"><ele>2024.5</ele></trkpt><trkpt lat="46.66787041537464" lon="8.087670338340104"><ele>2023.5999755859375</ele></trkpt><trkpt lat="46.66787041537464" lon="8.08760033827275"><ele>2023.1999816894531</ele></trkpt><trkpt lat="46.66786041529849" lon="8.087460338138044"><ele>2021.8999938964844</ele></trkpt><trkpt lat="46.66786041483283" lon="8.087380337994546"><ele>2021.0</ele></trkpt><trkpt lat="46.667870414908975" lon="8.087300337851048"><ele>2020.5999755859375</ele></trkpt><trkpt lat="46.66790041467175" lon="8.08722033770755"><ele>2019.8899841308594</ele></trkpt><trkpt lat="46.667910414747894" lon="8.08718033786863"><ele>2019.1999816894531</ele></trkpt><trkpt lat="46.667960414197296" lon="8.087170337326825"><ele>2017.6999816894531</ele></trkpt><trkpt lat="46.66801041411236" lon="8.087150337174535"><ele>2017.1999816894531</ele></trkpt><trkpt lat="46.66803041426465" lon="8.087120337411761"><ele>2017.2999877929688</ele></trkpt><trkpt lat="46.66803041426465" lon="8.087110337335616"><ele>2017.1699829101562</ele></trkpt><trkpt lat="46.66803041426465" lon="8.087110337335616"><ele>2017.2999877929688</ele></trkpt><trkpt lat="46.668020414188504" lon="8.087090337183326"><ele>2016.7999877929688</ele></trkpt><trkpt lat="46.66801041411236" lon="8.087070337031037"><ele>2016.1799926757812</ele></trkpt><trkpt lat="46.667980413883924" lon="8.087030336726457"><ele>2014.1999816894531</ele></trkpt><trkpt lat="46.66798041341826" lon="8.087000336963683"><ele>2013.5</ele></trkpt><trkpt lat="46.66802041372284" lon="8.086940336972475"><ele>2013.5999755859375</ele></trkpt><trkpt lat="46.66802041372284" lon="8.086920336820185"><ele>2013.7699890136719</ele></trkpt><trkpt lat="46.66802041372284" lon="8.08691033674404"><ele>2013.5999755859375</ele></trkpt><trkpt lat="46.66800041357055" lon="8.086880336981267"><ele>2013.8699951171875</ele></trkpt><trkpt lat="46.66799041349441" lon="8.086870336905122"><ele>2013.5999755859375</ele></trkpt><trkpt lat="46.66794041311368" lon="8.086820336524397"><ele>2012.22998046875</ele></trkpt><trkpt lat="46.66793041303754" lon="8.086800336372107"><ele>2011.4999694824219</ele></trkpt><trkpt lat="46.66787041304633" lon="8.086750336457044"><ele>2011.3999938964844</ele></trkpt><trkpt lat="46.66778041329235" lon="8.086650336626917"><ele>2012.8199768066406</ele></trkpt><trkpt lat="46.66778041329235" lon="8.086640336550772"><ele>2012.8499755859375</ele></trkpt><trkpt lat="46.6677704132162" lon="8.086630336474627"><ele>2012.5999755859375</ele></trkpt><trkpt lat="46.667710413690656" lon="8.086590336635709"><ele>2013.5999755859375</ele></trkpt><trkpt lat="46.66768041346222" lon="8.086580336559564"><ele>2012.9199829101562</ele></trkpt><trkpt lat="46.66767041338608" lon="8.086580336559564"><ele>2012.7999877929688</ele></trkpt><trkpt lat="46.667550412938" lon="8.086580336093903"><ele>2010.1699829101562</ele></trkpt><trkpt lat="46.667550412938" lon="8.086580336093903"><ele>2010.0999755859375</ele></trkpt><trkpt lat="46.667540412861854" lon="8.086570336017758"><ele>2009.9499816894531</ele></trkpt><trkpt lat="46.66741041187197" lon="8.08643033541739"><ele>2005.1999816894531</ele></trkpt><trkpt lat="46.667380411643535" lon="8.0864103352651"><ele>2004.3999938964844</ele></trkpt><trkpt lat="46.6673504114151" lon="8.086340335197747"><ele>2003.2999877929688</ele></trkpt><trkpt lat="46.66733041126281" lon="8.086290334817022"><ele>2002.469970703125</ele></trkpt><trkpt lat="46.667300411034375" lon="8.086210334673524"><ele>2001.5999755859375</ele></trkpt><trkpt lat="46.66721041081473" lon="8.086050334386528"><ele>2000.1999816894531</ele></trkpt><trkpt lat="46.66714041074738" lon="8.085930334404111"><ele>1999.3999938964844</ele></trkpt><trkpt lat="46.6671004104428" lon="8.085870334412903"><ele>1999.0</ele></trkpt><trkpt lat="46.66708041075617" lon="8.085850334260613"><ele>1999.0899963378906</ele></trkpt><trkpt lat="46.66706041060388" lon="8.085840334184468"><ele>1999.0</ele></trkpt><trkpt lat="46.667030410375446" lon="8.085790334269404"><ele>1998.75</ele></trkpt><trkpt lat="46.66695041069761" lon="8.085670334286988"><ele>1998.2999877929688</ele></trkpt><trkpt lat="46.66691041039303" lon="8.085630333982408"><ele>1997.7999877929688</ele></trkpt><trkpt lat="46.666900410316885" lon="8.085600334219635"><ele>1997.75</ele></trkpt><trkpt lat="46.66689041024074" lon="8.085580334067345"><ele>1997.7999877929688</ele></trkpt><trkpt lat="46.66687041008845" lon="8.085520334076136"><ele>1997.5</ele></trkpt><trkpt lat="46.66683041024953" lon="8.085470334161073"><ele>1997.1999816894531</ele></trkpt><trkpt lat="46.666820410173386" lon="8.085430333856493"><ele>1997.1299743652344</ele></trkpt><trkpt lat="46.6668004100211" lon="8.08538033394143"><ele>1997.0</ele></trkpt><trkpt lat="46.66676041018218" lon="8.085270334035158"><ele>1996.5999755859375</ele></trkpt><trkpt lat="46.66673040995374" lon="8.085220334120095"><ele>1996.5499877929688</ele></trkpt><trkpt lat="46.66673040995374" lon="8.08521033404395"><ele>1996.2999877929688</ele></trkpt><trkpt lat="46.6667204098776" lon="8.08517033373937"><ele>1996.3299865722656</ele></trkpt><trkpt lat="46.66670041019097" lon="8.085120333824307"><ele>1996.0999755859375</ele></trkpt><trkpt lat="46.66666040988639" lon="8.085030333604664"><ele>1995.0</ele></trkpt><trkpt lat="46.66666040988639" lon="8.08500033384189"><ele>1994.97998046875</ele></trkpt><trkpt lat="46.6666404097341" lon="8.084920333698392"><ele>1994.0</ele></trkpt><trkpt lat="46.66662040958181" lon="8.084870333317667"><ele>1993.2999877929688</ele></trkpt><trkpt lat="46.66660040942952" lon="8.084830333013088"><ele>1992.5</ele></trkpt><trkpt lat="46.66658040881157" lon="8.08475033286959"><ele>1991.1999816894531</ele></trkpt><trkpt lat="46.66656040912494" lon="8.084700332954526"><ele>1990.8699951171875</ele></trkpt><trkpt lat="46.666550408583134" lon="8.084660332649946"><ele>1990.0</ele></trkpt><trkpt lat="46.66654040897265" lon="8.084630332887173"><ele>1990.1099853515625</ele></trkpt><trkpt lat="46.66654040897265" lon="8.084630332887173"><ele>1989.7999877929688</ele></trkpt><trkpt lat="46.666530408896506" lon="8.084620332811028"><ele>1989.6999816894531</ele></trkpt><trkpt lat="46.66652040882036" lon="8.084570332895964"><ele>1989.1999816894531</ele></trkpt><trkpt lat="46.66652040882036" lon="8.084550332743675"><ele>1989.5199890136719</ele></trkpt><trkpt lat="46.666510408744216" lon="8.08454033266753"><ele>1989.0</ele></trkpt><trkpt lat="46.666470408439636" lon="8.084490332752466"><ele>1988.5199890136719</ele></trkpt><trkpt lat="46.666450408287346" lon="8.084470332600176"><ele>1988.0</ele></trkpt><trkpt lat="46.6664404082112" lon="8.084420332219452"><ele>1987.739990234375</ele></trkpt><trkpt lat="46.66643040813506" lon="8.084410332143307"><ele>1987.0999755859375</ele></trkpt><trkpt lat="46.66637040814385" lon="8.08431033231318"><ele>1986.5299987792969</ele></trkpt><trkpt lat="46.66637040814385" lon="8.084300332237035"><ele>1986.1999816894531</ele></trkpt><trkpt lat="46.66637040814385" lon="8.08429033216089"><ele>1986.4299926757812</ele></trkpt><trkpt lat="46.6663604080677" lon="8.084250332321972"><ele>1986.1999816894531</ele></trkpt><trkpt lat="46.6663604080677" lon="8.084240332245827"><ele>1986.1799926757812</ele></trkpt><trkpt lat="46.66631040768698" lon="8.084180332254618"><ele>1985.5499877929688</ele></trkpt><trkpt lat="46.666300408076495" lon="8.084160332102329"><ele>1985.3999938964844</ele></trkpt><trkpt lat="46.66629040800035" lon="8.084130331873894"><ele>1985.3999938964844</ele></trkpt><trkpt lat="46.66627040784806" lon="8.084090332034975"><ele>1985.5</ele></trkpt><trkpt lat="46.666260407771915" lon="8.084000332280993"><ele>1985.7999877929688</ele></trkpt><trkpt lat="46.66624040808529" lon="8.083980332128704"><ele>1985.72998046875</ele></trkpt><trkpt lat="46.66620040778071" lon="8.083900331985205"><ele>1985.1999816894531</ele></trkpt><trkpt lat="46.66619040770456" lon="8.083870332222432"><ele>1985.219970703125</ele></trkpt><trkpt lat="46.66619040770456" lon="8.083840331993997"><ele>1984.6999816894531</ele></trkpt><trkpt lat="46.666110407561064" lon="8.083740331698209"><ele>1983.6999816894531</ele></trkpt><trkpt lat="46.66610040748492" lon="8.083710331935436"><ele>1984.1699829101562</ele></trkpt><trkpt lat="46.666070407722145" lon="8.083660332020372"><ele>1984.5</ele></trkpt><trkpt lat="46.66603040788323" lon="8.083570331800729"><ele>1985.1299743652344</ele></trkpt><trkpt lat="46.66602040780708" lon="8.083560332190245"><ele>1985.1699829101562</ele></trkpt><trkpt lat="46.66602040780708" lon="8.083560332190245"><ele>1985.1899719238281</ele></trkpt><trkpt lat="46.66595040773973" lon="8.083420332055539"><ele>1985.7999877929688</ele></trkpt><trkpt lat="46.665900407824665" lon="8.083370332140476"><ele>1986.4099731445312</ele></trkpt><trkpt lat="46.66586040798575" lon="8.083320332225412"><ele>1986.6599731445312</ele></trkpt><trkpt lat="46.66582040814683" lon="8.083270332310349"><ele>1986.8299865722656</ele></trkpt><trkpt lat="46.66581040807068" lon="8.083250332158059"><ele>1986.5</ele></trkpt><trkpt lat="46.66580040799454" lon="8.08321033231914"><ele>1986.8399963378906</ele></trkpt><trkpt lat="46.66578040784225" lon="8.083150332327932"><ele>1986.5</ele></trkpt><trkpt lat="46.665730407927185" lon="8.083070332184434"><ele>1986.1499938964844</ele></trkpt><trkpt lat="46.66570040769875" lon="8.08300033211708"><ele>1985.2999877929688</ele></trkpt><trkpt lat="46.66566040739417" lon="8.082900331821293"><ele>1984.1499938964844</ele></trkpt><trkpt lat="46.66562040755525" lon="8.082840331830084"><ele>1983.3399963378906</ele></trkpt><trkpt lat="46.66557040717453" lon="8.082760331686586"><ele>1982.3999938964844</ele></trkpt><trkpt lat="46.665540407411754" lon="8.082700331695378"><ele>1982.6999816894531</ele></trkpt><trkpt lat="46.665520407259464" lon="8.082580331712961"><ele>1982.7599792480469</ele></trkpt><trkpt lat="46.66551040718332" lon="8.082570331636816"><ele>1982.7699890136719</ele></trkpt><trkpt lat="46.665460407268256" lon="8.082500331569463"><ele>1982.8999938964844</ele></trkpt><trkpt lat="46.66540040727705" lon="8.082370331510901"><ele>1982.8599853515625</ele></trkpt><trkpt lat="46.6653904072009" lon="8.082340331282467"><ele>1982.5999755859375</ele></trkpt><trkpt lat="46.665330407209694" lon="8.082280331291258"><ele>1982.2999877929688</ele></trkpt><trkpt lat="46.66526040714234" lon="8.08222033130005"><ele>1981.8999938964844</ele></trkpt><trkpt lat="46.66522040730342" lon="8.082210331223905"><ele>1982.2599792480469</ele></trkpt><trkpt lat="46.66521040722728" lon="8.082200331613421"><ele>1982.1999816894531</ele></trkpt><trkpt lat="46.66520040715113" lon="8.082170331384987"><ele>1982.1599731445312</ele></trkpt><trkpt lat="46.66518040699884" lon="8.08207033155486"><ele>1981.7999877929688</ele></trkpt><trkpt lat="46.66516040684655" lon="8.082020331174135"><ele>1981.5999755859375</ele></trkpt><trkpt lat="46.66515040677041" lon="8.082000331487507"><ele>1981.2999877929688</ele></trkpt><trkpt lat="46.66515040677041" lon="8.081960331182927"><ele>1981.239990234375</ele></trkpt><trkpt lat="46.665140407159925" lon="8.081950331106782"><ele>1981.0999755859375</ele></trkpt><trkpt lat="46.665140407159925" lon="8.081920331344008"><ele>1981.0599975585938</ele></trkpt><trkpt lat="46.66514040669426" lon="8.081900331191719"><ele>1980.8999938964844</ele></trkpt><trkpt lat="46.66516040684655" lon="8.081770331133157"><ele>1980.3299865722656</ele></trkpt><trkpt lat="46.66516040684655" lon="8.081730331294239"><ele>1980.0999755859375</ele></trkpt><trkpt lat="46.66516040684655" lon="8.081710331141949"><ele>1980.0699768066406</ele></trkpt><trkpt lat="46.66515040677041" lon="8.081690330989659"><ele>1980.0</ele></trkpt><trkpt lat="46.66515040677041" lon="8.08165033115074"><ele>1979.8799743652344</ele></trkpt><trkpt lat="46.66515040677041" lon="8.081570331007242"><ele>1979.2999877929688</ele></trkpt><trkpt lat="46.66517040645704" lon="8.081470330711454"><ele>1978.72998046875</ele></trkpt><trkpt lat="46.66520040621981" lon="8.081230330746621"><ele>1977.1199951171875</ele></trkpt><trkpt lat="46.66520040621981" lon="8.081210330594331"><ele>1976.8199768066406</ele></trkpt><trkpt lat="46.665190406143665" lon="8.081170330289751"><ele>1976.1999816894531</ele></trkpt><trkpt lat="46.66518040560186" lon="8.08106033038348"><ele>1974.7999877929688</ele></trkpt><trkpt lat="46.665170405525714" lon="8.0810203300789"><ele>1974.0</ele></trkpt><trkpt lat="46.66517040506005" lon="8.080930329859257"><ele>1972.3999938964844</ele></trkpt><trkpt lat="46.66517040506005" lon="8.080850329715759"><ele>1972.0</ele></trkpt><trkpt lat="46.66519040474668" lon="8.080620329361409"><ele>1970.8999938964844</ele></trkpt><trkpt lat="46.66519040474668" lon="8.080520329065621"><ele>1969.5099792480469</ele></trkpt><trkpt lat="46.665200404357165" lon="8.080470329150558"><ele>1969.0</ele></trkpt><trkpt lat="46.665220404509455" lon="8.080430328845978"><ele>1968.2999877929688</ele></trkpt><trkpt lat="46.66525040427223" lon="8.080320328939706"><ele>1967.469970703125</ele></trkpt><trkpt lat="46.665280404035" lon="8.080250328872353"><ele>1966.3999938964844</ele></trkpt><trkpt lat="46.66529040411115" lon="8.080210328567773"><ele>1966.6299743652344</ele></trkpt><trkpt lat="46.665310403797776" lon="8.080130328889936"><ele>1966.0</ele></trkpt><trkpt lat="46.665330403950065" lon="8.080020328518003"><ele>1965.2999877929688</ele></trkpt><trkpt lat="46.66534040402621" lon="8.079870328772813"><ele>1965.5499877929688</ele></trkpt><trkpt lat="46.66536040371284" lon="8.079670328646898"><ele>1965.6999816894531</ele></trkpt><trkpt lat="46.66540040401742" lon="8.079510328825563"><ele>1966.3999938964844</ele></trkpt><trkpt lat="46.665410404093564" lon="8.079470328986645"><ele>1966.8099975585938</ele></trkpt><trkpt lat="46.66542040416971" lon="8.07944032875821"><ele>1966.6999816894531</ele></trkpt><trkpt lat="46.665440404322" lon="8.079330328851938"><ele>1966.7999877929688</ele></trkpt><trkpt lat="46.66546040447429" lon="8.079260328784585"><ele>1967.5499877929688</ele></trkpt><trkpt lat="46.66547040408477" lon="8.079220328945667"><ele>1967.6999816894531</ele></trkpt><trkpt lat="46.66547040455043" lon="8.079180329106748"><ele>1968.1499938964844</ele></trkpt><trkpt lat="46.66547040455043" lon="8.07910032896325"><ele>1968.3999938964844</ele></trkpt><trkpt lat="46.66549040470272" lon="8.079060329124331"><ele>1969.1999816894531</ele></trkpt><trkpt lat="46.66553040454164" lon="8.078960329294205"><ele>1969.8899841308594</ele></trkpt><trkpt lat="46.665560404770076" lon="8.078920329455286"><ele>1969.8999938964844</ele></trkpt><trkpt lat="46.665560404770076" lon="8.078910329379141"><ele>1970.25</ele></trkpt><trkpt lat="46.66557040484622" lon="8.078900329302996"><ele>1970.0999755859375</ele></trkpt><trkpt lat="46.66557040484622" lon="8.078870329074562"><ele>1970.0999755859375</ele></trkpt><trkpt lat="46.665580404922366" lon="8.078840329311788"><ele>1970.2999877929688</ele></trkpt><trkpt lat="46.665580404922366" lon="8.078770329244435"><ele>1970.6299743652344</ele></trkpt><trkpt lat="46.665580404922366" lon="8.078740329481661"><ele>1970.7999877929688</ele></trkpt><trkpt lat="46.665580404922366" lon="8.078740329481661"><ele>1970.8199768066406</ele></trkpt><trkpt lat="46.66557040484622" lon="8.078670329414308"><ele>1970.8999938964844</ele></trkpt><trkpt lat="46.66557040484622" lon="8.078640329651535"><ele>1971.239990234375</ele></trkpt><trkpt lat="46.665580404922366" lon="8.078560329508036"><ele>1971.3999938964844</ele></trkpt><trkpt lat="46.66559040499851" lon="8.078500329516828"><ele>1971.5999755859375</ele></trkpt><trkpt lat="46.665600405074656" lon="8.078490329440683"><ele>1971.8399963378906</ele></trkpt><trkpt lat="46.6656104051508" lon="8.078470329754055"><ele>1971.8999938964844</ele></trkpt><trkpt lat="46.665660405065864" lon="8.078430329449475"><ele>1972.3999938964844</ele></trkpt><trkpt lat="46.66573040513322" lon="8.078220329713076"><ele>1972.0</ele></trkpt><trkpt lat="46.665770404972136" lon="8.078150329645723"><ele>1971.719970703125</ele></trkpt><trkpt lat="46.665810404811054" lon="8.07808032957837"><ele>1971.2999877929688</ele></trkpt><trkpt lat="46.6658204048872" lon="8.078030329663306"><ele>1971.5499877929688</ele></trkpt><trkpt lat="46.6658204048872" lon="8.078020329587162"><ele>1971.5</ele></trkpt><trkpt lat="46.6658204048872" lon="8.078020329587162"><ele>1971.5799865722656</ele></trkpt><trkpt lat="46.665890405420214" lon="8.077970329672098"><ele>1972.6999816894531</ele></trkpt><trkpt lat="46.66590040549636" lon="8.077960329595953"><ele>1973.0999755859375</ele></trkpt><trkpt lat="46.665930405724794" lon="8.07791032968089"><ele>1973.7999877929688</ele></trkpt><trkpt lat="46.66594040580094" lon="8.077880329918116"><ele>1974.0999755859375</ele></trkpt><trkpt lat="46.66594040580094" lon="8.077860329765826"><ele>1974.4499816894531</ele></trkpt><trkpt lat="46.66594040580094" lon="8.077820329926908"><ele>1974.5</ele></trkpt><trkpt lat="46.66592040564865" lon="8.077750330325216"><ele>1975.5</ele></trkpt><trkpt lat="46.665910406038165" lon="8.077720330096781"><ele>1976.0899963378906</ele></trkpt><trkpt lat="46.66590040596202" lon="8.077690330334008"><ele>1976.3999938964844</ele></trkpt><trkpt lat="46.6658604061231" lon="8.0776303303428"><ele>1977.0999755859375</ele></trkpt><trkpt lat="46.6658104066737" lon="8.077570330817252"><ele>1978.5499877929688</ele></trkpt><trkpt lat="46.665740406606346" lon="8.077510330826044"><ele>1980.0</ele></trkpt><trkpt lat="46.66572040691972" lon="8.077490330673754"><ele>1980.1399841308594</ele></trkpt><trkpt lat="46.66566040692851" lon="8.077420331072062"><ele>1981.0999755859375</ele></trkpt><trkpt lat="46.66562040708959" lon="8.077370331156999"><ele>1981.7999877929688</ele></trkpt><trkpt lat="46.66560040740296" lon="8.07733033131808"><ele>1982.0999755859375</ele></trkpt><trkpt lat="46.66560040740296" lon="8.077320331241935"><ele>1982.5699768066406</ele></trkpt><trkpt lat="46.66557040764019" lon="8.077120331581682"><ele>1984.5999755859375</ele></trkpt><trkpt lat="46.66557040764019" lon="8.077070331666619"><ele>1985.3799743652344</ele></trkpt><trkpt lat="46.66557040857151" lon="8.076830332167447"><ele>1988.6999816894531</ele></trkpt><trkpt lat="46.665580408647656" lon="8.07675033248961"><ele>1989.5</ele></trkpt><trkpt lat="46.665580408647656" lon="8.076740332413465"><ele>1989.6299743652344</ele></trkpt><trkpt lat="46.665600408799946" lon="8.076680332422256"><ele>1990.5999755859375</ele></trkpt><trkpt lat="46.665620408952236" lon="8.076610332820565"><ele>1991.3999938964844</ele></trkpt><trkpt lat="46.665640409104526" lon="8.076570332981646"><ele>1992.0299987792969</ele></trkpt><trkpt lat="46.665640409104526" lon="8.076560332905501"><ele>1992.1999816894531</ele></trkpt><trkpt lat="46.66569040948525" lon="8.076490332838148"><ele>1993.3999938964844</ele></trkpt><trkpt lat="46.665720409713686" lon="8.076400333084166"><ele>1994.6999816894531</ele></trkpt><trkpt lat="46.665760409552604" lon="8.076360333245248"><ele>1994.5999755859375</ele></trkpt><trkpt lat="46.665760409552604" lon="8.076350333169103"><ele>1994.5999755859375</ele></trkpt><trkpt lat="46.66582040954381" lon="8.076290333177894"><ele>1994.1899719238281</ele></trkpt><trkpt lat="46.6658404096961" lon="8.076250332873315"><ele>1994.0999755859375</ele></trkpt><trkpt lat="46.6658404096961" lon="8.076210333034396"><ele>1994.2999877929688</ele></trkpt><trkpt lat="46.66582040954381" lon="8.076160333119333"><ele>1994.8599853515625</ele></trkpt><trkpt lat="46.665820410009474" lon="8.076150333043188"><ele>1994.9499816894531</ele></trkpt><trkpt lat="46.66582040954381" lon="8.07609033305198"><ele>1994.8999938964844</ele></trkpt><trkpt lat="46.665820410009474" lon="8.076010333374143"><ele>1995.3999938964844</ele></trkpt><trkpt lat="46.66583041008562" lon="8.075710333418101"><ele>1995.8999938964844</ele></trkpt><trkpt lat="46.66583041008562" lon="8.075530333444476"><ele>1996.9499816894531</ele></trkpt><trkpt lat="46.66583041008562" lon="8.07543033361435"><ele>1997.4199829101562</ele></trkpt><trkpt lat="46.66583041008562" lon="8.075400333385915"><ele>1997.5</ele></trkpt><trkpt lat="46.665820410475135" lon="8.075330333784223"><ele>1997.8999938964844</ele></trkpt><trkpt lat="46.665800410322845" lon="8.075230333954096"><ele>1998.3999938964844</ele></trkpt><trkpt lat="46.665780410636216" lon="8.07511033397168"><ele>1999.4399719238281</ele></trkpt><trkpt lat="46.66575041087344" lon="8.074970333836973"><ele>2000.0</ele></trkpt><trkpt lat="46.66572041111067" lon="8.074820334091783"><ele>2001.7999877929688</ele></trkpt><trkpt lat="46.66570041142404" lon="8.074690334498882"><ele>2003.8099975585938</ele></trkpt><trkpt lat="46.66567041212693" lon="8.074590334668756"><ele>2005.6999816894531</ele></trkpt><trkpt lat="46.66565041197464" lon="8.074530335143209"><ele>2007.0199890136719</ele></trkpt><trkpt lat="46.665640412364155" lon="8.074470335152"><ele>2007.8999938964844</ele></trkpt><trkpt lat="46.66562041267753" lon="8.074390335474163"><ele>2009.8399963378906</ele></trkpt><trkpt lat="46.66561041306704" lon="8.074300335720181"><ele>2011.0999755859375</ele></trkpt><trkpt lat="46.66560041345656" lon="8.07423033611849"><ele>2012.2699890136719</ele></trkpt><trkpt lat="46.665590413380414" lon="8.074220336042345"><ele>2012.2999877929688</ele></trkpt><trkpt lat="46.665590413380414" lon="8.074140335898846"><ele>2013.1999816894531</ele></trkpt><trkpt lat="46.66560041345656" lon="8.074070336297154"><ele>2014.2699890136719</ele></trkpt><trkpt lat="46.665610413532704" lon="8.074020336382091"><ele>2014.5</ele></trkpt><trkpt lat="46.665630413684994" lon="8.07393033662811"><ele>2015.2999877929688</ele></trkpt><trkpt lat="46.66566041391343" lon="8.073850336484611"><ele>2015.8499755859375</ele></trkpt><trkpt lat="46.665670413989574" lon="8.073840336408466"><ele>2015.5999755859375</ele></trkpt><trkpt lat="46.66571041382849" lon="8.073760336264968"><ele>2015.5999755859375</ele></trkpt><trkpt lat="46.665760413743556" lon="8.07370033627376"><ele>2015.6999816894531</ele></trkpt><trkpt lat="46.665800414048135" lon="8.073660336434841"><ele>2015.5999755859375</ele></trkpt><trkpt lat="46.665840413887054" lon="8.073640336748213"><ele>2016.0699768066406</ele></trkpt><trkpt lat="46.66590041387826" lon="8.073610336519778"><ele>2015.5999755859375</ele></trkpt><trkpt lat="46.66592041403055" lon="8.073590336367488"><ele>2015.6199951171875</ele></trkpt><trkpt lat="46.6659304141067" lon="8.073580336291343"><ele>2015.6499938964844</ele></trkpt><trkpt lat="46.665950413793325" lon="8.073560336604714"><ele>2015.3999938964844</ele></trkpt><trkpt lat="46.665950413793325" lon="8.07355033652857"><ele>2015.7999877929688</ele></trkpt><trkpt lat="46.665950413793325" lon="8.073500336613506"><ele>2015.1999816894531</ele></trkpt><trkpt lat="46.665930413641036" lon="8.073430336546153"><ele>2015.1999816894531</ele></trkpt><trkpt lat="46.66592041403055" lon="8.073400336317718"><ele>2016.1999816894531</ele></trkpt><trkpt lat="46.66591041395441" lon="8.073390336241573"><ele>2015.6999816894531</ele></trkpt><trkpt lat="46.66588041419163" lon="8.0733603364788"><ele>2016.0</ele></trkpt><trkpt lat="46.66581041412428" lon="8.073330336716026"><ele>2016.1999816894531</ele></trkpt><trkpt lat="46.66562041454017" lon="8.0732303368859"><ele>2017.5</ele></trkpt><trkpt lat="46.66554041439667" lon="8.073200336657465"><ele>2018.2999877929688</ele></trkpt><trkpt lat="46.665480414871126" lon="8.07319033704698"><ele>2019.8999938964844</ele></trkpt><trkpt lat="46.665380415041" lon="8.073180337436497"><ele>2021.2999877929688</ele></trkpt><trkpt lat="46.665330415125936" lon="8.073200337588787"><ele>2022.0999755859375</ele></trkpt><trkpt lat="46.66526041505858" lon="8.073200337588787"><ele>2022.2999877929688</ele></trkpt><trkpt lat="46.66523041529581" lon="8.073170337360352"><ele>2022.3999938964844</ele></trkpt><trkpt lat="46.665200415533036" lon="8.073130337521434"><ele>2022.7999877929688</ele></trkpt><trkpt lat="46.66513041546568" lon="8.073040337767452"><ele>2023.4999694824219</ele></trkpt><trkpt lat="46.66512041538954" lon="8.073040337767452"><ele>2023.0999755859375</ele></trkpt><trkpt lat="46.665050415787846" lon="8.07291033770889"><ele>2023.8999938964844</ele></trkpt><trkpt lat="46.665010415483266" lon="8.072870337869972"><ele>2024.1999816894531</ele></trkpt><trkpt lat="46.6649604155682" lon="8.072820337954909"><ele>2024.5099792480469</ele></trkpt><trkpt lat="46.664880415424705" lon="8.0727603379637"><ele>2023.8999938964844</ele></trkpt><trkpt lat="46.664730415679514" lon="8.072580337524414"><ele>2023.3999938964844</ele></trkpt><trkpt lat="46.664670415222645" lon="8.072470337618142"><ele>2022.5999755859375</ele></trkpt><trkpt lat="46.66460041515529" lon="8.072300337720662"><ele>2022.5</ele></trkpt><trkpt lat="46.66455041570589" lon="8.072050337679684"><ele>2023.4999694824219</ele></trkpt><trkpt lat="46.664540415629745" lon="8.071920338086784"><ele>2024.8999938964844</ele></trkpt><trkpt lat="46.66453041601926" lon="8.07185033801943"><ele>2025.1999816894531</ele></trkpt><trkpt lat="46.664520415943116" lon="8.071790338028222"><ele>2025.5999755859375</ele></trkpt><trkpt lat="46.66449041618034" lon="8.071670338045806"><ele>2026.5099792480469</ele></trkpt><trkpt lat="46.66449041618034" lon="8.07166033796966"><ele>2026.5199890136719</ele></trkpt><trkpt lat="46.66449041618034" lon="8.071620338130742"><ele>2026.5</ele></trkpt><trkpt lat="46.66450041625649" lon="8.071570338215679"><ele>2026.8599853515625</ele></trkpt><trkpt lat="46.66450041625649" lon="8.071540338452905"><ele>2027.0999755859375</ele></trkpt><trkpt lat="46.66451041633263" lon="8.071410338394344"><ele>2027.8999938964844</ele></trkpt><trkpt lat="46.66452041640878" lon="8.07136033847928"><ele>2028.2799987792969</ele></trkpt><trkpt lat="46.6645704167895" lon="8.07121033873409"><ele>2029.6999816894531</ele></trkpt><trkpt lat="46.66463041724637" lon="8.071070339065045"><ele>2031.6999816894531</ele></trkpt><trkpt lat="46.66477041784674" lon="8.070750339422375"><ele>2034.7999877929688</ele></trkpt><trkpt lat="46.66480041760951" lon="8.070680339355022"><ele>2035.0899963378906</ele></trkpt><trkpt lat="46.66481041768566" lon="8.070670339744538"><ele>2035.2999877929688</ele></trkpt><trkpt lat="46.66484041791409" lon="8.070630339439958"><ele>2035.3799743652344</ele></trkpt><trkpt lat="46.66487041814253" lon="8.07059033960104"><ele>2036.0</ele></trkpt><trkpt lat="46.6649004179053" lon="8.070530339609832"><ele>2035.8999938964844</ele></trkpt><trkpt lat="46.664950418286026" lon="8.070430339779705"><ele>2036.7999877929688</ele></trkpt><trkpt lat="46.664970417972654" lon="8.070370339788496"><ele>2036.6299743652344</ele></trkpt><trkpt lat="46.66502041835338" lon="8.070240339729935"><ele>2037.5</ele></trkpt><trkpt lat="46.6650604181923" lon="8.070140339899808"><ele>2037.8999938964844</ele></trkpt><trkpt lat="46.66510041849688" lon="8.070050340145826"><ele>2038.3699951171875</ele></trkpt><trkpt lat="46.66531041963026" lon="8.069750340655446"><ele>2043.0999755859375</ele></trkpt><trkpt lat="46.66533041931689" lon="8.069710340816528"><ele>2043.2999877929688</ele></trkpt><trkpt lat="46.66535041946918" lon="8.06963034067303"><ele>2043.0</ele></trkpt><trkpt lat="46.66537041962147" lon="8.069540340919048"><ele>2043.25</ele></trkpt><trkpt lat="46.66538041969761" lon="8.069450340699404"><ele>2043.3599853515625</ele></trkpt><trkpt lat="46.665390419308096" lon="8.069390340708196"><ele>2043.2999877929688</ele></trkpt><trkpt lat="46.665410419460386" lon="8.069380340632051"><ele>2043.0599975585938</ele></trkpt><trkpt lat="46.665450419299304" lon="8.069310340564698"><ele>2043.0799865722656</ele></trkpt><trkpt lat="46.66548041952774" lon="8.069280340801924"><ele>2043.3999938964844</ele></trkpt><trkpt lat="46.66554041951895" lon="8.06912034098059"><ele>2043.7999877929688</ele></trkpt><trkpt lat="46.66558041982353" lon="8.06908034067601"><ele>2044.0999755859375</ele></trkpt><trkpt lat="46.6656104195863" lon="8.069070341065526"><ele>2043.989990234375</ele></trkpt><trkpt lat="46.665620419662446" lon="8.069060340989381"><ele>2044.0999755859375</ele></trkpt><trkpt lat="46.66567041957751" lon="8.069030340760946"><ele>2044.5999755859375</ele></trkpt><trkpt lat="46.66567041957751" lon="8.069030340760946"><ele>2044.47998046875</ele></trkpt><trkpt lat="46.665680419653654" lon="8.069010341074318"><ele>2044.6899719238281</ele></trkpt><trkpt lat="46.66575042018667" lon="8.068860341329128"><ele>2045.7999877929688</ele></trkpt><trkpt lat="46.66578041994944" lon="8.068750340957195"><ele>2045.6999816894531</ele></trkpt><trkpt lat="46.66582042025402" lon="8.068670341279358"><ele>2046.2999877929688</ele></trkpt><trkpt lat="46.66588042024523" lon="8.068550341296941"><ele>2047.3999938964844</ele></trkpt><trkpt lat="46.665910420473665" lon="8.068490341771394"><ele>2048.5</ele></trkpt><trkpt lat="46.66598042100668" lon="8.068340342026204"><ele>2050.449981689453</ele></trkpt><trkpt lat="46.66600042115897" lon="8.06829034211114"><ele>2051.0</ele></trkpt><trkpt lat="46.666030421387404" lon="8.06825034180656"><ele>2051.3999938964844</ele></trkpt><trkpt lat="46.66607042122632" lon="8.068210341967642"><ele>2051.439971923828</ele></trkpt><trkpt lat="46.66609042137861" lon="8.068190341815352"><ele>2051.5</ele></trkpt><trkpt lat="46.66615042136982" lon="8.068110342137516"><ele>2052.459991455078</ele></trkpt><trkpt lat="46.66617042152211" lon="8.068060342222452"><ele>2052.7999877929688</ele></trkpt><trkpt lat="46.66623042151332" lon="8.067930342629552"><ele>2054.199981689453</ele></trkpt><trkpt lat="46.666260422207415" lon="8.067880342714489"><ele>2055.449981689453</ele></trkpt><trkpt lat="46.666260422207415" lon="8.067860342562199"><ele>2055.769989013672</ele></trkpt><trkpt lat="46.66627042228356" lon="8.067860342562199"><ele>2055.9299926757812</ele></trkpt><trkpt lat="46.66627042228356" lon="8.06784034287557"><ele>2056.199981689453</ele></trkpt><trkpt lat="46.66627042228356" lon="8.06782034272328"><ele>2056.8799743652344</ele></trkpt><trkpt lat="46.66627042228356" lon="8.067800343036652"><ele>2057.1599731445312</ele></trkpt><trkpt lat="46.666280422359705" lon="8.067800343036652"><ele>2056.8999938964844</ele></trkpt><trkpt lat="46.66629042243585" lon="8.067790342960507"><ele>2057.529998779297</ele></trkpt><trkpt lat="46.66629042243585" lon="8.067780342884362"><ele>2057.5699768066406</ele></trkpt><trkpt lat="46.66631042258814" lon="8.067770342808217"><ele>2057.5</ele></trkpt><trkpt lat="46.666320422664285" lon="8.067750343121588"><ele>2058.0</ele></trkpt><trkpt lat="46.666320422664285" lon="8.067750343121588"><ele>2057.8999938964844</ele></trkpt><trkpt lat="46.666320422664285" lon="8.06769034313038"><ele>2058.8599853515625</ele></trkpt><trkpt lat="46.6663104230538" lon="8.067580343224108"><ele>2059.699981689453</ele></trkpt><trkpt lat="46.666320423129946" lon="8.067550343461335"><ele>2060.1599731445312</ele></trkpt><trkpt lat="46.66635042289272" lon="8.067490343470126"><ele>2060.709991455078</ele></trkpt><trkpt lat="46.6663904231973" lon="8.067380343563855"><ele>2062.199981689453</ele></trkpt><trkpt lat="46.66641042334959" lon="8.067360343877226"><ele>2062.3099975585938</ele></trkpt><trkpt lat="46.666440423578024" lon="8.067330343648791"><ele>2062.2999877929688</ele></trkpt><trkpt lat="46.6664704233408" lon="8.067280343733728"><ele>2062.199981689453</ele></trkpt><trkpt lat="46.6664704233408" lon="8.067250343505293"><ele>2061.9099731445312</ele></trkpt><trkpt lat="46.6664704233408" lon="8.06720034359023"><ele>2062.3599853515625</ele></trkpt><trkpt lat="46.6664704233408" lon="8.067160343751311"><ele>2062.7999877929688</ele></trkpt><trkpt lat="46.66649042349309" lon="8.06707034399733"><ele>2063.7999877929688</ele></trkpt><trkpt lat="46.66653042379767" lon="8.066930344328284"><ele>2065.0999755859375</ele></trkpt><trkpt lat="46.666570423636585" lon="8.066830344032496"><ele>2064.5999755859375</ele></trkpt><trkpt lat="46.66658042371273" lon="8.066780344117433"><ele>2064.3999938964844</ele></trkpt><trkpt lat="46.66658042371273" lon="8.066750343888998"><ele>2064.189971923828</ele></trkpt><trkpt lat="46.66658042371273" lon="8.066750343888998"><ele>2064.189971923828</ele></trkpt><trkpt lat="46.66658042371273" lon="8.06673034420237"><ele>2064.1099853515625</ele></trkpt><trkpt lat="46.666570423636585" lon="8.066700343973935"><ele>2064.199981689453</ele></trkpt><trkpt lat="46.66656042356044" lon="8.066680343821645"><ele>2064.019989013672</ele></trkpt><trkpt lat="46.66655042394996" lon="8.066640343982726"><ele>2064.0999755859375</ele></trkpt><trkpt lat="46.666570423636585" lon="8.066590344067663"><ele>2064.699981689453</ele></trkpt><trkpt lat="46.66657042410225" lon="8.066580343991518"><ele>2064.779998779297</ele></trkpt><trkpt lat="46.66662042401731" lon="8.066510344389826"><ele>2065.5</ele></trkpt><trkpt lat="46.6666404241696" lon="8.066500344313681"><ele>2066.1099853515625</ele></trkpt><trkpt lat="46.6666404241696" lon="8.066500344313681"><ele>2066.0</ele></trkpt><trkpt lat="46.666650424245745" lon="8.066480344627053"><ele>2066.72998046875</ele></trkpt><trkpt lat="46.66666042432189" lon="8.066440344322473"><ele>2066.8999938964844</ele></trkpt><trkpt lat="46.666710424702615" lon="8.06639034487307"><ele>2069.0999755859375</ele></trkpt><trkpt lat="46.666730424854904" lon="8.066340344958007"><ele>2069.939971923828</ele></trkpt><trkpt lat="46.666790425311774" lon="8.066210345365107"><ele>2072.199981689453</ele></trkpt><trkpt lat="46.66680042538792" lon="8.066160345450044"><ele>2073.0999755859375</ele></trkpt><trkpt lat="46.666790425777435" lon="8.065990345552564"><ele>2073.6299743652344</ele></trkpt><trkpt lat="46.666790425777435" lon="8.06592034548521"><ele>2074.199981689453</ele></trkpt><trkpt lat="46.66680042585358" lon="8.065670345444232"><ele>2074.5</ele></trkpt><trkpt lat="46.66680042585358" lon="8.065440345555544"><ele>2074.6699829101562</ele></trkpt><trkpt lat="46.66680042585358" lon="8.065420345868915"><ele>2074.8899841308594</ele></trkpt><trkpt lat="46.66678042616695" lon="8.065330345649272"><ele>2075.8999938964844</ele></trkpt><trkpt lat="46.66678042616695" lon="8.065290345810354"><ele>2076.0999755859375</ele></trkpt><trkpt lat="46.66682042647153" lon="8.065180345904082"><ele>2076.5</ele></trkpt><trkpt lat="46.66684042615816" lon="8.065120345912874"><ele>2076.529998779297</ele></trkpt><trkpt lat="46.66688042646274" lon="8.065000345930457"><ele>2077.0999755859375</ele></trkpt><trkpt lat="46.66695042653009" lon="8.064840346109122"><ele>2077.5999755859375</ele></trkpt><trkpt lat="46.66699042683467" lon="8.064720346126705"><ele>2078.2999877929688</ele></trkpt><trkpt lat="46.6670104265213" lon="8.064680346287787"><ele>2078.269989013672</ele></trkpt><trkpt lat="46.667020426597446" lon="8.064640346448869"><ele>2078.5999755859375</ele></trkpt><trkpt lat="46.66703042667359" lon="8.064620346296579"><ele>2078.509979248047</ele></trkpt><trkpt lat="46.66703042667359" lon="8.064590346068144"><ele>2078.5999755859375</ele></trkpt><trkpt lat="46.667040426749736" lon="8.064570346381515"><ele>2078.699981689453</ele></trkpt><trkpt lat="46.66707042697817" lon="8.064470346551389"><ele>2079.239990234375</ele></trkpt><trkpt lat="46.667080427054316" lon="8.064440346322954"><ele>2079.3999938964844</ele></trkpt><trkpt lat="46.667080426588655" lon="8.064400346484035"><ele>2079.199981689453</ele></trkpt><trkpt lat="46.667060426902026" lon="8.064320346340537"><ele>2079.219970703125</ele></trkpt><trkpt lat="46.66705042682588" lon="8.064280346501619"><ele>2079.3099975585938</ele></trkpt><trkpt lat="46.6670104265213" lon="8.064120346214622"><ele>2078.709991455078</ele></trkpt><trkpt lat="46.66697042668238" lon="8.063940346240997"><ele>2078.0999755859375</ele></trkpt><trkpt lat="46.6669304263778" lon="8.063770345877856"><ele>2077.8299865722656</ele></trkpt><trkpt lat="46.666910426691175" lon="8.06369034620002"><ele>2077.7899780273438</ele></trkpt><trkpt lat="46.666890426538885" lon="8.063600345980376"><ele>2078.0</ele></trkpt><trkpt lat="46.666870426386595" lon="8.063510346226394"><ele>2077.9199829101562</ele></trkpt><trkpt lat="46.66684042662382" lon="8.063400345854461"><ele>2077.5</ele></trkpt><trkpt lat="46.66682042647153" lon="8.06333034625277"><ele>2077.7899780273438</ele></trkpt><trkpt lat="46.66682042647153" lon="8.06331034610048"><ele>2077.739990234375</ele></trkpt><trkpt lat="46.66681042639539" lon="8.063220345880836"><ele>2077.0</ele></trkpt><trkpt lat="46.66680042631924" lon="8.063050345983356"><ele>2076.7999877929688</ele></trkpt><trkpt lat="46.66678042616695" lon="8.063010345678777"><ele>2076.7899780273438</ele></trkpt><trkpt lat="46.66676042648032" lon="8.062940346077085"><ele>2076.489990234375</ele></trkpt><trkpt lat="46.66676042601466" lon="8.06293034600094"><ele>2076.0999755859375</ele></trkpt><trkpt lat="46.66670042602345" lon="8.062810345552862"><ele>2075.0</ele></trkpt><trkpt lat="46.666660425718874" lon="8.062760345637798"><ele>2074.5999755859375</ele></trkpt><trkpt lat="46.6666304259561" lon="8.062690345570445"><ele>2074.5399780273438</ele></trkpt><trkpt lat="46.666620425879955" lon="8.06266034534201"><ele>2074.4099731445312</ele></trkpt><trkpt lat="46.66661042580381" lon="8.062640345655382"><ele>2074.199981689453</ele></trkpt><trkpt lat="46.66659042565152" lon="8.062630345579237"><ele>2074.2999877929688</ele></trkpt><trkpt lat="46.6665504258126" lon="8.062600345350802"><ele>2074.5999755859375</ele></trkpt><trkpt lat="46.66652042604983" lon="8.062600345816463"><ele>2075.1099853515625</ele></trkpt><trkpt lat="46.66650042589754" lon="8.062600345816463"><ele>2075.0</ele></trkpt><trkpt lat="46.666470426134765" lon="8.062590345740318"><ele>2075.22998046875</ele></trkpt><trkpt lat="46.66644042590633" lon="8.062580345664173"><ele>2075.1599731445312</ele></trkpt><trkpt lat="46.666410425677896" lon="8.062570345588028"><ele>2074.7999877929688</ele></trkpt><trkpt lat="46.66640042606741" lon="8.062560345511883"><ele>2075.029998779297</ele></trkpt><trkpt lat="46.66635042568669" lon="8.06253034574911"><ele>2074.7999877929688</ele></trkpt><trkpt lat="46.66629042616114" lon="8.06251034559682"><ele>2075.0599975585938</ele></trkpt><trkpt lat="46.66623042616993" lon="8.06249034544453"><ele>2075.2999877929688</ele></trkpt><trkpt lat="46.66618042625487" lon="8.062450345605612"><ele>2075.6399841308594</ele></trkpt><trkpt lat="46.666090426035225" lon="8.06236034585163"><ele>2076.3999938964844</ele></trkpt><trkpt lat="46.66603042650968" lon="8.062290345784277"><ele>2076.939971923828</ele></trkpt><trkpt lat="46.66603042650968" lon="8.062280345708132"><ele>2077.0999755859375</ele></trkpt><trkpt lat="46.66597042651847" lon="8.062180345878005"><ele>2077.949981689453</ele></trkpt><trkpt lat="46.66593042667955" lon="8.062110346276313"><ele>2079.0</ele></trkpt><trkpt lat="46.665790427010506" lon="8.061960346531123"><ele>2081.0</ele></trkpt><trkpt lat="46.665680427569896" lon="8.061850346624851"><ele>2082.0999755859375</ele></trkpt><trkpt lat="46.665550427511334" lon="8.06174034671858"><ele>2083.259979248047</ele></trkpt><trkpt lat="46.665550427511334" lon="8.06174034671858"><ele>2083.269989013672</ele></trkpt><trkpt lat="46.66550042759627" lon="8.061660347040743"><ele>2083.7999877929688</ele></trkpt><trkpt lat="46.665490427520126" lon="8.061650346964598"><ele>2083.5</ele></trkpt><trkpt lat="46.66543042752892" lon="8.061600347049534"><ele>2083.7899780273438</ele></trkpt><trkpt lat="46.66537042753771" lon="8.06155034666881"><ele>2083.3999938964844</ele></trkpt><trkpt lat="46.665360427461565" lon="8.061520346906036"><ele>2083.5999755859375</ele></trkpt><trkpt lat="46.66535042738542" lon="8.061500346753746"><ele>2083.199981689453</ele></trkpt><trkpt lat="46.6653104275465" lon="8.061480346601456"><ele>2083.0</ele></trkpt><trkpt lat="46.66529042739421" lon="8.061480347067118"><ele>2083.459991455078</ele></trkpt><trkpt lat="46.66528042778373" lon="8.061490346677601"><ele>2083.199981689453</ele></trkpt><trkpt lat="46.665210427716374" lon="8.061490346677601"><ele>2082.8999938964844</ele></trkpt><trkpt lat="46.66516042733565" lon="8.061480346601456"><ele>2082.8199768066406</ele></trkpt><trkpt lat="46.665150427259505" lon="8.061470346990973"><ele>2082.699981689453</ele></trkpt><trkpt lat="46.6650904272683" lon="8.061430346686393"><ele>2082.5</ele></trkpt><trkpt lat="46.66506042750552" lon="8.061410346534103"><ele>2082.4299926757812</ele></trkpt><trkpt lat="46.66503042727709" lon="8.061390346847475"><ele>2082.2999877929688</ele></trkpt><trkpt lat="46.66501042759046" lon="8.061350346542895"><ele>2082.3299865722656</ele></trkpt><trkpt lat="46.66497042728588" lon="8.061300346627831"><ele>2082.0999755859375</ele></trkpt><trkpt lat="46.66493042744696" lon="8.061260346788913"><ele>2082.0</ele></trkpt><trkpt lat="46.66485042730346" lon="8.061200346332043"><ele>2081.3999938964844</ele></trkpt><trkpt lat="46.664790427312255" lon="8.06113034626469"><ele>2081.0999755859375</ele></trkpt><trkpt lat="46.66476042708382" lon="8.061060346662998"><ele>2080.7999877929688</ele></trkpt><trkpt lat="46.66474042693153" lon="8.061020346358418"><ele>2080.75</ele></trkpt><trkpt lat="46.664730426855385" lon="8.060990346595645"><ele>2080.3999938964844</ele></trkpt><trkpt lat="46.66471042716876" lon="8.060910346452147"><ele>2080.3699951171875</ele></trkpt><trkpt lat="46.66468042694032" lon="8.060780346393585"><ele>2080.4299926757812</ele></trkpt><trkpt lat="46.66466042678803" lon="8.060710346326232"><ele>2080.0999755859375</ele></trkpt><trkpt lat="46.664620426949114" lon="8.060620346106589"><ele>2080.0</ele></trkpt><trkpt lat="46.66459042672068" lon="8.06058034626767"><ele>2079.6099853515625</ele></trkpt><trkpt lat="46.664540426805615" lon="8.060530346352607"><ele>2079.1399841308594</ele></trkpt><trkpt lat="46.664540426805615" lon="8.060520346276462"><ele>2079.1599731445312</ele></trkpt><trkpt lat="46.664540426805615" lon="8.060520346276462"><ele>2079.1599731445312</ele></trkpt><trkpt lat="46.66451042657718" lon="8.060500346124172"><ele>2078.5</ele></trkpt><trkpt lat="46.66447042673826" lon="8.060500346124172"><ele>2078.4099731445312</ele></trkpt><trkpt lat="46.66445042658597" lon="8.060500346124172"><ele>2078.0999755859375</ele></trkpt><trkpt lat="46.66441042628139" lon="8.060490346048027"><ele>2077.959991455078</ele></trkpt><trkpt lat="46.664390426594764" lon="8.060480345971882"><ele>2077.699981689453</ele></trkpt><trkpt lat="46.66440042667091" lon="8.060430346056819"><ele>2078.2999877929688</ele></trkpt><trkpt lat="46.664390426594764" lon="8.060410345904529"><ele>2078.5499877929688</ele></trkpt><trkpt lat="46.664370426908135" lon="8.06035034591332"><ele>2079.1699829101562</ele></trkpt><trkpt lat="46.66436042683199" lon="8.060300345998257"><ele>2079.0999755859375</ele></trkpt><trkpt lat="46.66425042692572" lon="8.060100346338004"><ele>2081.3999938964844</ele></trkpt><trkpt lat="46.664220427162945" lon="8.060060346499085"><ele>2082.0399780273438</ele></trkpt><trkpt lat="46.664220427162945" lon="8.060060346499085"><ele>2082.0899963378906</ele></trkpt><trkpt lat="46.66415042756125" lon="8.059990346431732"><ele>2082.5</ele></trkpt><trkpt lat="46.66412042733282" lon="8.059960346668959"><ele>2083.25</ele></trkpt><trkpt lat="46.66400042781606" lon="8.059870346914977"><ele>2084.699981689453</ele></trkpt><trkpt lat="46.66373042855412" lon="8.059630347881466"><ele>2089.189971923828</ele></trkpt><trkpt lat="46.663680429104716" lon="8.059570347890258"><ele>2090.199981689453</ele></trkpt><trkpt lat="46.663660428952426" lon="8.059540348127484"><ele>2090.6799926757812</ele></trkpt><trkpt lat="46.663590429350734" lon="8.059390348382294"><ele>2092.7999877929688</ele></trkpt><trkpt lat="46.66347042983398" lon="8.059130348730832"><ele>2094.2999877929688</ele></trkpt><trkpt lat="46.66336042992771" lon="8.058930348604918"><ele>2096.0</ele></trkpt><trkpt lat="46.663310430478305" lon="8.05885034892708"><ele>2097.0</ele></trkpt><trkpt lat="46.663270430639386" lon="8.058810349088162"><ele>2097.7999877929688</ele></trkpt><trkpt lat="46.663180430885404" lon="8.058760349173099"><ele>2099.2999877929688</ele></trkpt><trkpt lat="46.66311043081805" lon="8.058730349410325"><ele>2099.6699829101562</ele></trkpt><trkpt lat="46.66307043097913" lon="8.05872034933418"><ele>2099.699981689453</ele></trkpt><trkpt lat="46.66280043171719" lon="8.058560349978507"><ele>2103.7999877929688</ele></trkpt><trkpt lat="46.662690431810915" lon="8.058520350139588"><ele>2104.5599975585938</ele></trkpt><trkpt lat="46.66261043213308" lon="8.058490350376815"><ele>2105.3999938964844</ele></trkpt><trkpt lat="46.66257043229416" lon="8.05848035030067"><ele>2106.1699829101562</ele></trkpt><trkpt lat="46.6625204323791" lon="8.058460350614041"><ele>2107.199981689453</ele></trkpt><trkpt lat="46.66251043230295" lon="8.058450350537896"><ele>2107.3099975585938</ele></trkpt><trkpt lat="46.6624404322356" lon="8.058400350622833"><ele>2107.4099731445312</ele></trkpt><trkpt lat="46.66240043239668" lon="8.058360350783914"><ele>2108.0999755859375</ele></trkpt><trkpt lat="46.66235043248162" lon="8.058320350944996"><ele>2108.3699951171875</ele></trkpt><trkpt lat="46.66227043280378" lon="8.058270351029932"><ele>2109.0999755859375</ele></trkpt><trkpt lat="46.662240432575345" lon="8.058230351191014"><ele>2109.6499938964844</ele></trkpt><trkpt lat="46.66219043312594" lon="8.058170351199806"><ele>2110.5399780273438</ele></trkpt><trkpt lat="46.6621804330498" lon="8.05816035112366"><ele>2110.6399841308594</ele></trkpt><trkpt lat="46.66210043337196" lon="8.057950351387262"><ele>2111.8899841308594</ele></trkpt><trkpt lat="46.66203043330461" lon="8.057790351565927"><ele>2112.2999877929688</ele></trkpt><trkpt lat="46.661980433389544" lon="8.057710351422429"><ele>2113.0499877929688</ele></trkpt><trkpt lat="46.661980433389544" lon="8.057700351346284"><ele>2113.0999755859375</ele></trkpt><trkpt lat="46.66193043347448" lon="8.057660351507366"><ele>2113.5</ele></trkpt><trkpt lat="46.66188043355942" lon="8.057630351744592"><ele>2113.989990234375</ele></trkpt><trkpt lat="46.66187043348327" lon="8.057620351668447"><ele>2113.699981689453</ele></trkpt><trkpt lat="46.661810433957726" lon="8.057620351668447"><ele>2114.6199951171875</ele></trkpt><trkpt lat="46.66176043404266" lon="8.057620352134109"><ele>2115.5999755859375</ele></trkpt><trkpt lat="46.66174043389037" lon="8.057620351668447"><ele>2115.439971923828</ele></trkpt><trkpt lat="46.661700434051454" lon="8.057630351744592"><ele>2116.0</ele></trkpt><trkpt lat="46.66163043444976" lon="8.057670352049172"><ele>2117.1799926757812</ele></trkpt><trkpt lat="46.661570434458554" lon="8.057730352506042"><ele>2118.3999938964844</ele></trkpt><trkpt lat="46.66152043454349" lon="8.057800352573395"><ele>2119.199981689453</ele></trkpt><trkpt lat="46.66148043470457" lon="8.057820352725685"><ele>2119.699981689453</ele></trkpt><trkpt lat="46.6614504349418" lon="8.057820352725685"><ele>2120.0999755859375</ele></trkpt><trkpt lat="46.661420434713364" lon="8.05781035264954"><ele>2120.4299926757812</ele></trkpt><trkpt lat="46.66141043510288" lon="8.057800352573395"><ele>2120.519989013672</ele></trkpt><trkpt lat="46.66133043495938" lon="8.057670352980494"><ele>2121.0</ele></trkpt><trkpt lat="46.66127043496817" lon="8.057540352921933"><ele>2121.2899780273438</ele></trkpt><trkpt lat="46.66122043505311" lon="8.057440353091806"><ele>2122.0</ele></trkpt><trkpt lat="46.661100435536355" lon="8.057250353042036"><ele>2123.0</ele></trkpt><trkpt lat="46.661080435384065" lon="8.057210353203118"><ele>2123.0</ele></trkpt><trkpt lat="46.661030435469" lon="8.057040353305638"><ele>2123.0</ele></trkpt><trkpt lat="46.66098043555394" lon="8.056910353247076"><ele>2123.6199951171875</ele></trkpt><trkpt lat="46.66094043571502" lon="8.05679035326466"><ele>2123.699981689453</ele></trkpt><trkpt lat="46.6609004358761" lon="8.056720353197306"><ele>2124.5499877929688</ele></trkpt><trkpt lat="46.66086043603718" lon="8.05664035351947"><ele>2125.199981689453</ele></trkpt><trkpt lat="46.660800436045974" lon="8.056590353604406"><ele>2125.7999877929688</ele></trkpt><trkpt lat="46.66071043629199" lon="8.056530353613198"><ele>2126.939971923828</ele></trkpt><trkpt lat="46.66068043606356" lon="8.056510353460908"><ele>2126.8999938964844</ele></trkpt><trkpt lat="46.66068043606356" lon="8.056500353850424"><ele>2127.2999877929688</ele></trkpt><trkpt lat="46.66066043637693" lon="8.05647035362199"><ele>2127.199981689453</ele></trkpt><trkpt lat="46.660650436300784" lon="8.056420353706926"><ele>2127.699981689453</ele></trkpt><trkpt lat="46.660650436300784" lon="8.056380353868008"><ele>2128.1599731445312</ele></trkpt><trkpt lat="46.660650436300784" lon="8.056370353791863"><ele>2128.189971923828</ele></trkpt><trkpt lat="46.660670436453074" lon="8.056330353952944"><ele>2128.0</ele></trkpt><trkpt lat="46.660710436757654" lon="8.056260353885591"><ele>2129.0399780273438</ele></trkpt><trkpt lat="46.66071043629199" lon="8.056260353885591"><ele>2128.5999755859375</ele></trkpt><trkpt lat="46.66081043705344" lon="8.056160354055464"><ele>2130.6599731445312</ele></trkpt><trkpt lat="46.66110043786466" lon="8.055860355030745"><ele>2135.72998046875</ele></trkpt><trkpt lat="46.66118043847382" lon="8.055780355352908"><ele>2137.2999877929688</ele></trkpt><trkpt lat="46.66135043883696" lon="8.055640355683863"><ele>2139.959991455078</ele></trkpt><trkpt lat="46.661420438904315" lon="8.055580356158316"><ele>2141.199981689453</ele></trkpt><trkpt lat="46.661440439056605" lon="8.055550355929881"><ele>2141.5599975585938</ele></trkpt><trkpt lat="46.661460439208895" lon="8.055540355853736"><ele>2141.5999755859375</ele></trkpt><trkpt lat="46.661500439513475" lon="8.05548035632819"><ele>2142.5599975585938</ele></trkpt><trkpt lat="46.66150043904781" lon="8.055470356252044"><ele>2142.0999755859375</ele></trkpt><trkpt lat="46.66157043958083" lon="8.055340356193483"><ele>2143.0999755859375</ele></trkpt><trkpt lat="46.66164044011384" lon="8.05514035653323"><ele>2146.0499877929688</ele></trkpt><trkpt lat="46.66169044049457" lon="8.05499035678804"><ele>2147.199981689453</ele></trkpt><trkpt lat="46.66171044064686" lon="8.054900357034057"><ele>2147.8999938964844</ele></trkpt><trkpt lat="46.661720440723" lon="8.05482035689056"><ele>2148.199981689453</ele></trkpt><trkpt lat="46.661720440723" lon="8.054730357136577"><ele>2149.0</ele></trkpt><trkpt lat="46.661720440723" lon="8.054690357297659"><ele>2150.3599853515625</ele></trkpt><trkpt lat="46.66171044064686" lon="8.054640357382596"><ele>2149.7999877929688</ele></trkpt><trkpt lat="46.66170044103637" lon="8.054600357543677"><ele>2151.199981689453</ele></trkpt><trkpt lat="46.66168044088408" lon="8.054520357400179"><ele>2150.699981689453</ele></trkpt><trkpt lat="46.661660441197455" lon="8.054430357646197"><ele>2152.72998046875</ele></trkpt><trkpt lat="46.66163044143468" lon="8.054350357502699"><ele>2152.0999755859375</ele></trkpt><trkpt lat="46.6616204418242" lon="8.054270357824862"><ele>2154.279998779297</ele></trkpt><trkpt lat="46.66160044167191" lon="8.054190358147025"><ele>2154.5</ele></trkpt><trkpt lat="46.66160044213757" lon="8.054090358316898"><ele>2155.2999877929688</ele></trkpt><trkpt lat="46.661610442213714" lon="8.053950358182192"><ele>2156.199981689453</ele></trkpt><trkpt lat="46.661630442366004" lon="8.053780358750373"><ele>2158.0</ele></trkpt><trkpt lat="46.661650442983955" lon="8.053660358767956"><ele>2160.22998046875</ele></trkpt><trkpt lat="46.66166044259444" lon="8.053620358929038"><ele>2158.8999938964844</ele></trkpt><trkpt lat="46.6616604430601" lon="8.053590359166265"><ele>2160.6499938964844</ele></trkpt><trkpt lat="46.66166044259444" lon="8.05354035878554"><ele>2159.5999755859375</ele></trkpt><trkpt lat="46.66164044290781" lon="8.053450359031558"><ele>2161.0</ele></trkpt><trkpt lat="46.66164044290781" lon="8.053420358803123"><ele>2160.199981689453</ele></trkpt><trkpt lat="46.66162044322118" lon="8.053380358964205"><ele>2160.7999877929688</ele></trkpt><trkpt lat="46.66159044299275" lon="8.053360359277576"><ele>2161.1699829101562</ele></trkpt><trkpt lat="46.661520443391055" lon="8.053300359286368"><ele>2161.689971923828</ele></trkpt><trkpt lat="46.66146044339985" lon="8.053250359371305"><ele>2162.0999755859375</ele></trkpt><trkpt lat="46.66142044309527" lon="8.053230359219015"><ele>2162.1099853515625</ele></trkpt><trkpt lat="46.66139044333249" lon="8.053210359066725"><ele>2162.2999877929688</ele></trkpt><trkpt lat="46.66132044326514" lon="8.053180359303951"><ele>2162.2999877929688</ele></trkpt><trkpt lat="46.66125044319779" lon="8.053170359227806"><ele>2162.4199829101562</ele></trkpt><trkpt lat="46.66125044319779" lon="8.053170359227806"><ele>2162.5</ele></trkpt><trkpt lat="46.66123044351116" lon="8.053170359227806"><ele>2162.489990234375</ele></trkpt><trkpt lat="46.661140443291515" lon="8.053190359380096"><ele>2162.8099975585938</ele></trkpt><trkpt lat="46.66113044368103" lon="8.053200359456241"><ele>2163.0</ele></trkpt><trkpt lat="46.66104044346139" lon="8.053230359219015"><ele>2163.199981689453</ele></trkpt><trkpt lat="46.660970443394035" lon="8.053290359675884"><ele>2163.719970703125</ele></trkpt><trkpt lat="46.66087044356391" lon="8.05343035981059"><ele>2164.3799743652344</ele></trkpt><trkpt lat="46.660820443648845" lon="8.053500359877944"><ele>2164.689971923828</ele></trkpt><trkpt lat="46.660820443648845" lon="8.053510359488428"><ele>2164.5999755859375</ele></trkpt><trkpt lat="46.66075044358149" lon="8.053740359842777"><ele>2164.699981689453</ele></trkpt><trkpt lat="46.660690444055945" lon="8.053880359977484"><ele>2165.189971923828</ele></trkpt><trkpt lat="46.660690444055945" lon="8.053880359977484"><ele>2165.199981689453</ele></trkpt><trkpt lat="46.66066044382751" lon="8.053950359579176"><ele>2164.8999938964844</ele></trkpt><trkpt lat="46.66061044391245" lon="8.0540003599599"><ele>2165.0</ele></trkpt><trkpt lat="46.66058044368401" lon="8.054030359722674"><ele>2165.0999755859375</ele></trkpt><trkpt lat="46.66051044408232" lon="8.054040359798819"><ele>2165.449981689453</ele></trkpt><trkpt lat="46.660480443853885" lon="8.054050359874964"><ele>2165.3999938964844</ele></trkpt><trkpt lat="46.66040044371039" lon="8.054040359798819"><ele>2165.2999877929688</ele></trkpt><trkpt lat="46.66032044403255" lon="8.054010360036045"><ele>2165.6399841308594</ele></trkpt><trkpt lat="46.66022044373676" lon="8.053970359731466"><ele>2165.5</ele></trkpt><trkpt lat="46.66021044412628" lon="8.053970359731466"><ele>2165.6799926757812</ele></trkpt><trkpt lat="46.66021044412628" lon="8.053970359731466"><ele>2165.6699829101562</ele></trkpt></trkseg></trk></gpx>