<?xml version="1.0" encoding="utf-8"?><gpx version="1.1" creator="MySchweizMobil - https://map.schweizmobil.ch/" xmlns:xsi="http://www.w3.org/2001/XMLSchema-instance" xmlns="http://www.topografix.com/GPX/1/1" xsi:schemaLocation="http://www.topografix.com/GPX/1/1 http://www.topografix.com/GPX/1/1/gpx.xsd"><metadata><name>Bramisegg to Axalp</name><bounds minlat="46.717920230701566" minlon="8.02470017876476" maxlat="46.7307302094996" maxlon="8.037590256426483" /></metadata><trk><name>Bramisegg to Axalp</name><trkseg><trkpt lat="46.730730209033936" lon="8.025920168496668"><ele>991.6099853515625</ele></trkpt><trkpt lat="46.7307302094996" lon="8.025960168801248"><ele>992.239990234375</ele></trkpt><trkpt lat="46.73062021005899" lon="8.025650169234723"><ele>995.6499938964844</ele></trkpt><trkpt lat="46.730550210457295" lon="8.025420169811696"><ele>998.0299987792969</ele></trkpt><trkpt lat="46.73054021084681" lon="8.025370169430971"><ele>998.47998046875</ele></trkpt><trkpt lat="46.73049021093175" lon="8.025270169600844"><ele>999.4399719238281</ele></trkpt><trkpt lat="46.73043021094054" lon="8.025180169846863"><ele>1000.5599975585938</ele></trkpt><trkpt lat="46.730270211584866" lon="8.025100170169026"><ele>1002.5599975585938</ele></trkpt><trkpt lat="46.73021021159366" lon="8.025100170634687"><ele>1003.2899780273438</ele></trkpt><trkpt lat="46.73002021200955" lon="8.025110170710832"><ele>1005.6699829101562</ele></trkpt><trkpt lat="46.729960212484" lon="8.025140170939267"><ele>1006.47998046875</ele></trkpt><trkpt lat="46.72989021241665" lon="8.025200170930475"><ele>1007.47998046875</ele></trkpt><trkpt lat="46.72981021273881" lon="8.025280171073973"><ele>1008.6199951171875</ele></trkpt><trkpt lat="46.72977021289989" lon="8.025360171217471"><ele>1009.4599914550781</ele></trkpt><trkpt lat="46.7297002132982" lon="8.02548017166555"><ele>1010.6299743652344</ele></trkpt><trkpt lat="46.72963021323085" lon="8.025590172037482"><ele>1012.0099792480469</ele></trkpt><trkpt lat="46.72955021355301" lon="8.02565017202869"><ele>1013.0999755859375</ele></trkpt><trkpt lat="46.72950021363795" lon="8.025710172019899"><ele>1013.7799987792969</ele></trkpt><trkpt lat="46.729410213883966" lon="8.025840172544122"><ele>1015.2999877929688</ele></trkpt><trkpt lat="46.729410213883966" lon="8.02588017238304"><ele>1015.5199890136719</ele></trkpt><trkpt lat="46.72940021427348" lon="8.025910172611475"><ele>1016.0299987792969</ele></trkpt><trkpt lat="46.72940021427348" lon="8.025910172611475"><ele>1015.7799987792969</ele></trkpt><trkpt lat="46.72940021427348" lon="8.025910172611475"><ele>1016.0299987792969</ele></trkpt><trkpt lat="46.72938021412119" lon="8.025930172763765"><ele>1016.3199768066406</ele></trkpt><trkpt lat="46.729340214282274" lon="8.025960172526538"><ele>1016.5199890136719</ele></trkpt><trkpt lat="46.729280214291066" lon="8.025990172754973"><ele>1017.4599914550781</ele></trkpt><trkpt lat="46.72920021461323" lon="8.026040173135698"><ele>1018.6499938964844</ele></trkpt><trkpt lat="46.72912021493539" lon="8.026050173211843"><ele>1019.72998046875</ele></trkpt><trkpt lat="46.72905021486804" lon="8.026050173211843"><ele>1020.5</ele></trkpt><trkpt lat="46.72899021534249" lon="8.026030173525214"><ele>1021.3799743652344</ele></trkpt><trkpt lat="46.72894021542743" lon="8.02600017329678"><ele>1022.1499938964844</ele></trkpt><trkpt lat="46.7288402155973" lon="8.025940173771232"><ele>1023.3299865722656</ele></trkpt><trkpt lat="46.72877021599561" lon="8.025880173780024"><ele>1024.3599853515625</ele></trkpt><trkpt lat="46.72864021640271" lon="8.025740174110979"><ele>1026.2799987792969</ele></trkpt><trkpt lat="46.728570216335356" lon="8.02568017411977"><ele>1027.3099975585938</ele></trkpt><trkpt lat="46.72843021666631" lon="8.025610174518079"><ele>1029.1799926757812</ele></trkpt><trkpt lat="46.72836021706462" lon="8.025580174755305"><ele>1029.97998046875</ele></trkpt><trkpt lat="46.728330217301846" lon="8.025550174992532"><ele>1030.5099792480469</ele></trkpt><trkpt lat="46.72830021707341" lon="8.025510175153613"><ele>1030.97998046875</ele></trkpt><trkpt lat="46.72823021747172" lon="8.025410175323486"><ele>1032.1899719238281</ele></trkpt><trkpt lat="46.72811021795496" lon="8.025260175578296"><ele>1033.6399841308594</ele></trkpt><trkpt lat="46.728050217963755" lon="8.025190175510943"><ele>1034.7099914550781</ele></trkpt><trkpt lat="46.72796021820977" lon="8.02514017559588"><ele>1035.9099731445312</ele></trkpt><trkpt lat="46.72786021837965" lon="8.025080176070333"><ele>1037.3499755859375</ele></trkpt><trkpt lat="46.72780021838844" lon="8.025060175918043"><ele>1038.0599975585938</ele></trkpt><trkpt lat="46.72767021879554" lon="8.025050176307559"><ele>1039.6499938964844</ele></trkpt><trkpt lat="46.72761021926999" lon="8.02503017662093"><ele>1040.4599914550781</ele></trkpt><trkpt lat="46.72756021935493" lon="8.025000176392496"><ele>1041.0399780273438</ele></trkpt><trkpt lat="46.72756021935493" lon="8.025000176858157"><ele>1041.5899963378906</ele></trkpt><trkpt lat="46.72748021921143" lon="8.024930176790804"><ele>1042.1399841308594</ele></trkpt><trkpt lat="46.727320219855756" lon="8.02488017687574"><ele>1044.1499938964844</ele></trkpt><trkpt lat="46.72713022027165" lon="8.024820177350193"><ele>1046.5399780273438</ele></trkpt><trkpt lat="46.72695022076368" lon="8.024780177976936"><ele>1048.6499938964844</ele></trkpt><trkpt lat="46.726890220772475" lon="8.024770177900791"><ele>1049.3099975585938</ele></trkpt><trkpt lat="46.72664022166282" lon="8.024750178214163"><ele>1052.219970703125</ele></trkpt><trkpt lat="46.726420221850276" lon="8.02470017876476"><ele>1055.0</ele></trkpt><trkpt lat="46.72634022217244" lon="8.02470017876476"><ele>1055.97998046875</ele></trkpt><trkpt lat="46.72630022233352" lon="8.024700179230422"><ele>1056.6199951171875</ele></trkpt><trkpt lat="46.72627022257075" lon="8.02472017891705"><ele>1056.969970703125</ele></trkpt><trkpt lat="46.7262602224946" lon="8.024750179145485"><ele>1057.1499938964844</ele></trkpt><trkpt lat="46.726220222655684" lon="8.024770179297775"><ele>1057.7599792480469</ele></trkpt><trkpt lat="46.72619022242725" lon="8.024810179136693"><ele>1058.1799926757812</ele></trkpt><trkpt lat="46.72615022258833" lon="8.024840179365128"><ele>1058.6899719238281</ele></trkpt><trkpt lat="46.725880223326385" lon="8.025210179854184"><ele>1061.6499938964844</ele></trkpt><trkpt lat="46.72580022364855" lon="8.025300180073828"><ele>1062.4099731445312</ele></trkpt><trkpt lat="46.7256602239795" lon="8.025440180208534"><ele>1063.739990234375</ele></trkpt><trkpt lat="46.72559022391215" lon="8.025530180428177"><ele>1064.4099731445312</ele></trkpt><trkpt lat="46.72551022423431" lon="8.025660180486739"><ele>1065.6099853515625</ele></trkpt><trkpt lat="46.725470224395394" lon="8.025720180477947"><ele>1066.0399780273438</ele></trkpt><trkpt lat="46.725390224251896" lon="8.02581018069759"><ele>1066.8499755859375</ele></trkpt><trkpt lat="46.72531022457406" lon="8.025900180917233"><ele>1067.6799926757812</ele></trkpt><trkpt lat="46.72519022459164" lon="8.026000181213021"><ele>1068.7599792480469</ele></trkpt><trkpt lat="46.725110224913806" lon="8.02604018105194"><ele>1069.469970703125</ele></trkpt><trkpt lat="46.7250502249226" lon="8.026090181432664"><ele>1069.97998046875</ele></trkpt><trkpt lat="46.72488022549078" lon="8.02627018140629"><ele>1071.7099914550781</ele></trkpt><trkpt lat="46.7247902257368" lon="8.026340181473643"><ele>1072.5299987792969</ele></trkpt><trkpt lat="46.7247102255933" lon="8.026390181854367"><ele>1073.239990234375</ele></trkpt><trkpt lat="46.72464022599161" lon="8.026410182006657"><ele>1073.7899780273438</ele></trkpt><trkpt lat="46.72460022568703" lon="8.026420182082802"><ele>1074.2899780273438</ele></trkpt><trkpt lat="46.724530226085335" lon="8.026420182082802"><ele>1075.0499877929688</ele></trkpt><trkpt lat="46.72447022609413" lon="8.026390182320029"><ele>1075.8399963378906</ele></trkpt><trkpt lat="46.72444022633135" lon="8.026370182167739"><ele>1076.3399963378906</ele></trkpt><trkpt lat="46.72441022656858" lon="8.02633018232882"><ele>1076.9399719238281</ele></trkpt><trkpt lat="46.72437022672966" lon="8.026280182413757"><ele>1077.4599914550781</ele></trkpt><trkpt lat="46.724340226501226" lon="8.026220182422549"><ele>1078.0699768066406</ele></trkpt><trkpt lat="46.72430022666231" lon="8.02618018258363"><ele>1078.719970703125</ele></trkpt><trkpt lat="46.724250226747245" lon="8.026160182897002"><ele>1079.5499877929688</ele></trkpt><trkpt lat="46.72418022714555" lon="8.026150182820857"><ele>1080.3999938964844</ele></trkpt><trkpt lat="46.72413022723049" lon="8.026150182820857"><ele>1081.0199890136719</ele></trkpt><trkpt lat="46.7240602276288" lon="8.026170182973146"><ele>1081.9599914550781</ele></trkpt><trkpt lat="46.72400022763759" lon="8.026190183125436"><ele>1082.6699829101562</ele></trkpt><trkpt lat="46.72394022764638" lon="8.026230183430016"><ele>1083.489990234375</ele></trkpt><trkpt lat="46.72392022795975" lon="8.02626018365845"><ele>1083.7699890136719</ele></trkpt><trkpt lat="46.72388022765517" lon="8.02632018364966"><ele>1084.0699768066406</ele></trkpt><trkpt lat="46.72381022805348" lon="8.026520183775574"><ele>1084.3099975585938</ele></trkpt><trkpt lat="46.72375022806227" lon="8.026700183749199"><ele>1084.5499877929688</ele></trkpt><trkpt lat="46.72372022783384" lon="8.02679018350318"><ele>1084.6999816894531</ele></trkpt><trkpt lat="46.72368022799492" lon="8.026860183570534"><ele>1084.6499938964844</ele></trkpt><trkpt lat="46.723640228156" lon="8.026900183875114"><ele>1084.6899719238281</ele></trkpt><trkpt lat="46.72360022785142" lon="8.026940183714032"><ele>1084.9399719238281</ele></trkpt><trkpt lat="46.723520228173584" lon="8.02698018355295"><ele>1085.2099914550781</ele></trkpt><trkpt lat="46.723420227877796" lon="8.027030183933675"><ele>1085.3899841308594</ele></trkpt><trkpt lat="46.723350228276104" lon="8.027050183620304"><ele>1085.4299926757812</ele></trkpt><trkpt lat="46.723290228284895" lon="8.027060183696449"><ele>1085.5199890136719</ele></trkpt><trkpt lat="46.72324022836983" lon="8.027060183696449"><ele>1085.6999816894531</ele></trkpt><trkpt lat="46.723080228082836" lon="8.027050184085965"><ele>1086.1099853515625</ele></trkpt><trkpt lat="46.72302022809163" lon="8.027050184085965"><ele>1086.2699890136719</ele></trkpt><trkpt lat="46.722970228176564" lon="8.027050184085965"><ele>1086.2899780273438</ele></trkpt><trkpt lat="46.72290022810921" lon="8.027070183772594"><ele>1086.4299926757812</ele></trkpt><trkpt lat="46.72275022836402" lon="8.027130183763802"><ele>1086.5799865722656</ele></trkpt><trkpt lat="46.722590228542686" lon="8.027190184220672"><ele>1086.9499816894531</ele></trkpt><trkpt lat="46.72254022862762" lon="8.0272101839073"><ele>1086.97998046875</ele></trkpt><trkpt lat="46.722480228636414" lon="8.027220183983445"><ele>1087.0299987792969</ele></trkpt><trkpt lat="46.722440228331834" lon="8.027220183983445"><ele>1087.219970703125</ele></trkpt><trkpt lat="46.72241022856906" lon="8.0272101839073"><ele>1087.4199829101562</ele></trkpt><trkpt lat="46.722360228654" lon="8.027190184220672"><ele>1087.7699890136719</ele></trkpt><trkpt lat="46.722290228586644" lon="8.027140184305608"><ele>1088.1699829101562</ele></trkpt><trkpt lat="46.72213022876531" lon="8.026920184027404"><ele>1088.0199890136719</ele></trkpt><trkpt lat="46.72197022847831" lon="8.02670018421486"><ele>1088.1099853515625</ele></trkpt><trkpt lat="46.72190022887662" lon="8.026620184071362"><ele>1088.4199829101562</ele></trkpt><trkpt lat="46.72183022880927" lon="8.026570184156299"><ele>1088.5299987792969</ele></trkpt><trkpt lat="46.721760228741914" lon="8.02653018431738"><ele>1088.6199951171875</ele></trkpt><trkpt lat="46.721680228598416" lon="8.026520184241235"><ele>1088.6699829101562</ele></trkpt><trkpt lat="46.72160022892058" lon="8.02653018431738"><ele>1088.719970703125</ele></trkpt><trkpt lat="46.72152022877708" lon="8.026570184156299"><ele>1088.8099975585938</ele></trkpt><trkpt lat="46.72145022870973" lon="8.026630184147507"><ele>1088.7999877929688</ele></trkpt><trkpt lat="46.721320228651166" lon="8.026780184358358"><ele>1088.8299865722656</ele></trkpt><trkpt lat="46.72118022898212" lon="8.026950184255838"><ele>1088.8599853515625</ele></trkpt><trkpt lat="46.72107022861019" lon="8.02706018416211"><ele>1088.8199768066406</ele></trkpt><trkpt lat="46.721000228542835" lon="8.027120184153318"><ele>1088.8499755859375</ele></trkpt><trkpt lat="46.72093022894114" lon="8.027150184381753"><ele>1088.9099731445312</ele></trkpt><trkpt lat="46.720870228949934" lon="8.027170184534043"><ele>1089.1299743652344</ele></trkpt><trkpt lat="46.720640229061246" lon="8.027230184525251"><ele>1089.47998046875</ele></trkpt><trkpt lat="46.720600228756666" lon="8.027220184449106"><ele>1089.4599914550781</ele></trkpt><trkpt lat="46.7205502288416" lon="8.027200184296817"><ele>1089.5</ele></trkpt><trkpt lat="46.72050022892654" lon="8.027160184457898"><ele>1089.5099792480469</ele></trkpt><trkpt lat="46.72042022878304" lon="8.027070184238255"><ele>1089.6699829101562</ele></trkpt><trkpt lat="46.72035022871569" lon="8.026980184484273"><ele>1089.7899780273438</ele></trkpt><trkpt lat="46.72033022902906" lon="8.026950184255838"><ele>1089.8399963378906</ele></trkpt><trkpt lat="46.720280229113996" lon="8.026920184493065"><ele>1089.9199829101562</ele></trkpt><trkpt lat="46.72022022912279" lon="8.026890184730291"><ele>1090.0599975585938</ele></trkpt><trkpt lat="46.720130228903145" lon="8.026860184501857"><ele>1090.2899780273438</ele></trkpt><trkpt lat="46.719900229014456" lon="8.026820184662938"><ele>1091.0399780273438</ele></trkpt><trkpt lat="46.71976022934541" lon="8.026790184900165"><ele>1091.5899963378906</ele></trkpt><trkpt lat="46.71969022927806" lon="8.026790184900165"><ele>1091.8199768066406</ele></trkpt><trkpt lat="46.71961022960022" lon="8.02680018497631"><ele>1092.1299743652344</ele></trkpt><trkpt lat="46.71955022960901" lon="8.026830184739083"><ele>1092.3699951171875</ele></trkpt><trkpt lat="46.71938022971153" lon="8.026920184958726"><ele>1093.1899719238281</ele></trkpt><trkpt lat="46.719320229720324" lon="8.026950185187161"><ele>1093.4099731445312</ele></trkpt><trkpt lat="46.71925022965297" lon="8.026950185187161"><ele>1093.5899963378906</ele></trkpt><trkpt lat="46.71920022973791" lon="8.026940185111016"><ele>1093.7699890136719</ele></trkpt><trkpt lat="46.71912022959441" lon="8.026920184958726"><ele>1094.0299987792969</ele></trkpt><trkpt lat="46.71905022999272" lon="8.026870185043663"><ele>1094.1499938964844</ele></trkpt><trkpt lat="46.71899023000151" lon="8.0268201851286"><ele>1094.489990234375</ele></trkpt><trkpt lat="46.7189302300103" lon="8.026750185061246"><ele>1094.7099914550781</ele></trkpt><trkpt lat="46.718810230027884" lon="8.026560185477138"><ele>1095.3099975585938</ele></trkpt><trkpt lat="46.71870023012161" lon="8.026390185579658"><ele>1095.9299926757812</ele></trkpt><trkpt lat="46.71861023036763" lon="8.02629018528387"><ele>1096.3599853515625</ele></trkpt><trkpt lat="46.718490230385214" lon="8.026230185758322"><ele>1096.719970703125</ele></trkpt><trkpt lat="46.71801023045555" lon="8.026040185708553"><ele>1098.6099853515625</ele></trkpt><trkpt lat="46.717920230701566" lon="8.025960186030716"><ele>1098.7899780273438</ele></trkpt><trkpt lat="46.71801023045555" lon="8.026040185708553"><ele>1098.6099853515625</ele></trkpt><trkpt lat="46.718490230385214" lon="8.026230185758322"><ele>1096.719970703125</ele></trkpt><trkpt lat="46.71861023036763" lon="8.02629018528387"><ele>1096.3599853515625</ele></trkpt><trkpt lat="46.71870023012161" lon="8.026390185579658"><ele>1095.9299926757812</ele></trkpt><trkpt lat="46.718810230027884" lon="8.026560185477138"><ele>1095.3099975585938</ele></trkpt><trkpt lat="46.7189302300103" lon="8.026750185061246"><ele>1094.7099914550781</ele></trkpt><trkpt lat="46.71899023000151" lon="8.0268201851286"><ele>1094.489990234375</ele></trkpt><trkpt lat="46.71905022999272" lon="8.026870185043663"><ele>1094.1499938964844</ele></trkpt><trkpt lat="46.71912022959441" lon="8.026920184958726"><ele>1094.0299987792969</ele></trkpt><trkpt lat="46.71920022973791" lon="8.026940185111016"><ele>1093.7699890136719</ele></trkpt><trkpt lat="46.71925022965297" lon="8.026950185187161"><ele>1093.5899963378906</ele></trkpt><trkpt lat="46.719320229720324" lon="8.026950185187161"><ele>1093.4099731445312</ele></trkpt><trkpt lat="46.71938022971153" lon="8.026920184958726"><ele>1093.1899719238281</ele></trkpt><trkpt lat="46.71955022960901" lon="8.026830184739083"><ele>1092.3699951171875</ele></trkpt><trkpt lat="46.71961022960022" lon="8.02680018497631"><ele>1092.1299743652344</ele></trkpt><trkpt lat="46.71969022927806" lon="8.026790184900165"><ele>1091.8199768066406</ele></trkpt><trkpt lat="46.71976022934541" lon="8.026790184900165"><ele>1091.5899963378906</ele></trkpt><trkpt lat="46.719900229014456" lon="8.026820184662938"><ele>1091.0399780273438</ele></trkpt><trkpt lat="46.720130228903145" lon="8.026860184501857"><ele>1090.2899780273438</ele></trkpt><trkpt lat="46.72022022912279" lon="8.026890184730291"><ele>1090.0599975585938</ele></trkpt><trkpt lat="46.720280229113996" lon="8.026920184493065"><ele>1089.9199829101562</ele></trkpt><trkpt lat="46.72033022902906" lon="8.026950184255838"><ele>1089.8399963378906</ele></trkpt><trkpt lat="46.72035022871569" lon="8.026980184484273"><ele>1089.7899780273438</ele></trkpt><trkpt lat="46.72042022878304" lon="8.027070184238255"><ele>1089.6699829101562</ele></trkpt><trkpt lat="46.72050022892654" lon="8.027160184457898"><ele>1089.5099792480469</ele></trkpt><trkpt lat="46.7205502288416" lon="8.027200184296817"><ele>1089.5</ele></trkpt><trkpt lat="46.720600228756666" lon="8.027220184449106"><ele>1089.4599914550781</ele></trkpt><trkpt lat="46.720640229061246" lon="8.027230184525251"><ele>1089.47998046875</ele></trkpt><trkpt lat="46.720870228949934" lon="8.027170184534043"><ele>1089.1299743652344</ele></trkpt><trkpt lat="46.72093022894114" lon="8.027150184381753"><ele>1088.9099731445312</ele></trkpt><trkpt lat="46.721000228542835" lon="8.027120184153318"><ele>1088.8499755859375</ele></trkpt><trkpt lat="46.72107022861019" lon="8.02706018416211"><ele>1088.8199768066406</ele></trkpt><trkpt lat="46.72118022898212" lon="8.026950184255838"><ele>1088.8599853515625</ele></trkpt><trkpt lat="46.721320228651166" lon="8.026780184358358"><ele>1088.8299865722656</ele></trkpt><trkpt lat="46.72145022870973" lon="8.026630184147507"><ele>1088.7999877929688</ele></trkpt><trkpt lat="46.72152022877708" lon="8.026570184156299"><ele>1088.8099975585938</ele></trkpt><trkpt lat="46.72160022892058" lon="8.02653018431738"><ele>1088.719970703125</ele></trkpt><trkpt lat="46.721680228598416" lon="8.026520184241235"><ele>1088.6699829101562</ele></trkpt><trkpt lat="46.721760228741914" lon="8.02653018431738"><ele>1088.6199951171875</ele></trkpt><trkpt lat="46.72183022880927" lon="8.026570184156299"><ele>1088.5299987792969</ele></trkpt><trkpt lat="46.72190022887662" lon="8.026620184071362"><ele>1088.4199829101562</ele></trkpt><trkpt lat="46.72197022847831" lon="8.02670018421486"><ele>1088.1099853515625</ele></trkpt><trkpt lat="46.72213022876531" lon="8.026920184027404"><ele>1088.0199890136719</ele></trkpt><trkpt lat="46.722290228586644" lon="8.027140184305608"><ele>1088.1699829101562</ele></trkpt><trkpt lat="46.722360228654" lon="8.027190184220672"><ele>1087.7699890136719</ele></trkpt><trkpt lat="46.72241022856906" lon="8.0272101839073"><ele>1087.4199829101562</ele></trkpt><trkpt lat="46.722440228331834" lon="8.027220183983445"><ele>1087.219970703125</ele></trkpt><trkpt lat="46.722480228636414" lon="8.027220183983445"><ele>1087.0299987792969</ele></trkpt><trkpt lat="46.72254022862762" lon="8.0272101839073"><ele>1086.97998046875</ele></trkpt><trkpt lat="46.722590228542686" lon="8.027190184220672"><ele>1086.9499816894531</ele></trkpt><trkpt lat="46.72275022836402" lon="8.027130183763802"><ele>1086.5799865722656</ele></trkpt><trkpt lat="46.72290022810921" lon="8.027070183772594"><ele>1086.4299926757812</ele></trkpt><trkpt lat="46.722970228176564" lon="8.027050184085965"><ele>1086.2899780273438</ele></trkpt><trkpt lat="46.72302022809163" lon="8.027050184085965"><ele>1086.2699890136719</ele></trkpt><trkpt lat="46.723080228082836" lon="8.027050184085965"><ele>1086.1099853515625</ele></trkpt><trkpt lat="46.72324022836983" lon="8.027060183696449"><ele>1085.6999816894531</ele></trkpt><trkpt lat="46.723290228284895" lon="8.027060183696449"><ele>1085.5199890136719</ele></trkpt><trkpt lat="46.723350228276104" lon="8.027050183620304"><ele>1085.4299926757812</ele></trkpt><trkpt lat="46.723420227877796" lon="8.027030183933675"><ele>1085.3899841308594</ele></trkpt><trkpt lat="46.723520228173584" lon="8.02698018355295"><ele>1085.2099914550781</ele></trkpt><trkpt lat="46.72360022785142" lon="8.026940183714032"><ele>1084.9399719238281</ele></trkpt><trkpt lat="46.723640228156" lon="8.026900183875114"><ele>1084.6899719238281</ele></trkpt><trkpt lat="46.723650228232145" lon="8.027000184170902"><ele>1087.1499938964844</ele></trkpt><trkpt lat="46.72364022862166" lon="8.027030184399337"><ele>1087.9399719238281</ele></trkpt><trkpt lat="46.72365022916347" lon="8.02712018461898"><ele>1090.239990234375</ele></trkpt><trkpt lat="46.723620229866356" lon="8.027240185067058"><ele>1093.1299743652344</ele></trkpt><trkpt lat="46.7236302299425" lon="8.027280185371637"><ele>1094.4399719238281</ele></trkpt><trkpt lat="46.723620229866356" lon="8.027300185523927"><ele>1095.0599975585938</ele></trkpt><trkpt lat="46.72363023040816" lon="8.027380185667425"><ele>1096.7899780273438</ele></trkpt><trkpt lat="46.72368023078889" lon="8.02743018604815"><ele>1098.1099853515625</ele></trkpt><trkpt lat="46.72373023116961" lon="8.027520186267793"><ele>1101.6299743652344</ele></trkpt><trkpt lat="46.72379023162648" lon="8.027520186733454"><ele>1103.2899780273438</ele></trkpt><trkpt lat="46.72399023268372" lon="8.027470187284052"><ele>1107.8899841308594</ele></trkpt><trkpt lat="46.72409023344517" lon="8.02746018813923"><ele>1111.47998046875</ele></trkpt><trkpt lat="46.72411023359746" lon="8.027500187978148"><ele>1112.1599731445312</ele></trkpt><trkpt lat="46.724190233740956" lon="8.02746018813923"><ele>1113.1199951171875</ele></trkpt><trkpt lat="46.724250233732164" lon="8.027450188528746"><ele>1113.8099975585938</ele></trkpt><trkpt lat="46.72426023380831" lon="8.027470188215375"><ele>1113.9599914550781</ele></trkpt><trkpt lat="46.72438023472205" lon="8.027480189222842"><ele>1118.6899719238281</ele></trkpt><trkpt lat="46.72455023555085" lon="8.027460189536214"><ele>1122.1899719238281</ele></trkpt><trkpt lat="46.72472023591399" lon="8.027460190001875"><ele>1124.3599853515625</ele></trkpt><trkpt lat="46.72488023666665" lon="8.027440190780908"><ele>1127.2999877929688</ele></trkpt><trkpt lat="46.72497023688629" lon="8.02742019109428"><ele>1129.5599975585938</ele></trkpt><trkpt lat="46.72498023696244" lon="8.027460190933198"><ele>1130.1599731445312</ele></trkpt><trkpt lat="46.7249802374281" lon="8.027470191009343"><ele>1130.7699890136719</ele></trkpt><trkpt lat="46.72504023741931" lon="8.027520191390067"><ele>1131.7599792480469</ele></trkpt><trkpt lat="46.72507023764774" lon="8.027560191228986"><ele>1132.6399841308594</ele></trkpt><trkpt lat="46.72511023795232" lon="8.027600191533566"><ele>1133.6899719238281</ele></trkpt><trkpt lat="46.72513023857027" lon="8.027730192057788"><ele>1136.4599914550781</ele></trkpt><trkpt lat="46.725180238951" lon="8.027820192277431"><ele>1138.5</ele></trkpt><trkpt lat="46.72523023933172" lon="8.027880192734301"><ele>1140.4499816894531</ele></trkpt><trkpt lat="46.72529023978859" lon="8.02796019334346"><ele>1143.3399963378906</ele></trkpt><trkpt lat="46.72533024009317" lon="8.02796019334346"><ele>1143.5799865722656</ele></trkpt><trkpt lat="46.72533024009317" lon="8.02796019334346"><ele>1143.4599914550781</ele></trkpt><trkpt lat="46.72529023978859" lon="8.02796019334346"><ele>1143.3399963378906</ele></trkpt><trkpt lat="46.72515024011955" lon="8.028010193258524"><ele>1144.0099792480469</ele></trkpt><trkpt lat="46.7250602398999" lon="8.028010193258524"><ele>1143.7899780273438</ele></trkpt><trkpt lat="46.72501023998484" lon="8.028020193334669"><ele>1144.6999816894531</ele></trkpt><trkpt lat="46.7249602410011" lon="8.02806019410491"><ele>1148.0399780273438</ele></trkpt><trkpt lat="46.72490024100989" lon="8.028070194181055"><ele>1149.3899841308594</ele></trkpt><trkpt lat="46.724860241636634" lon="8.028090194333345"><ele>1151.3999938964844</ele></trkpt><trkpt lat="46.72481024218723" lon="8.028150195255876"><ele>1155.8599853515625</ele></trkpt><trkpt lat="46.7248702426441" lon="8.028220195323229"><ele>1156.9199829101562</ele></trkpt><trkpt lat="46.72467024391517" lon="8.028210196644068"><ele>1164.22998046875</ele></trkpt><trkpt lat="46.72454024432227" lon="8.028210197109729"><ele>1166.2599792480469</ele></trkpt><trkpt lat="46.724480245262384" lon="8.028260197490454"><ele>1169.0799865722656</ele></trkpt><trkpt lat="46.72436024574563" lon="8.028290197718889"><ele>1171.9599914550781</ele></trkpt><trkpt lat="46.724070247262716" lon="8.028380198869854"><ele>1179.6099853515625</ele></trkpt><trkpt lat="46.723980247508734" lon="8.028450199402869"><ele>1181.9499816894531</ele></trkpt><trkpt lat="46.72390024829656" lon="8.028520199935883"><ele>1184.719970703125</ele></trkpt><trkpt lat="46.72384024877101" lon="8.028580200392753"><ele>1186.9199829101562</ele></trkpt><trkpt lat="46.72383024916053" lon="8.028620200697333"><ele>1188.5699768066406</ele></trkpt><trkpt lat="46.72383024962619" lon="8.028660201001912"><ele>1190.989990234375</ele></trkpt><trkpt lat="46.72381024993956" lon="8.028690201230347"><ele>1192.7099914550781</ele></trkpt><trkpt lat="46.72374025033787" lon="8.028730201534927"><ele>1194.8599853515625</ele></trkpt><trkpt lat="46.723690250422806" lon="8.028760201763362"><ele>1196.75</ele></trkpt><trkpt lat="46.72363025089726" lon="8.028770202305168"><ele>1198.3699951171875</ele></trkpt><trkpt lat="46.72359025105834" lon="8.028790202457458"><ele>1199.8599853515625</ele></trkpt><trkpt lat="46.72354025160894" lon="8.028870202600956"><ele>1201.8499755859375</ele></trkpt><trkpt lat="46.723510251846164" lon="8.028930203057826"><ele>1203.2899780273438</ele></trkpt><trkpt lat="46.72358025237918" lon="8.02894020313397"><ele>1205.8999938964844</ele></trkpt><trkpt lat="46.72360025253147" lon="8.028940203599632"><ele>1206.5399780273438</ele></trkpt><trkpt lat="46.72362025268376" lon="8.028950203675777"><ele>1207.3599853515625</ele></trkpt><trkpt lat="46.72360025299713" lon="8.028980203904212"><ele>1208.6399841308594</ele></trkpt><trkpt lat="46.72360025346279" lon="8.029010204132646"><ele>1210.5599975585938</ele></trkpt><trkpt lat="46.72360025392845" lon="8.029030204284936"><ele>1211.8999938964844</ele></trkpt><trkpt lat="46.72359025385231" lon="8.029050204437226"><ele>1213.75</ele></trkpt><trkpt lat="46.723560254089534" lon="8.029050204902887"><ele>1214.7599792480469</ele></trkpt><trkpt lat="46.723540254402906" lon="8.029020204674453"><ele>1215.4099731445312</ele></trkpt><trkpt lat="46.723520254250616" lon="8.029020205140114"><ele>1215.739990234375</ele></trkpt><trkpt lat="46.72350025456399" lon="8.029040205292404"><ele>1216.5799865722656</ele></trkpt><trkpt lat="46.72351025464013" lon="8.029060204979032"><ele>1217.1899719238281</ele></trkpt><trkpt lat="46.72353025479242" lon="8.029070205520838"><ele>1218.0999755859375</ele></trkpt><trkpt lat="46.72354025486857" lon="8.029090205207467"><ele>1218.6699829101562</ele></trkpt><trkpt lat="46.72355025541037" lon="8.029110205359757"><ele>1219.239990234375</ele></trkpt><trkpt lat="46.723510255571455" lon="8.029130205977708"><ele>1220.9499816894531</ele></trkpt><trkpt lat="46.7234702561982" lon="8.029230206273496"><ele>1223.75</ele></trkpt><trkpt lat="46.7234702561982" lon="8.029240206349641"><ele>1224.5599975585938</ele></trkpt><trkpt lat="46.72349025635049" lon="8.029250206425786"><ele>1225.3999938964844</ele></trkpt><trkpt lat="46.72352025657892" lon="8.029250206891447"><ele>1226.4599914550781</ele></trkpt><trkpt lat="46.72355025680736" lon="8.029250206891447"><ele>1227.47998046875</ele></trkpt><trkpt lat="46.72358025703579" lon="8.029270207043737"><ele>1228.5</ele></trkpt><trkpt lat="46.72357025742531" lon="8.029320207424462"><ele>1229.5399780273438</ele></trkpt><trkpt lat="46.723540257662535" lon="8.02938020741567"><ele>1231.1899719238281</ele></trkpt><trkpt lat="46.723540257662535" lon="8.029430207796395"><ele>1232.2799987792969</ele></trkpt><trkpt lat="46.723600258119404" lon="8.029380207881331"><ele>1233.9299926757812</ele></trkpt><trkpt lat="46.72365025850013" lon="8.029380207881331"><ele>1234.8499755859375</ele></trkpt><trkpt lat="46.72367025865242" lon="8.029400208033621"><ele>1235.6599731445312</ele></trkpt><trkpt lat="46.72365025896579" lon="8.029470208566636"><ele>1237.7999877929688</ele></trkpt><trkpt lat="46.72367025911808" lon="8.029490208718926"><ele>1239.0199890136719</ele></trkpt><trkpt lat="46.723820260260254" lon="8.02941020950675"><ele>1244.5899963378906</ele></trkpt><trkpt lat="46.723900260869414" lon="8.029350209981203"><ele>1247.0899963378906</ele></trkpt><trkpt lat="46.72391026094556" lon="8.029360210057348"><ele>1247.22998046875</ele></trkpt><trkpt lat="46.72391026234254" lon="8.029700211249292"><ele>1255.1299743652344</ele></trkpt><trkpt lat="46.72388026304543" lon="8.029940212145448"><ele>1258.9299926757812</ele></trkpt><trkpt lat="46.72385026374832" lon="8.030100212432444"><ele>1261.1099853515625</ele></trkpt><trkpt lat="46.723760263994336" lon="8.03024021256715"><ele>1263.8099975585938</ele></trkpt><trkpt lat="46.72364026494324" lon="8.030390213243663"><ele>1266.5399780273438</ele></trkpt><trkpt lat="46.72352026589215" lon="8.03063021413982"><ele>1272.9499816894531</ele></trkpt><trkpt lat="46.7234602663666" lon="8.030690214596689"><ele>1275.6299743652344</ele></trkpt><trkpt lat="46.723380267154425" lon="8.030740214977413"><ele>1278.1299743652344</ele></trkpt><trkpt lat="46.723250268027186" lon="8.030840215738863"><ele>1282.1999816894531</ele></trkpt><trkpt lat="46.72320026811212" lon="8.030900216195732"><ele>1284.0899963378906</ele></trkpt><trkpt lat="46.723110269755125" lon="8.031180216930807"><ele>1290.469970703125</ele></trkpt><trkpt lat="46.72310027014464" lon="8.031320217531174"><ele>1292.4499816894531</ele></trkpt><trkpt lat="46.723000270314515" lon="8.031360217835754"><ele>1294.5899963378906</ele></trkpt><trkpt lat="46.72297027055174" lon="8.031450218055397"><ele>1295.9099731445312</ele></trkpt><trkpt lat="46.72293027071282" lon="8.031480218283832"><ele>1297.239990234375</ele></trkpt><trkpt lat="46.72281027166173" lon="8.031560218892992"><ele>1300.9199829101562</ele></trkpt><trkpt lat="46.722800271585584" lon="8.031580219045281"><ele>1301.2699890136719</ele></trkpt><trkpt lat="46.722800272051245" lon="8.031600219197571"><ele>1301.72998046875</ele></trkpt><trkpt lat="46.72292027249932" lon="8.03168021934107"><ele>1305.239990234375</ele></trkpt><trkpt lat="46.72291027288884" lon="8.031710219569504"><ele>1306.1199951171875</ele></trkpt><trkpt lat="46.72285027336329" lon="8.0317402202636"><ele>1308.5</ele></trkpt><trkpt lat="46.72284027328715" lon="8.031760219950229"><ele>1308.6999816894531</ele></trkpt><trkpt lat="46.72291027382016" lon="8.031830220483243"><ele>1311.3599853515625</ele></trkpt><trkpt lat="46.7229402740486" lon="8.031900221016258"><ele>1313.5899963378906</ele></trkpt><trkpt lat="46.72296027420089" lon="8.031940220855176"><ele>1314.4299926757812</ele></trkpt><trkpt lat="46.72299027442932" lon="8.032000221312046"><ele>1315.4499816894531</ele></trkpt><trkpt lat="46.72299027489498" lon="8.03203022154048"><ele>1316.5099792480469</ele></trkpt><trkpt lat="46.722950275056064" lon="8.032020221464336"><ele>1317.8099975585938</ele></trkpt><trkpt lat="46.72289027553052" lon="8.032010221853852"><ele>1319.469970703125</ele></trkpt><trkpt lat="46.7228502756916" lon="8.032020221929997"><ele>1320.5699768066406</ele></trkpt><trkpt lat="46.722820275928825" lon="8.032040222082287"><ele>1321.0799865722656</ele></trkpt><trkpt lat="46.72281027585268" lon="8.032080222386867"><ele>1322.219970703125</ele></trkpt><trkpt lat="46.72281027631834" lon="8.032120222691447"><ele>1323.5099792480469</ele></trkpt><trkpt lat="46.7228002762422" lon="8.032160222530365"><ele>1324.2999877929688</ele></trkpt><trkpt lat="46.72274027671665" lon="8.032260223291814"><ele>1326.8499755859375</ele></trkpt><trkpt lat="46.72270027734339" lon="8.032340223435313"><ele>1329.0899963378906</ele></trkpt><trkpt lat="46.72265027789399" lon="8.03246022388339"><ele>1331.9399719238281</ele></trkpt><trkpt lat="46.722700278740376" lon="8.032490224577487"><ele>1335.3599853515625</ele></trkpt><trkpt lat="46.722760279197246" lon="8.032530224882066"><ele>1337.6199951171875</ele></trkpt><trkpt lat="46.722840279340744" lon="8.032590225338936"><ele>1339.6899719238281</ele></trkpt><trkpt lat="46.72287027956918" lon="8.032640225254"><ele>1341.0099792480469</ele></trkpt><trkpt lat="46.72284028073773" lon="8.032710226252675"><ele>1345.1499938964844</ele></trkpt><trkpt lat="46.72280028136447" lon="8.032770226243883"><ele>1347.719970703125</ele></trkpt><trkpt lat="46.72271028207615" lon="8.032860226929188"><ele>1351.3299865722656</ele></trkpt><trkpt lat="46.72267028223723" lon="8.032890227157623"><ele>1352.2899780273438</ele></trkpt><trkpt lat="46.72266028216109" lon="8.032930227462202"><ele>1353.0299987792969</ele></trkpt><trkpt lat="46.72267028223723" lon="8.032950227614492"><ele>1353.6999816894531</ele></trkpt><trkpt lat="46.72271028254181" lon="8.032960227690637"><ele>1355.0999755859375</ele></trkpt><trkpt lat="46.722760282922536" lon="8.032960227690637"><ele>1356.6399841308594</ele></trkpt><trkpt lat="46.72279028315097" lon="8.032980228308588"><ele>1357.6799926757812</ele></trkpt><trkpt lat="46.72279028315097" lon="8.032980228308588"><ele>1357.8299865722656</ele></trkpt><trkpt lat="46.722800283227116" lon="8.033000227995217"><ele>1358.47998046875</ele></trkpt><trkpt lat="46.72274028370157" lon="8.033060228452086"><ele>1360.7699890136719</ele></trkpt><trkpt lat="46.72272028401494" lon="8.033110228832811"><ele>1362.4499816894531</ele></trkpt><trkpt lat="46.72270028432831" lon="8.033140229061246"><ele>1363.3899841308594</ele></trkpt><trkpt lat="46.72273028455675" lon="8.033160229213536"><ele>1364.6199951171875</ele></trkpt><trkpt lat="46.722770284861326" lon="8.033160229213536"><ele>1365.7599792480469</ele></trkpt><trkpt lat="46.72280028508976" lon="8.033170229755342"><ele>1366.9099731445312</ele></trkpt><trkpt lat="46.722830285318196" lon="8.033210230059922"><ele>1369.0399780273438</ele></trkpt><trkpt lat="46.72281028563157" lon="8.033250230364501"><ele>1370.3999938964844</ele></trkpt><trkpt lat="46.72282028617337" lon="8.033280230592936"><ele>1373.3399963378906</ele></trkpt><trkpt lat="46.72289028670639" lon="8.03335023112595"><ele>1376.2599792480469</ele></trkpt><trkpt lat="46.72285028733313" lon="8.033360231202096"><ele>1377.3099975585938</ele></trkpt><trkpt lat="46.7228302876465" lon="8.033400231506675"><ele>1378.7699890136719</ele></trkpt><trkpt lat="46.72284028772265" lon="8.03343023173511"><ele>1379.97998046875</ele></trkpt><trkpt lat="46.72285028779879" lon="8.0334502318874"><ele>1380.7799987792969</ele></trkpt><trkpt lat="46.72283028811216" lon="8.033480232115835"><ele>1382.0399780273438</ele></trkpt><trkpt lat="46.72280028834939" lon="8.033500232268125"><ele>1382.989990234375</ele></trkpt><trkpt lat="46.722810288425535" lon="8.03353023249656"><ele>1383.8399963378906</ele></trkpt><trkpt lat="46.722830288577825" lon="8.033560232724994"><ele>1385.3099975585938</ele></trkpt><trkpt lat="46.722850289195776" lon="8.033610233105719"><ele>1387.3399963378906</ele></trkpt><trkpt lat="46.722850289195776" lon="8.033640232868493"><ele>1387.8399963378906</ele></trkpt><trkpt lat="46.72281028982252" lon="8.033680233173072"><ele>1390.22998046875</ele></trkpt><trkpt lat="46.722780290059745" lon="8.033710233401507"><ele>1390.8799743652344</ele></trkpt><trkpt lat="46.7227702899836" lon="8.033730233553797"><ele>1391.5399780273438</ele></trkpt><trkpt lat="46.72281029028818" lon="8.033730234019458"><ele>1392.6499938964844</ele></trkpt><trkpt lat="46.722840290516615" lon="8.033720233943313"><ele>1393.7899780273438</ele></trkpt><trkpt lat="46.72285029059276" lon="8.033730234019458"><ele>1394.75</ele></trkpt><trkpt lat="46.72285029105842" lon="8.033760234247893"><ele>1395.7599792480469</ele></trkpt><trkpt lat="46.72282029129565" lon="8.033790234476328"><ele>1397.1599731445312</ele></trkpt><trkpt lat="46.72278029145673" lon="8.033830234780908"><ele>1398.6699829101562</ele></trkpt><trkpt lat="46.72274029161781" lon="8.033880235161632"><ele>1400.2599792480469</ele></trkpt><trkpt lat="46.72272029239684" lon="8.03394023515284"><ele>1402.239990234375</ele></trkpt><trkpt lat="46.722700292710215" lon="8.034010235685855"><ele>1404.5999755859375</ele></trkpt><trkpt lat="46.72269029309973" lon="8.034050235990435"><ele>1406.489990234375</ele></trkpt><trkpt lat="46.722720293328166" lon="8.034070236142725"><ele>1408.2599792480469</ele></trkpt><trkpt lat="46.7227502935566" lon="8.034080236684531"><ele>1409.3399963378906</ele></trkpt><trkpt lat="46.722710294183344" lon="8.03412023698911"><ele>1411.239990234375</ele></trkpt><trkpt lat="46.722710294183344" lon="8.034150236751884"><ele>1412.1399841308594</ele></trkpt><trkpt lat="46.72274029441178" lon="8.03416023729369"><ele>1413.3199768066406</ele></trkpt><trkpt lat="46.72274029487744" lon="8.03418023744598"><ele>1414.8799743652344</ele></trkpt><trkpt lat="46.72272029519081" lon="8.03422023775056"><ele>1416.0799865722656</ele></trkpt><trkpt lat="46.722690294962376" lon="8.034260237589478"><ele>1416.969970703125</ele></trkpt><trkpt lat="46.722620295826346" lon="8.034370238427073"><ele>1419.8299865722656</ele></trkpt><trkpt lat="46.72256029583514" lon="8.034400238189846"><ele>1420.8399963378906</ele></trkpt><trkpt lat="46.722530296072364" lon="8.034460238646716"><ele>1422.3299865722656</ele></trkpt><trkpt lat="46.72250029677525" lon="8.034540239255875"><ele>1424.9599914550781</ele></trkpt><trkpt lat="46.722400297410786" lon="8.03461023978889"><ele>1428.6999816894531</ele></trkpt><trkpt lat="46.722400297410786" lon="8.03463023994118"><ele>1429.3299865722656</ele></trkpt><trkpt lat="46.722420297563076" lon="8.034660239703953"><ele>1429.8999938964844</ele></trkpt><trkpt lat="46.722460297867656" lon="8.034700240008533"><ele>1431.3499755859375</ele></trkpt><trkpt lat="46.72247029840946" lon="8.034720240160823"><ele>1432.22998046875</ele></trkpt><trkpt lat="46.72244029864669" lon="8.034760240465403"><ele>1433.9599914550781</ele></trkpt><trkpt lat="46.72242029896006" lon="8.034760240465403"><ele>1434.7799987792969</ele></trkpt><trkpt lat="46.72238029912114" lon="8.034800240769982"><ele>1436.75</ele></trkpt><trkpt lat="46.7223802995868" lon="8.034840241074562"><ele>1438.5</ele></trkpt><trkpt lat="46.72241029981524" lon="8.034880241379142"><ele>1439.6299743652344</ele></trkpt><trkpt lat="46.72245030011982" lon="8.034930241759866"><ele>1441.5699768066406</ele></trkpt><trkpt lat="46.72246030019596" lon="8.034960241988301"><ele>1442.4099731445312</ele></trkpt><trkpt lat="46.72245030058548" lon="8.035010242369026"><ele>1444.3999938964844</ele></trkpt><trkpt lat="46.72241030121222" lon="8.035050242673606"><ele>1446.2699890136719</ele></trkpt><trkpt lat="46.72239030105993" lon="8.035070242825896"><ele>1447.3299865722656</ele></trkpt><trkpt lat="46.722350301686674" lon="8.035070242825896"><ele>1448.6399841308594</ele></trkpt><trkpt lat="46.722310301847756" lon="8.035070243291557"><ele>1450.6299743652344</ele></trkpt><trkpt lat="46.72230030223727" lon="8.035100243519992"><ele>1451.7799987792969</ele></trkpt><trkpt lat="46.72234030207619" lon="8.03514024335891"><ele>1451.5299987792969</ele></trkpt><trkpt lat="46.72234030207619" lon="8.035170243587345"><ele>1452.2599792480469</ele></trkpt><trkpt lat="46.72231030277908" lon="8.03520024381578"><ele>1453.6999816894531</ele></trkpt><trkpt lat="46.72229030262679" lon="8.035210243891925"><ele>1454.8999938964844</ele></trkpt><trkpt lat="46.72231030277908" lon="8.03526024427265"><ele>1455.8399963378906</ele></trkpt><trkpt lat="46.72233030293137" lon="8.035300244111568"><ele>1456.5799865722656</ele></trkpt><trkpt lat="46.72233030339703" lon="8.035330244340003"><ele>1457.25</ele></trkpt><trkpt lat="46.7223103037104" lon="8.035350244492292"><ele>1458.25</ele></trkpt><trkpt lat="46.722280303481966" lon="8.035340244881809"><ele>1459.3399963378906</ele></trkpt><trkpt lat="46.72224030364305" lon="8.035290244966745"><ele>1459.9499816894531</ele></trkpt><trkpt lat="46.72220030426979" lon="8.0352802448906"><ele>1461.7599792480469</ele></trkpt><trkpt lat="46.72217030450702" lon="8.035280245356262"><ele>1462.3399963378906</ele></trkpt><trkpt lat="46.72218030458316" lon="8.03534024534747"><ele>1463.469970703125</ele></trkpt><trkpt lat="46.7222103048116" lon="8.035420245490968"><ele>1464.8199768066406</ele></trkpt><trkpt lat="46.7222203053534" lon="8.035520245786756"><ele>1466.47998046875</ele></trkpt><trkpt lat="46.72221030574292" lon="8.03565024631098"><ele>1468.9199829101562</ele></trkpt><trkpt lat="46.722220305819064" lon="8.035730246454477"><ele>1469.7999877929688</ele></trkpt><trkpt lat="46.72221030620858" lon="8.035790246445686"><ele>1470.5799865722656</ele></trkpt><trkpt lat="46.72217030636966" lon="8.035850246436894"><ele>1471.5699768066406</ele></trkpt><trkpt lat="46.72210030676797" lon="8.035950247198343"><ele>1473.6899719238281</ele></trkpt><trkpt lat="46.72206030692905" lon="8.036000247113407"><ele>1474.6999816894531</ele></trkpt><trkpt lat="46.72201030701399" lon="8.036050247494131"><ele>1475.3599853515625</ele></trkpt><trkpt lat="46.721960307098925" lon="8.036080247256905"><ele>1475.8999938964844</ele></trkpt><trkpt lat="46.721940306946635" lon="8.036120247561485"><ele>1476.3199768066406</ele></trkpt><trkpt lat="46.72191030718386" lon="8.03611024748534"><ele>1476.5899963378906</ele></trkpt><trkpt lat="46.72188030742109" lon="8.03611024748534"><ele>1476.8899841308594</ele></trkpt><trkpt lat="46.72170030744746" lon="8.036190248094499"><ele>1479.0099792480469</ele></trkpt><trkpt lat="46.721640307921916" lon="8.036220247857273"><ele>1479.8399963378906</ele></trkpt><trkpt lat="46.721550308167934" lon="8.036220248322934"><ele>1481.1399841308594</ele></trkpt><trkpt lat="46.72139030881226" lon="8.036240248940885"><ele>1484.2899780273438</ele></trkpt><trkpt lat="46.72128030937165" lon="8.03627024916932"><ele>1486.3799743652344</ele></trkpt><trkpt lat="46.72123030945659" lon="8.03627024916932"><ele>1487.239990234375</ele></trkpt><trkpt lat="46.72120030922815" lon="8.036300249397755"><ele>1487.8999938964844</ele></trkpt><trkpt lat="46.72111030993983" lon="8.036320249550045"><ele>1490.239990234375</ele></trkpt><trkpt lat="46.72102031065151" lon="8.036390250083059"><ele>1493.0199890136719</ele></trkpt><trkpt lat="46.72093031089753" lon="8.036450250539929"><ele>1495.5</ele></trkpt><trkpt lat="46.72085031121969" lon="8.036480250768363"><ele>1497.6299743652344</ele></trkpt><trkpt lat="46.72069031232968" lon="8.036570251453668"><ele>1501.8999938964844</ele></trkpt><trkpt lat="46.72062031272799" lon="8.036620251834393"><ele>1504.0299987792969</ele></trkpt><trkpt lat="46.72050031321123" lon="8.036720252595842"><ele>1506.5899963378906</ele></trkpt><trkpt lat="46.720440313220024" lon="8.036740252748132"><ele>1507.75</ele></trkpt><trkpt lat="46.72039031377062" lon="8.03678025258705"><ele>1508.5</ele></trkpt><trkpt lat="46.72030031401664" lon="8.036850253120065"><ele>1510.1799926757812</ele></trkpt><trkpt lat="46.7202203143388" lon="8.036910253111273"><ele>1511.5599975585938</ele></trkpt><trkpt lat="46.72013031458482" lon="8.036960253491998"><ele>1512.6699829101562</ele></trkpt><trkpt lat="46.720030314754695" lon="8.036980253644288"><ele>1514.0599975585938</ele></trkpt><trkpt lat="46.71991031523794" lon="8.037020253948867"><ele>1515.8499755859375</ele></trkpt><trkpt lat="46.71974031534046" lon="8.037080254405737"><ele>1518.2699890136719</ele></trkpt><trkpt lat="46.71965031605214" lon="8.037100254558027"><ele>1519.8399963378906</ele></trkpt><trkpt lat="46.719580315984786" lon="8.037130254786462"><ele>1521.0199890136719</ele></trkpt><trkpt lat="46.71954031614587" lon="8.037150254938751"><ele>1521.6899719238281</ele></trkpt><trkpt lat="46.719490316230804" lon="8.037150254938751"><ele>1522.219970703125</ele></trkpt><trkpt lat="46.71939031686634" lon="8.037120255175978"><ele>1523.9599914550781</ele></trkpt><trkpt lat="46.71928031742573" lon="8.037090255878866"><ele>1527.1499938964844</ele></trkpt><trkpt lat="46.71924031758681" lon="8.037070255726576"><ele>1528.1699829101562</ele></trkpt><trkpt lat="46.71917031798512" lon="8.03727025585249"><ele>1529.3599853515625</ele></trkpt><trkpt lat="46.71907031815499" lon="8.03752025635913"><ele>1530.6199951171875</ele></trkpt><trkpt lat="46.719040317926556" lon="8.037590256426483"><ele>1530.8199768066406</ele></trkpt></trkseg></trk></gpx>