<?xml version="1.0" encoding="utf-8"?><gpx version="1.1" creator="MySchweizMobil - https://map.schweizmobil.ch/" xmlns:xsi="http://www.w3.org/2001/XMLSchema-instance" xmlns="http://www.topografix.com/GPX/1/1" xsi:schemaLocation="http://www.topografix.com/GPX/1/1 http://www.topografix.com/GPX/1/1/gpx.xsd"><metadata><name>Grütschalp to Mürren</name><bounds minlat="46.55817033536732" minlon="7.889610247220844" maxlat="46.59632030734792" maxlon="7.901820263359696" /></metadata><trk><name>Grütschalp to Mürren</name><trkseg><trkpt lat="46.59632030734792" lon="7.890570244286209"><ele>1492.219970703125</ele></trkpt><trkpt lat="46.59629030711949" lon="7.890580244362354"><ele>1492.2899780273438</ele></trkpt><trkpt lat="46.596260307356715" lon="7.890580244362354"><ele>1492.5099792480469</ele></trkpt><trkpt lat="46.59623030712828" lon="7.890580244362354"><ele>1492.6499938964844</ele></trkpt><trkpt lat="46.59620030736551" lon="7.890570244286209"><ele>1492.7899780273438</ele></trkpt><trkpt lat="46.59617030713707" lon="7.890570244286209"><ele>1492.9299926757812</ele></trkpt><trkpt lat="46.5961403073743" lon="7.890580244362354"><ele>1492.97998046875</ele></trkpt><trkpt lat="46.59602030692622" lon="7.890640244353563"><ele>1492.0699768066406</ele></trkpt><trkpt lat="46.5959803070873" lon="7.890660244040191"><ele>1492.0599975585938</ele></trkpt><trkpt lat="46.5959803070873" lon="7.890660244040191"><ele>1492.0</ele></trkpt><trkpt lat="46.595940307248384" lon="7.890640244353563"><ele>1492.5899963378906</ele></trkpt><trkpt lat="46.59583030734211" lon="7.890590244438499"><ele>1494.0999755859375</ele></trkpt><trkpt lat="46.59580030757934" lon="7.890580244362354"><ele>1494.5999755859375</ele></trkpt><trkpt lat="46.595790307503194" lon="7.890580244362354"><ele>1494.5399780273438</ele></trkpt><trkpt lat="46.59578030742705" lon="7.890580244362354"><ele>1494.6499938964844</ele></trkpt><trkpt lat="46.59576030774042" lon="7.890580244362354"><ele>1494.6999816894531</ele></trkpt><trkpt lat="46.59574030758813" lon="7.890570244751871"><ele>1495.0599975585938</ele></trkpt><trkpt lat="46.595730307511985" lon="7.890570244751871"><ele>1495.1999816894531</ele></trkpt><trkpt lat="46.59565030783415" lon="7.890520244836807"><ele>1496.2899780273438</ele></trkpt><trkpt lat="46.595620308071375" lon="7.890500244684517"><ele>1496.5999755859375</ele></trkpt><trkpt lat="46.59561030799523" lon="7.890500244684517"><ele>1496.6999816894531</ele></trkpt><trkpt lat="46.595600307919085" lon="7.890490245074034"><ele>1496.8999938964844</ele></trkpt><trkpt lat="46.59552030824125" lon="7.890470244921744"><ele>1498.0699768066406</ele></trkpt><trkpt lat="46.59552030824125" lon="7.890460244845599"><ele>1497.6399841308594</ele></trkpt><trkpt lat="46.5955103081651" lon="7.890460244845599"><ele>1497.9399719238281</ele></trkpt><trkpt lat="46.595490308478475" lon="7.89046024531126"><ele>1498.3599853515625</ele></trkpt><trkpt lat="46.59546030825004" lon="7.89046024531126"><ele>1498.2999877929688</ele></trkpt><trkpt lat="46.595340308733284" lon="7.890420245472342"><ele>1499.7999877929688</ele></trkpt><trkpt lat="46.595340308733284" lon="7.890420245472342"><ele>1499.989990234375</ele></trkpt><trkpt lat="46.59533030865714" lon="7.890420245472342"><ele>1500.0899963378906</ele></trkpt><trkpt lat="46.59529030881822" lon="7.890390245709568"><ele>1500.8999938964844</ele></trkpt><trkpt lat="46.59523030882701" lon="7.890370245557278"><ele>1501.2899780273438</ele></trkpt><trkpt lat="46.59522030875087" lon="7.890370245557278"><ele>1501.0999755859375</ele></trkpt><trkpt lat="46.595190308988094" lon="7.890340245794505"><ele>1501.8999938964844</ele></trkpt><trkpt lat="46.59518030891195" lon="7.89033024571836"><ele>1501.9499816894531</ele></trkpt><trkpt lat="46.595150309149176" lon="7.8902902458794415"><ele>1502.5</ele></trkpt><trkpt lat="46.595150309149176" lon="7.890280245803297"><ele>1502.5499877929688</ele></trkpt><trkpt lat="46.59511030931026" lon="7.890240245964378"><ele>1503.2999877929688</ele></trkpt><trkpt lat="46.59503030963242" lon="7.8900502463802695"><ele>1505.5</ele></trkpt><trkpt lat="46.595020309556276" lon="7.890040246304125"><ele>1505.469970703125</ele></trkpt><trkpt lat="46.59501030994579" lon="7.89003024622798"><ele>1505.6999816894531</ele></trkpt><trkpt lat="46.59498031018302" lon="7.889920246321708"><ele>1506.7999877929688</ele></trkpt><trkpt lat="46.59496031003073" lon="7.889870246406645"><ele>1507.1999816894531</ele></trkpt><trkpt lat="46.59496031003073" lon="7.8898602463305"><ele>1507.3499755859375</ele></trkpt><trkpt lat="46.5949403103441" lon="7.889830246567726"><ele>1507.6999816894531</ele></trkpt><trkpt lat="46.59490031050518" lon="7.889780246652663"><ele>1508.2899780273438</ele></trkpt><trkpt lat="46.59489031042904" lon="7.889770246576518"><ele>1508.4599914550781</ele></trkpt><trkpt lat="46.59487031027675" lon="7.889740246813744"><ele>1508.7899780273438</ele></trkpt><trkpt lat="46.59484031051397" lon="7.889710247050971"><ele>1509.3999938964844</ele></trkpt><trkpt lat="46.594800310675055" lon="7.889660247135907"><ele>1509.8999938964844</ele></trkpt><trkpt lat="46.594760310836136" lon="7.889620246831328"><ele>1510.1999816894531</ele></trkpt><trkpt lat="46.594760310836136" lon="7.889620246831328"><ele>1510.2699890136719</ele></trkpt><trkpt lat="46.59475031075999" lon="7.889610247220844"><ele>1510.3999938964844</ele></trkpt><trkpt lat="46.5947303106077" lon="7.889610247220844"><ele>1510.5199890136719</ele></trkpt><trkpt lat="46.5947303106077" lon="7.889610247220844"><ele>1510.5699768066406</ele></trkpt><trkpt lat="46.59469031076878" lon="7.889610247220844"><ele>1511.0</ele></trkpt><trkpt lat="46.59469031076878" lon="7.889610247220844"><ele>1511.0</ele></trkpt><trkpt lat="46.59466031100601" lon="7.889620247296989"><ele>1511.3999938964844</ele></trkpt><trkpt lat="46.59464031085372" lon="7.889630247373134"><ele>1511.6599731445312</ele></trkpt><trkpt lat="46.594630310777575" lon="7.889630247373134"><ele>1511.6999816894531</ele></trkpt><trkpt lat="46.5946003110148" lon="7.889660247135907"><ele>1512.0999755859375</ele></trkpt><trkpt lat="46.59451031126082" lon="7.889720247592777"><ele>1513.22998046875</ele></trkpt><trkpt lat="46.594500311184675" lon="7.889730247668922"><ele>1513.5</ele></trkpt><trkpt lat="46.594480311498046" lon="7.8897602474316955"><ele>1513.6699829101562</ele></trkpt><trkpt lat="46.5944703114219" lon="7.88977024750784"><ele>1513.7899780273438</ele></trkpt><trkpt lat="46.594460311345756" lon="7.88979024766013"><ele>1513.7999877929688</ele></trkpt><trkpt lat="46.59443031158298" lon="7.889830247499049"><ele>1514.3199768066406</ele></trkpt><trkpt lat="46.594370311591774" lon="7.889940247870982"><ele>1515.3999938964844</ele></trkpt><trkpt lat="46.594340311829" lon="7.8900302476249635"><ele>1515.6099853515625</ele></trkpt><trkpt lat="46.59432031167671" lon="7.890070247929543"><ele>1515.6999816894531</ele></trkpt><trkpt lat="46.59430031199008" lon="7.890160248149186"><ele>1517.3999938964844</ele></trkpt><trkpt lat="46.59425031254068" lon="7.890290248207748"><ele>1518.8499755859375</ele></trkpt><trkpt lat="46.59423031238839" lon="7.890340248588473"><ele>1519.3399963378906</ele></trkpt><trkpt lat="46.59420031262562" lon="7.890390248503536"><ele>1520.0</ele></trkpt><trkpt lat="46.5941603127867" lon="7.890450248494744"><ele>1520.3899841308594</ele></trkpt><trkpt lat="46.594090312719345" lon="7.890550248790532"><ele>1521.3499755859375</ele></trkpt><trkpt lat="46.59408031310886" lon="7.890560248866677"><ele>1521.7099914550781</ele></trkpt><trkpt lat="46.59407031303272" lon="7.890570248942822"><ele>1521.8599853515625</ele></trkpt><trkpt lat="46.59407031303272" lon="7.890570248942822"><ele>1521.7899780273438</ele></trkpt><trkpt lat="46.59397031320259" lon="7.890570248942822"><ele>1522.9499816894531</ele></trkpt><trkpt lat="46.59393031336367" lon="7.890570248942822"><ele>1523.4599914550781</ele></trkpt><trkpt lat="46.59391031321138" lon="7.890570248942822"><ele>1523.7999877929688</ele></trkpt><trkpt lat="46.593850313685834" lon="7.890580249484628"><ele>1524.469970703125</ele></trkpt><trkpt lat="46.5938203134574" lon="7.890580249484628"><ele>1524.8699951171875</ele></trkpt><trkpt lat="46.59375031385571" lon="7.890600249636918"><ele>1525.5</ele></trkpt><trkpt lat="46.59371031355113" lon="7.890620249323547"><ele>1525.8999938964844</ele></trkpt><trkpt lat="46.593640313949436" lon="7.890660249628127"><ele>1527.0</ele></trkpt><trkpt lat="46.59362031426281" lon="7.8906802497804165"><ele>1527.3399963378906</ele></trkpt><trkpt lat="46.59358031395823" lon="7.89075024984777"><ele>1527.9199829101562</ele></trkpt><trkpt lat="46.593530314508826" lon="7.890890249982476"><ele>1529.4299926757812</ele></trkpt><trkpt lat="46.59348031459376" lon="7.89094024989754"><ele>1529.7099914550781</ele></trkpt><trkpt lat="46.59345031483099" lon="7.890970250125974"><ele>1530.0599975585938</ele></trkpt><trkpt lat="46.5934303146787" lon="7.890980250202119"><ele>1530.239990234375</ele></trkpt><trkpt lat="46.593400314450264" lon="7.891000250354409"><ele>1530.4299926757812</ele></trkpt><trkpt lat="46.593380314763635" lon="7.891000250354409"><ele>1530.5199890136719</ele></trkpt><trkpt lat="46.5933503145352" lon="7.891010250430554"><ele>1530.6199951171875</ele></trkpt><trkpt lat="46.59334031492472" lon="7.891020250041038"><ele>1530.6499938964844</ele></trkpt><trkpt lat="46.593250314705074" lon="7.891080250497907"><ele>1531.6599731445312</ele></trkpt><trkpt lat="46.593210314866155" lon="7.891080250497907"><ele>1531.8299865722656</ele></trkpt><trkpt lat="46.59319031517953" lon="7.891090250574052"><ele>1531.969970703125</ele></trkpt><trkpt lat="46.59318031510338" lon="7.891090250574052"><ele>1531.7999877929688</ele></trkpt><trkpt lat="46.593120315112174" lon="7.891210250556469"><ele>1532.3999938964844</ele></trkpt><trkpt lat="46.59311031503603" lon="7.891220250632614"><ele>1532.8399963378906</ele></trkpt><trkpt lat="46.593080315273255" lon="7.891240250784904"><ele>1533.1499938964844</ele></trkpt><trkpt lat="46.59307031519711" lon="7.891240250784904"><ele>1533.2799987792969</ele></trkpt><trkpt lat="46.593060315120965" lon="7.891240250784904"><ele>1533.3399963378906</ele></trkpt><trkpt lat="46.59305031504482" lon="7.891240250784904"><ele>1533.4599914550781</ele></trkpt><trkpt lat="46.59303031535819" lon="7.891240250784904"><ele>1533.5999755859375</ele></trkpt><trkpt lat="46.59302031528205" lon="7.891230250708759"><ele>1533.6999816894531</ele></trkpt><trkpt lat="46.59295031521469" lon="7.89119025086984"><ele>1534.1899719238281</ele></trkpt><trkpt lat="46.592930315528065" lon="7.8911802507936954"><ele>1534.3399963378906</ele></trkpt><trkpt lat="46.59289031568915" lon="7.8911702507175505"><ele>1534.6299743652344</ele></trkpt><trkpt lat="46.59286031546071" lon="7.891160251107067"><ele>1534.989990234375</ele></trkpt><trkpt lat="46.59285031538457" lon="7.891160251107067"><ele>1535.1499938964844</ele></trkpt><trkpt lat="46.59284031577408" lon="7.891160251107067"><ele>1535.2799987792969</ele></trkpt><trkpt lat="46.59282031562179" lon="7.891160251107067"><ele>1535.5</ele></trkpt><trkpt lat="46.592800315935165" lon="7.891170251183212"><ele>1535.75</ele></trkpt><trkpt lat="46.592800315935165" lon="7.891170251183212"><ele>1535.7899780273438</ele></trkpt><trkpt lat="46.592780315782875" lon="7.891200250945985"><ele>1535.9399719238281</ele></trkpt><trkpt lat="46.59277031570673" lon="7.89123025117442"><ele>1535.9499816894531</ele></trkpt><trkpt lat="46.592740315943956" lon="7.891370251309127"><ele>1536.3099975585938</ele></trkpt><trkpt lat="46.59272031579167" lon="7.891430251300335"><ele>1536.6099853515625</ele></trkpt><trkpt lat="46.59272031579167" lon="7.89144025137648"><ele>1536.6399841308594</ele></trkpt><trkpt lat="46.59270031610504" lon="7.891480251215398"><ele>1536.8799743652344</ele></trkpt><trkpt lat="46.59264031611383" lon="7.8915602513588965"><ele>1537.5999755859375</ele></trkpt><trkpt lat="46.592590316198766" lon="7.89161025127396"><ele>1538.2999877929688</ele></trkpt><trkpt lat="46.59256031643599" lon="7.891620251350105"><ele>1538.5299987792969</ele></trkpt><trkpt lat="46.59252031613141" lon="7.891640251502395"><ele>1538.8199768066406</ele></trkpt><trkpt lat="46.592480316292495" lon="7.891640251502395"><ele>1539.0899963378906</ele></trkpt><trkpt lat="46.592480316292495" lon="7.891640251502395"><ele>1539.0999755859375</ele></trkpt><trkpt lat="46.59243031637743" lon="7.891640251502395"><ele>1539.2099914550781</ele></trkpt><trkpt lat="46.59238031646237" lon="7.89165025157854"><ele>1539.489990234375</ele></trkpt><trkpt lat="46.59234031662345" lon="7.8916702517308295"><ele>1539.6299743652344</ele></trkpt><trkpt lat="46.59232031647116" lon="7.891680251806974"><ele>1539.8099975585938</ele></trkpt><trkpt lat="46.592290316708386" lon="7.891710251569748"><ele>1540.1399841308594</ele></trkpt><trkpt lat="46.59228031663224" lon="7.891710251569748"><ele>1540.1999816894531</ele></trkpt><trkpt lat="46.592270316556096" lon="7.891760251950473"><ele>1540.2999877929688</ele></trkpt><trkpt lat="46.59224031679332" lon="7.891910252161324"><ele>1541.0999755859375</ele></trkpt><trkpt lat="46.59223031671718" lon="7.891920251771808"><ele>1541.0</ele></trkpt><trkpt lat="46.592200316954404" lon="7.891990251839161"><ele>1541.2999877929688</ele></trkpt><trkpt lat="46.592180316802114" lon="7.892010251991451"><ele>1541.3999938964844</ele></trkpt><trkpt lat="46.59213031688705" lon="7.892060251906514"><ele>1541.8699951171875</ele></trkpt><trkpt lat="46.59213031688705" lon="7.892060251906514"><ele>1541.9099731445312</ele></trkpt><trkpt lat="46.592050317209214" lon="7.892110252287239"><ele>1542.3599853515625</ele></trkpt><trkpt lat="46.592010316904634" lon="7.892140252050012"><ele>1542.6899719238281</ele></trkpt><trkpt lat="46.591950316913426" lon="7.892190252430737"><ele>1542.8999938964844</ele></trkpt><trkpt lat="46.59185031754896" lon="7.892300252337009"><ele>1544.0599975585938</ele></trkpt><trkpt lat="46.591820317320526" lon="7.8923402526415884"><ele>1544.3299865722656</ele></trkpt><trkpt lat="46.5918003176339" lon="7.892360252328217"><ele>1544.5999755859375</ele></trkpt><trkpt lat="46.59179031755775" lon="7.892370252404362"><ele>1544.739990234375</ele></trkpt><trkpt lat="46.591750317718834" lon="7.892390252556652"><ele>1544.989990234375</ele></trkpt><trkpt lat="46.5917203174904" lon="7.892390252556652"><ele>1545.22998046875</ele></trkpt><trkpt lat="46.59168031765148" lon="7.892400252632797"><ele>1545.3799743652344</ele></trkpt><trkpt lat="46.591510317754" lon="7.892400252632797"><ele>1546.1799926757812</ele></trkpt><trkpt lat="46.59126031817868" lon="7.892400253098458"><ele>1547.0899963378906</ele></trkpt><trkpt lat="46.59121031779796" lon="7.892410252708942"><ele>1547.22998046875</ele></trkpt><trkpt lat="46.591180318035185" lon="7.892410252708942"><ele>1547.2999877929688</ele></trkpt><trkpt lat="46.59114031819627" lon="7.892420252785087"><ele>1547.47998046875</ele></trkpt><trkpt lat="46.59110031789169" lon="7.8924402529373765"><ele>1547.7099914550781</ele></trkpt><trkpt lat="46.59104031790048" lon="7.892470253165811"><ele>1548.0499877929688</ele></trkpt><trkpt lat="46.59096031822264" lon="7.892520253080875"><ele>1548.5599975585938</ele></trkpt><trkpt lat="46.59080031840131" lon="7.892640253528953"><ele>1549.72998046875</ele></trkpt><trkpt lat="46.5907403184101" lon="7.892670253291726"><ele>1550.0</ele></trkpt><trkpt lat="46.59068031841889" lon="7.892700253520161"><ele>1550.0599975585938</ele></trkpt><trkpt lat="46.59065031865612" lon="7.892710253596306"><ele>1550.2099914550781</ele></trkpt><trkpt lat="46.59062031842768" lon="7.892730253282934"><ele>1550.3299865722656</ele></trkpt><trkpt lat="46.59059031866491" lon="7.892750253435224"><ele>1550.5799865722656</ele></trkpt><trkpt lat="46.59050031891093" lon="7.892790253739804"><ele>1551.2999877929688</ele></trkpt><trkpt lat="46.59044031891972" lon="7.892810253426433"><ele>1551.3999938964844</ele></trkpt><trkpt lat="46.59026031894609" lon="7.892790253739804"><ele>1551.6599731445312</ele></trkpt><trkpt lat="46.590180318802595" lon="7.892780253663659"><ele>1551.1999816894531</ele></trkpt><trkpt lat="46.59014031896368" lon="7.892780253663659"><ele>1551.6499938964844</ele></trkpt><trkpt lat="46.59012031881139" lon="7.892780253663659"><ele>1551.7099914550781</ele></trkpt><trkpt lat="46.59006031882018" lon="7.892800253815949"><ele>1552.0099792480469</ele></trkpt><trkpt lat="46.59004031913355" lon="7.892800253815949"><ele>1552.1999816894531</ele></trkpt><trkpt lat="46.589990318752825" lon="7.892800253815949"><ele>1552.25</ele></trkpt><trkpt lat="46.58998031914234" lon="7.892800253815949"><ele>1552.25</ele></trkpt><trkpt lat="46.58994031883776" lon="7.892780253663659"><ele>1552.2599792480469</ele></trkpt><trkpt lat="46.58990031899884" lon="7.892770253587514"><ele>1552.3899841308594</ele></trkpt><trkpt lat="46.58983031893149" lon="7.892750253900886"><ele>1552.8199768066406</ele></trkpt><trkpt lat="46.58979031909257" lon="7.892750253900886"><ele>1553.0</ele></trkpt><trkpt lat="46.58977031894028" lon="7.892750253900886"><ele>1553.1499938964844</ele></trkpt><trkpt lat="46.58963031927124" lon="7.892740253824741"><ele>1553.719970703125</ele></trkpt><trkpt lat="46.58956031920388" lon="7.892740253824741"><ele>1554.0</ele></trkpt><trkpt lat="46.589500319212675" lon="7.892730254214257"><ele>1554.1699829101562</ele></trkpt><trkpt lat="46.5894703194499" lon="7.892730254214257"><ele>1554.22998046875</ele></trkpt><trkpt lat="46.5893903193064" lon="7.892710254061967"><ele>1554.8499755859375</ele></trkpt><trkpt lat="46.58931031962857" lon="7.8926902543753386"><ele>1555.1299743652344</ele></trkpt><trkpt lat="46.58919031964615" lon="7.89263025438413"><ele>1555.3399963378906</ele></trkpt><trkpt lat="46.58914031973109" lon="7.89261025423184"><ele>1555.5799865722656</ele></trkpt><trkpt lat="46.58911031950265" lon="7.892580254469067"><ele>1555.6499938964844</ele></trkpt><trkpt lat="46.58906031958759" lon="7.8925202544778585"><ele>1555.8299865722656</ele></trkpt><trkpt lat="46.589030319824815" lon="7.892490254249424"><ele>1555.9199829101562</ele></trkpt><trkpt lat="46.58898031944409" lon="7.892450254410505"><ele>1556.0299987792969</ele></trkpt><trkpt lat="46.58897031983361" lon="7.89244025433436"><ele>1556.0499877929688</ele></trkpt><trkpt lat="46.58896031975746" lon="7.89244025433436"><ele>1556.0999755859375</ele></trkpt><trkpt lat="46.58894031960517" lon="7.892430254258215"><ele>1556.2999877929688</ele></trkpt><trkpt lat="46.5889103198424" lon="7.8924202541820705"><ele>1556.2899780273438</ele></trkpt><trkpt lat="46.58888031961396" lon="7.892410254571587"><ele>1556.4199829101562</ele></trkpt><trkpt lat="46.58885031985119" lon="7.892400254495442"><ele>1556.5399780273438</ele></trkpt><trkpt lat="46.588820319622755" lon="7.892400254495442"><ele>1556.6699829101562</ele></trkpt><trkpt lat="46.58878031978384" lon="7.892390254419297"><ele>1556.8499755859375</ele></trkpt><trkpt lat="46.58874031994492" lon="7.892390254419297"><ele>1557.0699768066406</ele></trkpt><trkpt lat="46.58858032012358" lon="7.892410254571587"><ele>1557.719970703125</ele></trkpt><trkpt lat="46.58845032006502" lon="7.892420254647732"><ele>1558.0</ele></trkpt><trkpt lat="46.58839032007381" lon="7.892440254800022"><ele>1558.2999877929688</ele></trkpt><trkpt lat="46.588350320234895" lon="7.892450254876167"><ele>1558.3799743652344</ele></trkpt><trkpt lat="46.588310319930315" lon="7.892470254562795"><ele>1558.4599914550781</ele></trkpt><trkpt lat="46.58825031993911" lon="7.892510254867375"><ele>1558.5399780273438</ele></trkpt><trkpt lat="46.58811032027006" lon="7.892600254621357"><ele>1559.3299865722656</ele></trkpt><trkpt lat="46.58808032050729" lon="7.892620254773647"><ele>1559.3799743652344</ele></trkpt><trkpt lat="46.58805032027885" lon="7.892620254773647"><ele>1559.3799743652344</ele></trkpt><trkpt lat="46.58802032051608" lon="7.892600254621357"><ele>1559.4099731445312</ele></trkpt><trkpt lat="46.58800032036379" lon="7.892590255010873"><ele>1559.3299865722656</ele></trkpt><trkpt lat="46.587970320135355" lon="7.892570254858583"><ele>1559.1499938964844</ele></trkpt><trkpt lat="46.58793032029644" lon="7.892540254630148"><ele>1558.8799743652344</ele></trkpt><trkpt lat="46.58791032014415" lon="7.89252025494352"><ele>1558.719970703125</ele></trkpt><trkpt lat="46.58789031999186" lon="7.89248025463894"><ele>1558.5799865722656</ele></trkpt><trkpt lat="46.58784032007679" lon="7.892410254571587"><ele>1558.0</ele></trkpt><trkpt lat="46.58781031984836" lon="7.892380254808813"><ele>1557.7899780273438</ele></trkpt><trkpt lat="46.58781031984836" lon="7.892380254808813"><ele>1557.75</ele></trkpt><trkpt lat="46.58777032000944" lon="7.892340254504234"><ele>1557.6499938964844</ele></trkpt><trkpt lat="46.58772032009438" lon="7.892320254351944"><ele>1557.5099792480469</ele></trkpt><trkpt lat="46.58772032009438" lon="7.89231025474146"><ele>1557.5</ele></trkpt><trkpt lat="46.58766032010317" lon="7.892280254513025"><ele>1557.2999877929688</ele></trkpt><trkpt lat="46.587650320027024" lon="7.89227025443688"><ele>1557.1999816894531</ele></trkpt><trkpt lat="46.587570319883525" lon="7.892200254369527"><ele>1556.5999755859375</ele></trkpt><trkpt lat="46.58751031989232" lon="7.892140254378319"><ele>1556.2999877929688</ele></trkpt><trkpt lat="46.58746031951159" lon="7.892120254226029"><ele>1556.1699829101562</ele></trkpt><trkpt lat="46.587420319672674" lon="7.892120254226029"><ele>1556.219970703125</ele></trkpt><trkpt lat="46.587380319833755" lon="7.892130254302174"><ele>1556.1999816894531</ele></trkpt><trkpt lat="46.58737031975761" lon="7.892130254302174"><ele>1556.47998046875</ele></trkpt><trkpt lat="46.587340319529176" lon="7.892160254530609"><ele>1556.72998046875</ele></trkpt><trkpt lat="46.58724032016471" lon="7.892230254597962"><ele>1557.8399963378906</ele></trkpt><trkpt lat="46.587230320088565" lon="7.892240254674107"><ele>1558.0199890136719</ele></trkpt><trkpt lat="46.5871803201735" lon="7.892280254513025"><ele>1558.5999755859375</ele></trkpt><trkpt lat="46.58713032025844" lon="7.892300254665315"><ele>1559.2899780273438</ele></trkpt><trkpt lat="46.58707032026723" lon="7.892320254817605"><ele>1560.0399780273438</ele></trkpt><trkpt lat="46.58704032050446" lon="7.892320254817605"><ele>1560.4199829101562</ele></trkpt><trkpt lat="46.58700032066554" lon="7.892320255283266"><ele>1560.8699951171875</ele></trkpt><trkpt lat="46.58699032058939" lon="7.892320255283266"><ele>1560.9499816894531</ele></trkpt><trkpt lat="46.58694032067433" lon="7.892310255207121"><ele>1561.0299987792969</ele></trkpt><trkpt lat="46.58688032068312" lon="7.892280254978687"><ele>1561.0799865722656</ele></trkpt><trkpt lat="46.58685032045469" lon="7.892270254902542"><ele>1561.1399841308594</ele></trkpt><trkpt lat="46.58683032076806" lon="7.892270254902542"><ele>1561.1699829101562</ele></trkpt><trkpt lat="46.58682032069191" lon="7.892270254902542"><ele>1561.1899719238281</ele></trkpt><trkpt lat="46.58677032077685" lon="7.892280254978687"><ele>1561.0999755859375</ele></trkpt><trkpt lat="46.58672032086179" lon="7.8922902550548315"><ele>1561.3899841308594</ele></trkpt><trkpt lat="46.58668032055721" lon="7.892310255207121"><ele>1561.3999938964844</ele></trkpt><trkpt lat="46.586570320650935" lon="7.89237025519833"><ele>1561.6999816894531</ele></trkpt><trkpt lat="46.58646032074466" lon="7.892450255341828"><ele>1562.0999755859375</ele></trkpt><trkpt lat="46.5864103208296" lon="7.892470255494118"><ele>1562.3999938964844</ele></trkpt><trkpt lat="46.58637032099068" lon="7.892490255180746"><ele>1562.6999816894531</ele></trkpt><trkpt lat="46.58636032091454" lon="7.892490255180746"><ele>1562.5999755859375</ele></trkpt><trkpt lat="46.58633032115176" lon="7.892480255570263"><ele>1562.7099914550781</ele></trkpt><trkpt lat="46.58629032084718" lon="7.892470255494118"><ele>1562.7899780273438</ele></trkpt><trkpt lat="46.58626032108441" lon="7.892460255417973"><ele>1562.8499755859375</ele></trkpt><trkpt lat="46.58617032086477" lon="7.892420255579054"><ele>1562.8899841308594</ele></trkpt><trkpt lat="46.5861203209497" lon="7.892410255502909"><ele>1563.4199829101562</ele></trkpt><trkpt lat="46.586100321263075" lon="7.8924002554267645"><ele>1563.6799926757812</ele></trkpt><trkpt lat="46.58607032103464" lon="7.892380255274475"><ele>1563.6599731445312</ele></trkpt><trkpt lat="46.586060320958495" lon="7.892360255587846"><ele>1563.6299743652344</ele></trkpt><trkpt lat="46.58604032127187" lon="7.892330255359411"><ele>1563.6999816894531</ele></trkpt><trkpt lat="46.58597032120451" lon="7.892160255461931"><ele>1563.489990234375</ele></trkpt><trkpt lat="46.58588032098487" lon="7.891960255336016"><ele>1563.5999755859375</ele></trkpt><trkpt lat="46.58583032106981" lon="7.8918802556581795"><ele>1563.6999816894531</ele></trkpt><trkpt lat="46.58582032099366" lon="7.8918402553536"><ele>1563.75</ele></trkpt><trkpt lat="46.5857703210786" lon="7.8917802553623915"><ele>1563.8299865722656</ele></trkpt><trkpt lat="46.58573032123968" lon="7.891730255447328"><ele>1563.8999938964844</ele></trkpt><trkpt lat="46.585700321011245" lon="7.89167025545612"><ele>1563.9599914550781</ele></trkpt><trkpt lat="46.58566032117233" lon="7.891580255702138"><ele>1564.0699768066406</ele></trkpt><trkpt lat="46.58563032094389" lon="7.891540255397558"><ele>1563.8599853515625</ele></trkpt><trkpt lat="46.58561032125726" lon="7.891530255321413"><ele>1563.72998046875</ele></trkpt><trkpt lat="46.585590321104974" lon="7.891530255321413"><ele>1563.6299743652344</ele></trkpt><trkpt lat="46.585570320952684" lon="7.891540255397558"><ele>1563.5599975585938</ele></trkpt><trkpt lat="46.58556032087654" lon="7.891550255473703"><ele>1563.5899963378906</ele></trkpt><trkpt lat="46.585550321266055" lon="7.891590255312622"><ele>1563.5999755859375</ele></trkpt><trkpt lat="46.58554032118991" lon="7.891710255295038"><ele>1563.3999938964844</ele></trkpt><trkpt lat="46.58554032118991" lon="7.891980255488306"><ele>1563.0</ele></trkpt><trkpt lat="46.58552032103762" lon="7.892020255327225"><ele>1562.7799987792969</ele></trkpt><trkpt lat="46.58552032103762" lon="7.89203025540337"><ele>1562.6999816894531</ele></trkpt><trkpt lat="46.58550032088533" lon="7.892060255166143"><ele>1562.5999755859375</ele></trkpt><trkpt lat="46.585490320809186" lon="7.892070255242288"><ele>1562.5699768066406</ele></trkpt><trkpt lat="46.58546032104641" lon="7.892100255470723"><ele>1562.5</ele></trkpt><trkpt lat="46.585400321055204" lon="7.892130255233496"><ele>1562.3399963378906</ele></trkpt><trkpt lat="46.585360320750624" lon="7.892150255385786"><ele>1562.1999816894531</ele></trkpt><trkpt lat="46.58518032124266" lon="7.892330255359411"><ele>1564.1999816894531</ele></trkpt><trkpt lat="46.58512032125145" lon="7.892390255816281"><ele>1564.8199768066406</ele></trkpt><trkpt lat="46.585060321260244" lon="7.892460255883634"><ele>1564.7799987792969</ele></trkpt><trkpt lat="46.58501032134518" lon="7.892520255409181"><ele>1564.2999877929688</ele></trkpt><trkpt lat="46.58494032127783" lon="7.892590255476534"><ele>1563.8599853515625</ele></trkpt><trkpt lat="46.584890321362764" lon="7.8926702556200325"><ele>1564.0199890136719</ele></trkpt><trkpt lat="46.58486032113433" lon="7.892730255611241"><ele>1564.469970703125</ele></trkpt><trkpt lat="46.584830321371555" lon="7.892820255830884"><ele>1565.239990234375</ele></trkpt><trkpt lat="46.58476032176986" lon="7.892990255728364"><ele>1566.219970703125</ele></trkpt><trkpt lat="46.58467032201588" lon="7.893300256226212"><ele>1568.0199890136719</ele></trkpt><trkpt lat="46.58465032186359" lon="7.893350256141275"><ele>1567.6599731445312</ele></trkpt><trkpt lat="46.58460032194853" lon="7.893500256352127"><ele>1567.7699890136719</ele></trkpt><trkpt lat="46.58457032172009" lon="7.893590256106108"><ele>1568.0399780273438</ele></trkpt><trkpt lat="46.58448032243177" lon="7.893880256451666"><ele>1569.8999938964844</ele></trkpt><trkpt lat="46.584290322382" lon="7.894390256609768"><ele>1570.5</ele></trkpt><trkpt lat="46.58427032222971" lon="7.894450256600976"><ele>1570.6599731445312</ele></trkpt><trkpt lat="46.584190322551876" lon="7.894620256964117"><ele>1571.0999755859375</ele></trkpt><trkpt lat="46.58414032263681" lon="7.894720256794244"><ele>1571.469970703125</ele></trkpt><trkpt lat="46.58414032263681" lon="7.894720256794244"><ele>1571.2999877929688</ele></trkpt><trkpt lat="46.58414032263681" lon="7.894720256794244"><ele>1571.3099975585938</ele></trkpt><trkpt lat="46.584040322806686" lon="7.8948602569289505"><ele>1571.5799865722656</ele></trkpt><trkpt lat="46.58403032273054" lon="7.8948702570050955"><ele>1571.5999755859375</ele></trkpt><trkpt lat="46.58396032266319" lon="7.894940257072449"><ele>1571.719970703125</ele></trkpt><trkpt lat="46.583870322909206" lon="7.8950402569025755"><ele>1571.9399719238281</ele></trkpt><trkpt lat="46.583830322604626" lon="7.895090256817639"><ele>1572.0999755859375</ele></trkpt><trkpt lat="46.58377032261342" lon="7.8951402571983635"><ele>1572.3999938964844</ele></trkpt><trkpt lat="46.583760323002934" lon="7.8951402571983635"><ele>1572.3699951171875</ele></trkpt><trkpt lat="46.58371032262221" lon="7.895160256884992"><ele>1572.3299865722656</ele></trkpt><trkpt lat="46.58367032278329" lon="7.895160256884992"><ele>1571.8599853515625</ele></trkpt><trkpt lat="46.58363032247871" lon="7.895160256884992"><ele>1571.5799865722656</ele></trkpt><trkpt lat="46.58359032263979" lon="7.895160256884992"><ele>1571.6999816894531</ele></trkpt><trkpt lat="46.583550322800875" lon="7.895170256961137"><ele>1571.5499877929688</ele></trkpt><trkpt lat="46.583490322809666" lon="7.895190256647766"><ele>1571.5999755859375</ele></trkpt><trkpt lat="46.58347032265738" lon="7.895200256723911"><ele>1571.6899719238281</ele></trkpt><trkpt lat="46.58345032250509" lon="7.8952102568000555"><ele>1571.75</ele></trkpt><trkpt lat="46.58340032259002" lon="7.895250257104635"><ele>1572.0999755859375</ele></trkpt><trkpt lat="46.58337032282725" lon="7.895280256867409"><ele>1572.3499755859375</ele></trkpt><trkpt lat="46.58329032268375" lon="7.895340257324278"><ele>1573.0799865722656</ele></trkpt><trkpt lat="46.58327032299712" lon="7.895350256934762"><ele>1573.3299865722656</ele></trkpt><trkpt lat="46.58322032308206" lon="7.895380257163197"><ele>1573.7999877929688</ele></trkpt><trkpt lat="46.58318032324314" lon="7.895400257315487"><ele>1574.4499816894531</ele></trkpt><trkpt lat="46.58310032309964" lon="7.8954302575439215"><ele>1575.2099914550781</ele></trkpt><trkpt lat="46.58301032334566" lon="7.895450257696211"><ele>1575.8999938964844</ele></trkpt><trkpt lat="46.582930323667824" lon="7.895470257848501"><ele>1576.4599914550781</ele></trkpt><trkpt lat="46.58292032359168" lon="7.895470257848501"><ele>1576.5099792480469</ele></trkpt><trkpt lat="46.58280032360926" lon="7.895470257848501"><ele>1577.3699951171875</ele></trkpt><trkpt lat="46.5827503236942" lon="7.895470257848501"><ele>1578.0199890136719</ele></trkpt><trkpt lat="46.582700323779136" lon="7.895470257848501"><ele>1578.5799865722656</ele></trkpt><trkpt lat="46.58267032401636" lon="7.895480257924646"><ele>1578.97998046875</ele></trkpt><trkpt lat="46.58264032425359" lon="7.895490258000791"><ele>1579.2999877929688</ele></trkpt><trkpt lat="46.582630324177444" lon="7.895510258153081"><ele>1579.6999816894531</ele></trkpt><trkpt lat="46.58255032449961" lon="7.895540258381516"><ele>1580.7999877929688</ele></trkpt><trkpt lat="46.582420324441046" lon="7.895610258448869"><ele>1581.7999877929688</ele></trkpt><trkpt lat="46.582280324772" lon="7.895650258753449"><ele>1582.0999755859375</ele></trkpt><trkpt lat="46.58217032486573" lon="7.895690258592367"><ele>1582.3999938964844</ele></trkpt><trkpt lat="46.582120324950665" lon="7.895710258744657"><ele>1582.5399780273438</ele></trkpt><trkpt lat="46.582080324646086" lon="7.895720258820802"><ele>1582.5899963378906</ele></trkpt><trkpt lat="46.58203032473102" lon="7.895720258820802"><ele>1582.5799865722656</ele></trkpt><trkpt lat="46.58202032465488" lon="7.895730258431286"><ele>1582.5999755859375</ele></trkpt><trkpt lat="46.58200032496825" lon="7.895730258431286"><ele>1582.6399841308594</ele></trkpt><trkpt lat="46.5817203251645" lon="7.895550258923322"><ele>1584.5799865722656</ele></trkpt><trkpt lat="46.58158032549545" lon="7.89546025916934"><ele>1585.9199829101562</ele></trkpt><trkpt lat="46.58149032574147" lon="7.895390259101987"><ele>1587.0599975585938</ele></trkpt><trkpt lat="46.58141032559797" lon="7.89533025957644"><ele>1588.0299987792969</ele></trkpt><trkpt lat="46.58141032606363" lon="7.89533025957644"><ele>1588.0899963378906</ele></trkpt><trkpt lat="46.58140032598749" lon="7.895350259263068"><ele>1588.0899963378906</ele></trkpt><trkpt lat="46.58139032591134" lon="7.895350259263068"><ele>1588.2099914550781</ele></trkpt><trkpt lat="46.58134032599628" lon="7.89535025972873"><ele>1588.6999816894531</ele></trkpt><trkpt lat="46.58123032609001" lon="7.895320259500295"><ele>1589.5699768066406</ele></trkpt><trkpt lat="46.581180326174945" lon="7.895310259889811"><ele>1589.5299987792969</ele></trkpt><trkpt lat="46.58115032594651" lon="7.895300259813666"><ele>1589.6399841308594</ele></trkpt><trkpt lat="46.58100032620132" lon="7.8952802596613765"><ele>1589.8699951171875</ele></trkpt><trkpt lat="46.58098032604903" lon="7.8952702595852315"><ele>1589.8899841308594</ele></trkpt><trkpt lat="46.58091032644734" lon="7.895270260050893"><ele>1590.3799743652344</ele></trkpt><trkpt lat="46.58079032646492" lon="7.895280260127038"><ele>1591.4399719238281</ele></trkpt><trkpt lat="46.58068032655865" lon="7.895290260203183"><ele>1592.8299865722656</ele></trkpt><trkpt lat="46.58061032695696" lon="7.895300260279328"><ele>1593.489990234375</ele></trkpt><trkpt lat="46.58055032696575" lon="7.895300260279328"><ele>1594.0199890136719</ele></trkpt><trkpt lat="46.58047032728791" lon="7.895300260744989"><ele>1594.7899780273438</ele></trkpt><trkpt lat="46.58031032746658" lon="7.89528026105836"><ele>1596.739990234375</ele></trkpt><trkpt lat="46.58029032777995" lon="7.895290260668844"><ele>1597.0799865722656</ele></trkpt><trkpt lat="46.58018032787368" lon="7.89532026136294"><ele>1599.0</ele></trkpt><trkpt lat="46.58003032859415" lon="7.895380261354148"><ele>1601.0999755859375</ele></trkpt><trkpt lat="46.579960328526795" lon="7.895420261658728"><ele>1601.8999938964844</ele></trkpt><trkpt lat="46.57992032868788" lon="7.895440261811018"><ele>1602.2799987792969</ele></trkpt><trkpt lat="46.57985032862052" lon="7.895480261649936"><ele>1602.8499755859375</ele></trkpt><trkpt lat="46.57984032854438" lon="7.895490261726081"><ele>1603.0099792480469</ele></trkpt><trkpt lat="46.579790329094976" lon="7.895510261878371"><ele>1603.469970703125</ele></trkpt><trkpt lat="46.57971032895148" lon="7.895540262106806"><ele>1604.5299987792969</ele></trkpt><trkpt lat="46.57967032911256" lon="7.895570262335241"><ele>1604.719970703125</ele></trkpt><trkpt lat="46.57965032896027" lon="7.8955802619457245"><ele>1604.7699890136719</ele></trkpt><trkpt lat="46.579580328892916" lon="7.895630262326449"><ele>1604.75</ele></trkpt><trkpt lat="46.57952032890171" lon="7.8956802622415125"><ele>1604.6499938964844</ele></trkpt><trkpt lat="46.579450329300016" lon="7.895720262080431"><ele>1604.6799926757812</ele></trkpt><trkpt lat="46.57936032908037" lon="7.895780262071639"><ele>1604.8499755859375</ele></trkpt><trkpt lat="46.579240329097956" lon="7.895840262062848"><ele>1605.3299865722656</ele></trkpt><trkpt lat="46.57921032933518" lon="7.895870262291282"><ele>1605.6299743652344</ele></trkpt><trkpt lat="46.57919032918289" lon="7.895880262367427"><ele>1605.8299865722656</ele></trkpt><trkpt lat="46.579110329505056" lon="7.8959602625109255"><ele>1606.739990234375</ele></trkpt><trkpt lat="46.57908032974228" lon="7.895980262663215"><ele>1607.0499877929688</ele></trkpt><trkpt lat="46.57907032966614" lon="7.89599026273936"><ele>1607.1799926757812</ele></trkpt><trkpt lat="46.578980329912156" lon="7.896030262578279"><ele>1608.1299743652344</ele></trkpt><trkpt lat="46.57894033007324" lon="7.896050262730569"><ele>1608.8499755859375</ele></trkpt><trkpt lat="46.5789103298448" lon="7.8960702628828585"><ele>1609.219970703125</ele></trkpt><trkpt lat="46.57888033008203" lon="7.896090263035148"><ele>1609.5999755859375</ele></trkpt><trkpt lat="46.57882033009082" lon="7.896120263263583"><ele>1610.47998046875</ele></trkpt><trkpt lat="46.57875033048913" lon="7.896150263026357"><ele>1611.25</ele></trkpt><trkpt lat="46.57871033065021" lon="7.896170263178647"><ele>1611.6899719238281</ele></trkpt><trkpt lat="46.578650330659" lon="7.8961802632547915"><ele>1612.3899841308594</ele></trkpt><trkpt lat="46.57860033074394" lon="7.8961802632547915"><ele>1612.8299865722656</ele></trkpt><trkpt lat="46.57858033059165" lon="7.896170263644308"><ele>1612.9199829101562</ele></trkpt><trkpt lat="46.578550330828875" lon="7.896160263568163"><ele>1613.1699829101562</ele></trkpt><trkpt lat="46.57850033091381" lon="7.896140263415873"><ele>1613.2899780273438</ele></trkpt><trkpt lat="46.57847033068538" lon="7.896120263263583"><ele>1613.3199768066406</ele></trkpt><trkpt lat="46.57837033085525" lon="7.89609026350081"><ele>1612.9299926757812</ele></trkpt><trkpt lat="46.57837033085525" lon="7.896080263424665"><ele>1612.9199829101562</ele></trkpt><trkpt lat="46.57835033070296" lon="7.89609026350081"><ele>1612.9399719238281</ele></trkpt><trkpt lat="46.57829033071175" lon="7.896130263339728"><ele>1613.1299743652344</ele></trkpt><trkpt lat="46.57827033055946" lon="7.896170263644308"><ele>1613.219970703125</ele></trkpt><trkpt lat="46.57827033055946" lon="7.896170263644308"><ele>1613.239990234375</ele></trkpt><trkpt lat="46.57827033055946" lon="7.8961802632547915"><ele>1613.2599792480469</ele></trkpt><trkpt lat="46.578250330872834" lon="7.896240263711661"><ele>1613.6499938964844</ele></trkpt><trkpt lat="46.57822033111006" lon="7.896380263846368"><ele>1615.1599731445312</ele></trkpt><trkpt lat="46.57821033149958" lon="7.896440263837576"><ele>1615.7599792480469</ele></trkpt><trkpt lat="46.57819033134729" lon="7.896500263828784"><ele>1616.4499816894531</ele></trkpt><trkpt lat="46.57816033158451" lon="7.896640264429152"><ele>1617.7899780273438</ele></trkpt><trkpt lat="46.57813033182174" lon="7.896830264478922"><ele>1619.2099914550781</ele></trkpt><trkpt lat="46.57813033182174" lon="7.896840264555067"><ele>1619.22998046875</ele></trkpt><trkpt lat="46.578120331745595" lon="7.896880264393985"><ele>1619.3099975585938</ele></trkpt><trkpt lat="46.578100332058966" lon="7.896900264546275"><ele>1619.3899841308594</ele></trkpt><trkpt lat="46.57809033198282" lon="7.896920264698565"><ele>1619.3999938964844</ele></trkpt><trkpt lat="46.57802033191547" lon="7.896970264613628"><ele>1619.7999877929688</ele></trkpt><trkpt lat="46.57800033222884" lon="7.896980264689773"><ele>1619.8299865722656</ele></trkpt><trkpt lat="46.57794033223763" lon="7.897030264604837"><ele>1620.1399841308594</ele></trkpt><trkpt lat="46.577800332102925" lon="7.897110264748335"><ele>1620.3899841308594</ele></trkpt><trkpt lat="46.57775033218786" lon="7.897150264587253"><ele>1620.4499816894531</ele></trkpt><trkpt lat="46.57771033234894" lon="7.897160264663398"><ele>1620.5799865722656</ele></trkpt><trkpt lat="46.57760033244267" lon="7.897200264502317"><ele>1620.8999938964844</ele></trkpt><trkpt lat="46.577460332307965" lon="7.897220264654607"><ele>1620.9499816894531</ele></trkpt><trkpt lat="46.577460332307965" lon="7.8972302647307515"><ele>1620.9399719238281</ele></trkpt><trkpt lat="46.5774103323929" lon="7.8972402648068964"><ele>1620.7099914550781</ele></trkpt><trkpt lat="46.57734033232555" lon="7.89727026456967"><ele>1620.4599914550781</ele></trkpt><trkpt lat="46.57729033194482" lon="7.897300264798105"><ele>1620.0799865722656</ele></trkpt><trkpt lat="46.577250332105905" lon="7.897330264560878"><ele>1619.6799926757812</ele></trkpt><trkpt lat="46.57716033188626" lon="7.897360264323652"><ele>1618.7899780273438</ele></trkpt><trkpt lat="46.57712033158168" lon="7.897370264399797"><ele>1618.5699768066406</ele></trkpt><trkpt lat="46.57703033136204" lon="7.89738026401028"><ele>1617.47998046875</ele></trkpt><trkpt lat="46.57697033137083" lon="7.897390264086425"><ele>1616.5999755859375</ele></trkpt><trkpt lat="46.576940331142396" lon="7.89740026416257"><ele>1616.0999755859375</ele></trkpt><trkpt lat="46.57689033122733" lon="7.897400263696909"><ele>1615.6699829101562</ele></trkpt><trkpt lat="46.57688033115119" lon="7.897400263696909"><ele>1615.6199951171875</ele></trkpt><trkpt lat="46.5768603309989" lon="7.897410263773054"><ele>1615.5799865722656</ele></trkpt><trkpt lat="46.576850331388414" lon="7.897420263849199"><ele>1615.5199890136719</ele></trkpt><trkpt lat="46.57684033131227" lon="7.897430263925344"><ele>1615.47998046875</ele></trkpt><trkpt lat="46.576830331236124" lon="7.897450264077634"><ele>1615.4599914550781</ele></trkpt><trkpt lat="46.576830331236124" lon="7.897470263764262"><ele>1615.3499755859375</ele></trkpt><trkpt lat="46.576830331236124" lon="7.897490263916552"><ele>1615.3199768066406</ele></trkpt><trkpt lat="46.576830331236124" lon="7.897510264068842"><ele>1615.2599792480469</ele></trkpt><trkpt lat="46.5768603309989" lon="7.897610263898969"><ele>1615.1799926757812</ele></trkpt><trkpt lat="46.576900330837816" lon="7.897750263568014"><ele>1614.8999938964844</ele></trkpt><trkpt lat="46.57699033105746" lon="7.898120263591409"><ele>1614.8999938964844</ele></trkpt><trkpt lat="46.57701033120975" lon="7.898170263972133"><ele>1615.3399963378906</ele></trkpt><trkpt lat="46.57704033097252" lon="7.898260263726115"><ele>1615.2899780273438</ele></trkpt><trkpt lat="46.57706033112481" lon="7.898350263945758"><ele>1615.219970703125</ele></trkpt><trkpt lat="46.57707033120096" lon="7.898420264013112"><ele>1615.1699829101562</ele></trkpt><trkpt lat="46.57707033120096" lon="7.89844026369974"><ele>1615.1099853515625</ele></trkpt><trkpt lat="46.5770803312771" lon="7.8984902636148036"><ele>1614.9499816894531</ele></trkpt><trkpt lat="46.57708033081144" lon="7.898580263834447"><ele>1614.6699829101562</ele></trkpt><trkpt lat="46.57708033081144" lon="7.898710263427347"><ele>1613.7099914550781</ele></trkpt><trkpt lat="46.577070330735296" lon="7.898940263316035"><ele>1612.3199768066406</ele></trkpt><trkpt lat="46.57706033065915" lon="7.899030263535678"><ele>1612.0899963378906</ele></trkpt><trkpt lat="46.577030330430716" lon="7.899250263348222"><ele>1611.7699890136719</ele></trkpt><trkpt lat="46.57700033020228" lon="7.899440263397992"><ele>1611.0999755859375</ele></trkpt><trkpt lat="46.57699033012614" lon="7.8995002633892"><ele>1610.9299926757812</ele></trkpt><trkpt lat="46.57699033012614" lon="7.899560263380408"><ele>1610.9199829101562</ele></trkpt><trkpt lat="46.57698033004999" lon="7.8996302634477615"><ele>1610.9599914550781</ele></trkpt><trkpt lat="46.57698033004999" lon="7.89969026343897"><ele>1610.8599853515625</ele></trkpt><trkpt lat="46.57699033012614" lon="7.899930263403803"><ele>1610.5199890136719</ele></trkpt><trkpt lat="46.57699033012614" lon="7.899960263166577"><ele>1610.5</ele></trkpt><trkpt lat="46.57700033020228" lon="7.9002202632837"><ele>1610.6399841308594</ele></trkpt><trkpt lat="46.57700033020228" lon="7.900590263307095"><ele>1610.6399841308594</ele></trkpt><trkpt lat="46.57700033020228" lon="7.900830263271928"><ele>1610.7899780273438</ele></trkpt><trkpt lat="46.57700033020228" lon="7.900870263110846"><ele>1610.8299865722656</ele></trkpt><trkpt lat="46.57699033012614" lon="7.900930263102055"><ele>1610.8899841308594</ele></trkpt><trkpt lat="46.57697033043951" lon="7.900990263093263"><ele>1610.9499816894531</ele></trkpt><trkpt lat="46.57693033013493" lon="7.901080263312906"><ele>1611.0699768066406</ele></trkpt><trkpt lat="46.57692033005878" lon="7.901100263465196"><ele>1611.0799865722656</ele></trkpt><trkpt lat="46.57689033029601" lon="7.901160263456404"><ele>1611.0</ele></trkpt><trkpt lat="46.57687033014372" lon="7.901190263219178"><ele>1611.0899963378906</ele></trkpt><trkpt lat="46.576840330380946" lon="7.9012202634476125"><ele>1611.0799865722656</ele></trkpt><trkpt lat="46.57678033038974" lon="7.901280263438821"><ele>1610.969970703125</ele></trkpt><trkpt lat="46.57673033000901" lon="7.901310263201594"><ele>1610.8899841308594</ele></trkpt><trkpt lat="46.576690330170095" lon="7.901340263430029"><ele>1610.8499755859375</ele></trkpt><trkpt lat="46.57666033040732" lon="7.901350263040513"><ele>1610.6999816894531</ele></trkpt><trkpt lat="46.576520330272615" lon="7.901410263497382"><ele>1610.8499755859375</ele></trkpt><trkpt lat="46.57626033015549" lon="7.901510263327509"><ele>1611.6599731445312</ele></trkpt><trkpt lat="46.57598033035174" lon="7.901630263309926"><ele>1612.1999816894531</ele></trkpt><trkpt lat="46.57586033036932" lon="7.9016702636145055"><ele>1612.22998046875</ele></trkpt><trkpt lat="46.57578033069149" lon="7.901690263301134"><ele>1612.1899719238281</ele></trkpt><trkpt lat="46.5756803303957" lon="7.901720263529569"><ele>1612.1399841308594</ele></trkpt><trkpt lat="46.57545033050701" lon="7.901760263368487"><ele>1612.0399780273438</ele></trkpt><trkpt lat="46.57535033067688" lon="7.901790263596922"><ele>1612.22998046875</ele></trkpt><trkpt lat="46.575310330372304" lon="7.901800263673067"><ele>1612.3099975585938</ele></trkpt><trkpt lat="46.575270330533385" lon="7.901810263749212"><ele>1612.1899719238281</ele></trkpt><trkpt lat="46.57521033054218" lon="7.901820263359696"><ele>1612.1599731445312</ele></trkpt><trkpt lat="46.57521033054218" lon="7.901820263359696"><ele>1612.1599731445312</ele></trkpt><trkpt lat="46.57521033054218" lon="7.901820263359696"><ele>1612.1399841308594</ele></trkpt><trkpt lat="46.575120330322534" lon="7.901820263359696"><ele>1612.0</ele></trkpt><trkpt lat="46.575100330635905" lon="7.901820263359696"><ele>1612.0</ele></trkpt><trkpt lat="46.57502033049241" lon="7.901800263673067"><ele>1612.0</ele></trkpt><trkpt lat="46.574890330433846" lon="7.901770263444632"><ele>1611.1999816894531</ele></trkpt><trkpt lat="46.57473033061251" lon="7.901740263681859"><ele>1612.5999755859375</ele></trkpt><trkpt lat="46.57464033039287" lon="7.901710263453424"><ele>1612.8999938964844</ele></trkpt><trkpt lat="46.574530330486596" lon="7.901640263851732"><ele>1613.5199890136719</ele></trkpt><trkpt lat="46.57451033079997" lon="7.901630263775587"><ele>1613.5999755859375</ele></trkpt><trkpt lat="46.57433033082634" lon="7.901460263878107"><ele>1613.5999755859375</ele></trkpt><trkpt lat="46.57422033092007" lon="7.901400263886899"><ele>1614.0499877929688</ele></trkpt><trkpt lat="46.574210330843925" lon="7.901400263886899"><ele>1614.0999755859375</ele></trkpt><trkpt lat="46.57415033085272" lon="7.901350263971835"><ele>1614.8999938964844</ele></trkpt><trkpt lat="46.574100330937654" lon="7.901320263743401"><ele>1615.0</ele></trkpt><trkpt lat="46.574060331098735" lon="7.901280263904482"><ele>1615.3599853515625</ele></trkpt><trkpt lat="46.57398033095524" lon="7.901210263837129"><ele>1615.1999816894531</ele></trkpt><trkpt lat="46.5739003312774" lon="7.901150263845921"><ele>1615.3999938964844</ele></trkpt><trkpt lat="46.57375033106655" lon="7.901080264244229"><ele>1615.6999816894531</ele></trkpt><trkpt lat="46.57356033101678" lon="7.900970263872296"><ele>1615.5699768066406</ele></trkpt><trkpt lat="46.573550330940634" lon="7.900960263796151"><ele>1615.5</ele></trkpt><trkpt lat="46.573490330949426" lon="7.900920263957232"><ele>1615.5</ele></trkpt><trkpt lat="46.5734703312628" lon="7.900900263804942"><ele>1615.469970703125</ele></trkpt><trkpt lat="46.573380331043154" lon="7.9008202641271055"><ele>1615.2999877929688</ele></trkpt><trkpt lat="46.573360330890864" lon="7.900800263974816"><ele>1615.2999877929688</ele></trkpt><trkpt lat="46.57329033082351" lon="7.900750264059752"><ele>1615.2999877929688</ele></trkpt><trkpt lat="46.57320033106953" lon="7.900690264068544"><ele>1616.0599975585938</ele></trkpt><trkpt lat="46.573130331002176" lon="7.9006402641534805"><ele>1615.1999816894531</ele></trkpt><trkpt lat="46.5731003312394" lon="7.900620264001191"><ele>1615.469970703125</ele></trkpt><trkpt lat="46.57303033070639" lon="7.900570264086127"><ele>1614.6999816894531</ele></trkpt><trkpt lat="46.572980330791324" lon="7.9005302637815475"><ele>1614.469970703125</ele></trkpt><trkpt lat="46.5729303304106" lon="7.900490263476968"><ele>1613.3999938964844</ele></trkpt><trkpt lat="46.57282033050433" lon="7.900400263722986"><ele>1613.0999755859375</ele></trkpt><trkpt lat="46.57282033050433" lon="7.900400263722986"><ele>1613.3999938964844</ele></trkpt><trkpt lat="46.57262033037841" lon="7.900220263749361"><ele>1612.6999816894531</ele></trkpt><trkpt lat="46.57259033061564" lon="7.900200263597071"><ele>1612.6999816894531</ele></trkpt><trkpt lat="46.572500330396" lon="7.900140263605863"><ele>1612.6999816894531</ele></trkpt><trkpt lat="46.57238033041358" lon="7.9000902636907995"><ele>1613.3099975585938</ele></trkpt><trkpt lat="46.572180330753326" lon="7.899980263784528"><ele>1614.0999755859375</ele></trkpt><trkpt lat="46.57215033099055" lon="7.899960263632238"><ele>1614.2599792480469</ele></trkpt><trkpt lat="46.572070330847055" lon="7.8999202637933195"><ele>1614.5999755859375</ele></trkpt><trkpt lat="46.57204033108428" lon="7.899880263954401"><ele>1614.7099914550781</ele></trkpt><trkpt lat="46.572030331008136" lon="7.899860263802111"><ele>1615.0</ele></trkpt><trkpt lat="46.57202033093199" lon="7.899850263725966"><ele>1614.7999877929688</ele></trkpt><trkpt lat="46.57189033087343" lon="7.8997502638958395"><ele>1614.7999877929688</ele></trkpt><trkpt lat="46.57178033096716" lon="7.899680263828486"><ele>1614.7999877929688</ele></trkpt><trkpt lat="46.57176033081487" lon="7.899680263828486"><ele>1614.7999877929688</ele></trkpt><trkpt lat="46.57172033097595" lon="7.899670263752341"><ele>1614.7999877929688</ele></trkpt><trkpt lat="46.571670331060886" lon="7.899670263752341"><ele>1614.9599914550781</ele></trkpt><trkpt lat="46.57162033068016" lon="7.899670263752341"><ele>1614.6999816894531</ele></trkpt><trkpt lat="46.5715703307651" lon="7.899640263989568"><ele>1614.7799987792969</ele></trkpt><trkpt lat="46.571540331002325" lon="7.899630263913423"><ele>1614.3999938964844</ele></trkpt><trkpt lat="46.57146033085883" lon="7.899580263998359"><ele>1614.7899780273438</ele></trkpt><trkpt lat="46.57142033101991" lon="7.899550263769925"><ele>1614.5399780273438</ele></trkpt><trkpt lat="46.57137033063918" lon="7.899520264007151"><ele>1614.5999755859375</ele></trkpt><trkpt lat="46.57132033072412" lon="7.8994702636264265"><ele>1614.9499816894531</ele></trkpt><trkpt lat="46.57132033072412" lon="7.8994702636264265"><ele>1614.9499816894531</ele></trkpt><trkpt lat="46.57125033065677" lon="7.8994002640247345"><ele>1614.6799926757812</ele></trkpt><trkpt lat="46.57121033081785" lon="7.899360263720155"><ele>1614.6999816894531</ele></trkpt><trkpt lat="46.57110033091158" lon="7.899270263966173"><ele>1615.25</ele></trkpt><trkpt lat="46.57106033107266" lon="7.899240263737738"><ele>1614.8999938964844</ele></trkpt><trkpt lat="46.570970330853015" lon="7.89920026389882"><ele>1615.0799865722656</ele></trkpt><trkpt lat="46.570970330853015" lon="7.89920026389882"><ele>1615.1599731445312</ele></trkpt><trkpt lat="46.57089033070952" lon="7.899160264059901"><ele>1615.0799865722656</ele></trkpt><trkpt lat="46.570670330896974" lon="7.899070263840258"><ele>1615.0</ele></trkpt><trkpt lat="46.57062033098191" lon="7.899050263687968"><ele>1615.0699768066406</ele></trkpt><trkpt lat="46.570610330905765" lon="7.899050263687968"><ele>1615.3599853515625</ele></trkpt><trkpt lat="46.570590330753475" lon="7.899040264077485"><ele>1615.0999755859375</ele></trkpt><trkpt lat="46.57058033114299" lon="7.89903026400134"><ele>1615.4399719238281</ele></trkpt><trkpt lat="46.5705603309907" lon="7.899000263772905"><ele>1615.5499877929688</ele></trkpt><trkpt lat="46.5705603309907" lon="7.89899026369676"><ele>1615.1999816894531</ele></trkpt><trkpt lat="46.570500330999494" lon="7.89899026369676"><ele>1615.1999816894531</ele></trkpt><trkpt lat="46.570460331160575" lon="7.89899026369676"><ele>1615.5099792480469</ele></trkpt><trkpt lat="46.570310330949724" lon="7.898930263705552"><ele>1615.3099975585938</ele></trkpt><trkpt lat="46.57018033089116" lon="7.898880263790488"><ele>1615.3999938964844</ele></trkpt><trkpt lat="46.570140331052244" lon="7.898870263714343"><ele>1615.5399780273438</ele></trkpt><trkpt lat="46.57009033113718" lon="7.89886026410386"><ele>1615.6999816894531</ele></trkpt><trkpt lat="46.57001033099368" lon="7.898850264027715"><ele>1615.8999938964844</ele></trkpt><trkpt lat="46.56988033093512" lon="7.898830263875425"><ele>1615.6999816894531</ele></trkpt><trkpt lat="46.56981033086777" lon="7.89882026379928"><ele>1615.9599914550781</ele></trkpt><trkpt lat="46.569780331104994" lon="7.89882026379928"><ele>1615.6999816894531</ele></trkpt><trkpt lat="46.569700330961496" lon="7.89882026379928"><ele>1615.6999816894531</ele></trkpt><trkpt lat="46.56960033113137" lon="7.898800264112651"><ele>1615.4599914550781</ele></trkpt><trkpt lat="46.569590331055224" lon="7.898800264112651"><ele>1615.7899780273438</ele></trkpt><trkpt lat="46.56950033083558" lon="7.898790264036506"><ele>1615.1999816894531</ele></trkpt><trkpt lat="46.569320330861956" lon="7.898790264036506"><ele>1615.1399841308594</ele></trkpt><trkpt lat="46.56931033078581" lon="7.898790264036506"><ele>1615.4599914550781</ele></trkpt><trkpt lat="46.569190330803394" lon="7.8987802639603615"><ele>1615.0999755859375</ele></trkpt><trkpt lat="46.56906033074483" lon="7.8987702638842165"><ele>1615.5</ele></trkpt><trkpt lat="46.56901033082977" lon="7.898760263808072"><ele>1615.6199951171875</ele></trkpt><trkpt lat="46.568980331066996" lon="7.898760263808072"><ele>1615.6999816894531</ele></trkpt><trkpt lat="46.56892033107579" lon="7.898730264045298"><ele>1615.9299926757812</ele></trkpt><trkpt lat="46.56884033093229" lon="7.898690263740718"><ele>1615.6999816894531</ele></trkpt><trkpt lat="46.56880033109337" lon="7.898680264130235"><ele>1615.6999816894531</ele></trkpt><trkpt lat="46.56871033087373" lon="7.898640263825655"><ele>1615.6399841308594</ele></trkpt><trkpt lat="46.5685303309001" lon="7.898580263834447"><ele>1616.1199951171875</ele></trkpt><trkpt lat="46.56837033107877" lon="7.898520263843238"><ele>1615.6499938964844</ele></trkpt><trkpt lat="46.56831033108756" lon="7.89850026415661"><ele>1615.7699890136719</ele></trkpt><trkpt lat="46.568240331020206" lon="7.89848026400432"><ele>1616.0999755859375</ele></trkpt><trkpt lat="46.568180331029" lon="7.898470263928175"><ele>1616.3399963378906</ele></trkpt><trkpt lat="46.56808033119887" lon="7.898450264241546"><ele>1617.0199890136719</ele></trkpt><trkpt lat="46.56802033120766" lon="7.8984302640892565"><ele>1617.0899963378906</ele></trkpt><trkpt lat="46.56799033144489" lon="7.898420264013112"><ele>1617.2999877929688</ele></trkpt><trkpt lat="46.5679703312926" lon="7.898410263936967"><ele>1617.3499755859375</ele></trkpt><trkpt lat="46.567900331225246" lon="7.898380264174193"><ele>1617.5</ele></trkpt><trkpt lat="46.56778033124283" lon="7.898320264182985"><ele>1617.6799926757812</ele></trkpt><trkpt lat="46.567640331573784" lon="7.8982602641917765"><ele>1618.6499938964844</ele></trkpt><trkpt lat="46.567560331430286" lon="7.898220264352858"><ele>1618.8999938964844</ele></trkpt><trkpt lat="46.5675503318198" lon="7.898220264352858"><ele>1619.0799865722656</ele></trkpt><trkpt lat="46.567490331828594" lon="7.8981902645900846"><ele>1619.4399719238281</ele></trkpt><trkpt lat="46.567490331828594" lon="7.8981902645900846"><ele>1619.2699890136719</ele></trkpt><trkpt lat="46.567300331778824" lon="7.898100264836103"><ele>1620.1999816894531</ele></trkpt><trkpt lat="46.56729033170268" lon="7.898100264836103"><ele>1620.5899963378906</ele></trkpt><trkpt lat="46.567280331626534" lon="7.898090264759958"><ele>1620.2999877929688</ele></trkpt><trkpt lat="46.56723033171147" lon="7.898060264531523"><ele>1620.6399841308594</ele></trkpt><trkpt lat="46.56722033210099" lon="7.898050264921039"><ele>1621.0699768066406</ele></trkpt><trkpt lat="46.56719033187255" lon="7.8980202646926045"><ele>1621.2999877929688</ele></trkpt><trkpt lat="46.56716033210978" lon="7.898000264540315"><ele>1621.1799926757812</ele></trkpt><trkpt lat="46.5669903322123" lon="7.89784026471898"><ele>1622.3399963378906</ele></trkpt><trkpt lat="46.56691033253446" lon="7.897760265041143"><ele>1622.8999938964844</ele></trkpt><trkpt lat="46.5668603326194" lon="7.897720265202224"><ele>1623.2099914550781</ele></trkpt><trkpt lat="46.566810332238674" lon="7.8976802648976445"><ele>1623.5</ele></trkpt><trkpt lat="46.566770332399756" lon="7.897650265134871"><ele>1624.1499938964844</ele></trkpt><trkpt lat="46.56672033248469" lon="7.8976202653720975"><ele>1624.0</ele></trkpt><trkpt lat="46.56663033273071" lon="7.897580265067518"><ele>1624.3999938964844</ele></trkpt><trkpt lat="46.56641033291817" lon="7.897510265465826"><ele>1626.0</ele></trkpt><trkpt lat="46.56631033308804" lon="7.897480265703052"><ele>1626.2999877929688</ele></trkpt><trkpt lat="46.566210333257914" lon="7.8974402653984725"><ele>1626.8099975585938</ele></trkpt><trkpt lat="46.56605033343658" lon="7.8973802658729255"><ele>1628.1499938964844</ele></trkpt><trkpt lat="46.56599033344537" lon="7.897360265720636"><ele>1628.0</ele></trkpt><trkpt lat="46.56590033369139" lon="7.897300266195089"><ele>1629.1599731445312</ele></trkpt><trkpt lat="46.565850333776325" lon="7.897270265966654"><ele>1629.1299743652344</ele></trkpt><trkpt lat="46.565830333624035" lon="7.897260265890509"><ele>1629.25</ele></trkpt><trkpt lat="46.565830333624035" lon="7.897260265890509"><ele>1629.6399841308594</ele></trkpt><trkpt lat="46.56582033354789" lon="7.897260265890509"><ele>1629.2999877929688</ele></trkpt><trkpt lat="46.56579033378512" lon="7.89724026620388"><ele>1629.4599914550781</ele></trkpt><trkpt lat="46.56572033371776" lon="7.897200265899301"><ele>1629.6999816894531</ele></trkpt><trkpt lat="46.5656703338027" lon="7.897190266288817"><ele>1630.0</ele></trkpt><trkpt lat="46.565660333726555" lon="7.897190266288817"><ele>1630.3699951171875</ele></trkpt><trkpt lat="46.56565033365041" lon="7.897190266288817"><ele>1630.1799926757812</ele></trkpt><trkpt lat="46.56562033388764" lon="7.897190266288817"><ele>1630.5499877929688</ele></trkpt><trkpt lat="46.56562033388764" lon="7.897190266288817"><ele>1630.4199829101562</ele></trkpt><trkpt lat="46.56560033373535" lon="7.897190266288817"><ele>1630.5999755859375</ele></trkpt><trkpt lat="46.56556033389643" lon="7.897210266441107"><ele>1630.8399963378906</ele></trkpt><trkpt lat="46.56555033382028" lon="7.89722026605159"><ele>1630.9099731445312</ele></trkpt><trkpt lat="46.56554033374414" lon="7.897230266127735"><ele>1631.0</ele></trkpt><trkpt lat="46.565530334133655" lon="7.897230266127735"><ele>1631.239990234375</ele></trkpt><trkpt lat="46.56545033399016" lon="7.89728026650846"><ele>1631.5999755859375</ele></trkpt><trkpt lat="46.56537033431232" lon="7.897350266575813"><ele>1632.1099853515625</ele></trkpt><trkpt lat="46.56533033400774" lon="7.897380266338587"><ele>1632.0</ele></trkpt><trkpt lat="46.56530033424497" lon="7.897390266414732"><ele>1632.1499938964844</ele></trkpt><trkpt lat="46.56527033401653" lon="7.897400266490877"><ele>1632.2999877929688</ele></trkpt><trkpt lat="46.5652503343299" lon="7.897390266414732"><ele>1632.2999877929688</ele></trkpt><trkpt lat="46.56522033410147" lon="7.897390266414732"><ele>1632.6099853515625</ele></trkpt><trkpt lat="46.56518033426255" lon="7.897390266414732"><ele>1632.7099914550781</ele></trkpt><trkpt lat="46.565150334034115" lon="7.897380266338587"><ele>1632.5099792480469</ele></trkpt><trkpt lat="46.56512033427134" lon="7.897380266338587"><ele>1632.5999755859375</ele></trkpt><trkpt lat="46.56501033436507" lon="7.897350266575813"><ele>1632.8999938964844</ele></trkpt><trkpt lat="46.56494033429772" lon="7.897330266423523"><ele>1633.2899780273438</ele></trkpt><trkpt lat="46.56479033455253" lon="7.897280266974121"><ele>1634.22998046875</ele></trkpt><trkpt lat="46.5646103345789" lon="7.897220266982913"><ele>1635.0999755859375</ele></trkpt><trkpt lat="46.56445033475757" lon="7.897180267143995"><ele>1635.6999816894531</ele></trkpt><trkpt lat="46.564320335164666" lon="7.897140267305076"><ele>1636.2999877929688</ele></trkpt><trkpt lat="46.56425033509731" lon="7.897110267076641"><ele>1636.8299865722656</ele></trkpt><trkpt lat="46.56412033503875" lon="7.897060267161578"><ele>1637.3999938964844</ele></trkpt><trkpt lat="46.56389033515006" lon="7.896990267559886"><ele>1638.0999755859375</ele></trkpt><trkpt lat="46.56389033515006" lon="7.896990267559886"><ele>1638.3399963378906</ele></trkpt><trkpt lat="46.56370033510029" lon="7.896970267407596"><ele>1638.3099975585938</ele></trkpt><trkpt lat="46.56348033528775" lon="7.896950267255306"><ele>1637.6999816894531</ele></trkpt><trkpt lat="46.56344033544883" lon="7.896940267179161"><ele>1637.8999938964844</ele></trkpt><trkpt lat="46.56338033499196" lon="7.896920267492533"><ele>1637.3999938964844</ele></trkpt><trkpt lat="46.563260335009545" lon="7.896900267340243"><ele>1637.0999755859375</ele></trkpt><trkpt lat="46.56319033494219" lon="7.896890267264098"><ele>1637.1499938964844</ele></trkpt><trkpt lat="46.563090335112065" lon="7.896880267187953"><ele>1636.7999877929688</ele></trkpt><trkpt lat="46.563050334807485" lon="7.896880267187953"><ele>1636.9499816894531</ele></trkpt><trkpt lat="46.56302033504471" lon="7.896880267187953"><ele>1636.7999877929688</ele></trkpt><trkpt lat="46.5629603350535" lon="7.896920267026871"><ele>1636.5999755859375</ele></trkpt><trkpt lat="46.56291033513844" lon="7.89698026701808"><ele>1636.5</ele></trkpt><trkpt lat="46.562860334757715" lon="7.897100267000496"><ele>1636.5</ele></trkpt><trkpt lat="46.56279033469036" lon="7.897270266897976"><ele>1636.2999877929688</ele></trkpt><trkpt lat="46.5627403347753" lon="7.897350267041475"><ele>1636.2999877929688</ele></trkpt><trkpt lat="46.562670334707946" lon="7.8973702671937644"><ele>1636.2999877929688</ele></trkpt><trkpt lat="46.562580334953964" lon="7.8973602671176195"><ele>1636.1999816894531</ele></trkpt><trkpt lat="46.56251033488661" lon="7.89734026696533"><ele>1636.3699951171875</ele></trkpt><trkpt lat="46.56244033481926" lon="7.897320267278701"><ele>1636.1999816894531</ele></trkpt><trkpt lat="46.562220335006714" lon="7.897200267296284"><ele>1636.2999877929688</ele></trkpt><trkpt lat="46.56204033503309" lon="7.897090267390013"><ele>1636.969970703125</ele></trkpt><trkpt lat="46.561880335211754" lon="7.89700026717037"><ele>1637.5</ele></trkpt><trkpt lat="46.561880335211754" lon="7.89700026717037"><ele>1637.5999755859375</ele></trkpt><trkpt lat="46.561650335323066" lon="7.896870267577469"><ele>1638.1999816894531</ele></trkpt><trkpt lat="46.56158033525571" lon="7.896820267662406"><ele>1638.5099792480469</ele></trkpt><trkpt lat="46.56153033534065" lon="7.896780267357826"><ele>1638.3999938964844</ele></trkpt><trkpt lat="46.5610103351064" lon="7.896320267114788"><ele>1638.0</ele></trkpt><trkpt lat="46.560890335123986" lon="7.896200267132372"><ele>1637.8399963378906</ele></trkpt><trkpt lat="46.560740334913135" lon="7.8960502673871815"><ele>1637.3299865722656</ele></trkpt><trkpt lat="46.56073033483699" lon="7.896040267311037"><ele>1637.2999877929688</ele></trkpt><trkpt lat="46.560720335226506" lon="7.896040267311037"><ele>1637.2899780273438</ele></trkpt><trkpt lat="46.560660334769636" lon="7.8959502670913935"><ele>1636.7999877929688</ele></trkpt><trkpt lat="46.56045033456758" lon="7.89552026707679"><ele>1636.0699768066406</ele></trkpt><trkpt lat="46.56041033472866" lon="7.895440266933292"><ele>1635.9099731445312</ele></trkpt><trkpt lat="46.56041033472866" lon="7.895440266933292"><ele>1635.6999816894531</ele></trkpt><trkpt lat="46.560360334813595" lon="7.895380266942084"><ele>1635.8899841308594</ele></trkpt><trkpt lat="46.56025033490732" lon="7.895270267035812"><ele>1635.6999816894531</ele></trkpt><trkpt lat="46.56023033475503" lon="7.895230266731232"><ele>1635.7599792480469</ele></trkpt><trkpt lat="46.56010033469647" lon="7.895070266909897"><ele>1635.2999877929688</ele></trkpt><trkpt lat="46.56003033462912" lon="7.894930266775191"><ele>1634.9599914550781</ele></trkpt><trkpt lat="46.56001033447683" lon="7.894900266546756"><ele>1634.3999938964844</ele></trkpt><trkpt lat="46.55997033463791" lon="7.894770266953856"><ele>1634.6999816894531</ele></trkpt><trkpt lat="46.55997033463791" lon="7.894770266953856"><ele>1634.6699829101562</ele></trkpt><trkpt lat="46.55984033411369" lon="7.894270266406238"><ele>1633.8999938964844</ele></trkpt><trkpt lat="46.55976033443585" lon="7.893930266611278"><ele>1634.0</ele></trkpt><trkpt lat="46.559730334207416" lon="7.893770266789943"><ele>1634.2099914550781</ele></trkpt><trkpt lat="46.55972033459693" lon="7.893720266409218"><ele>1634.2699890136719</ele></trkpt><trkpt lat="46.55972033459693" lon="7.893720266409218"><ele>1634.1999816894531</ele></trkpt><trkpt lat="46.5596903343685" lon="7.893440266605467"><ele>1634.5</ele></trkpt><trkpt lat="46.559660334605724" lon="7.893270266707987"><ele>1635.0999755859375</ele></trkpt><trkpt lat="46.55965033452958" lon="7.893210266716778"><ele>1635.2999877929688</ele></trkpt><trkpt lat="46.559620334766805" lon="7.893030266743153"><ele>1636.0999755859375</ele></trkpt><trkpt lat="46.55961033469066" lon="7.893010267056525"><ele>1636.239990234375</ele></trkpt><trkpt lat="46.55958033492789" lon="7.892890267074108"><ele>1637.0999755859375</ele></trkpt><trkpt lat="46.55958033492789" lon="7.892880266997963"><ele>1636.9599914550781</ele></trkpt><trkpt lat="46.55952033493668" lon="7.892790267243981"><ele>1637.3699951171875</ele></trkpt><trkpt lat="46.55944033525884" lon="7.892650267109275"><ele>1637.8399963378906</ele></trkpt><trkpt lat="46.55944033525884" lon="7.892650267109275"><ele>1637.6999816894531</ele></trkpt><trkpt lat="46.5594303351827" lon="7.892650267109275"><ele>1637.8699951171875</ele></trkpt><trkpt lat="46.559280334971845" lon="7.892480267211795"><ele>1638.0999755859375</ele></trkpt><trkpt lat="46.55922033498064" lon="7.892400267068297"><ele>1638.2999877929688</ele></trkpt><trkpt lat="46.55919033521786" lon="7.892290267162025"><ele>1638.1999816894531</ele></trkpt><trkpt lat="46.55918033514172" lon="7.892270267009735"><ele>1637.8999938964844</ele></trkpt><trkpt lat="46.55916033498943" lon="7.892220267094672"><ele>1638.1699829101562</ele></trkpt><trkpt lat="46.559090334922075" lon="7.89192026713863"><ele>1638.0999755859375</ele></trkpt><trkpt lat="46.5590603351593" lon="7.891850267071277"><ele>1637.9299926757812</ele></trkpt><trkpt lat="46.5590603351593" lon="7.891840266995132"><ele>1637.9199829101562</ele></trkpt><trkpt lat="46.55905033508316" lon="7.891840266995132"><ele>1637.8999938964844</ele></trkpt><trkpt lat="46.55902033532038" lon="7.8918002671562135"><ele>1637.8999938964844</ele></trkpt><trkpt lat="46.55897033493966" lon="7.891770266927779"><ele>1638.0699768066406</ele></trkpt><trkpt lat="46.55882033519447" lon="7.891690267249942"><ele>1638.3699951171875</ele></trkpt><trkpt lat="46.558810335118324" lon="7.891680267173797"><ele>1638.4099731445312</ele></trkpt><trkpt lat="46.55873033544049" lon="7.891610267106444"><ele>1638.6999816894531</ele></trkpt><trkpt lat="46.5587103352882" lon="7.891570267267525"><ele>1638.5899963378906</ele></trkpt><trkpt lat="46.55869033513591" lon="7.89154026703909"><ele>1638.6299743652344</ele></trkpt><trkpt lat="46.55869033513591" lon="7.89154026703909"><ele>1638.5999755859375</ele></trkpt><trkpt lat="46.55866033537313" lon="7.891520267352462"><ele>1638.6499938964844</ele></trkpt><trkpt lat="46.558640335220844" lon="7.891500267200172"><ele>1638.6999816894531</ele></trkpt><trkpt lat="46.558620335068554" lon="7.891470267437398"><ele>1638.7799987792969</ele></trkpt><trkpt lat="46.55861033545807" lon="7.8914602673612535"><ele>1638.8999938964844</ele></trkpt><trkpt lat="46.558580335229635" lon="7.891450267285109"><ele>1638.8499755859375</ele></trkpt><trkpt lat="46.558560335077345" lon="7.891440267208964"><ele>1638.8999938964844</ele></trkpt><trkpt lat="46.55849033547565" lon="7.891430267132819"><ele>1639.1999816894531</ele></trkpt><trkpt lat="46.55846033524722" lon="7.891420267056674"><ele>1639.0299987792969</ele></trkpt><trkpt lat="46.5584203354083" lon="7.891400267370045"><ele>1639.0999755859375</ele></trkpt><trkpt lat="46.55840033525601" lon="7.891400267370045"><ele>1639.3299865722656</ele></trkpt><trkpt lat="46.55837033549324" lon="7.8913902672939"><ele>1639.3999938964844</ele></trkpt><trkpt lat="46.5583403352648" lon="7.891360267531127"><ele>1639.7999877929688</ele></trkpt><trkpt lat="46.55829033534974" lon="7.891320267226547"><ele>1640.0499877929688</ele></trkpt><trkpt lat="46.558280335739255" lon="7.891310267616063"><ele>1640.1199951171875</ele></trkpt><trkpt lat="46.558260335586965" lon="7.8912802673876286"><ele>1640.2699890136719</ele></trkpt><trkpt lat="46.55825033551082" lon="7.891250267624855"><ele>1640.3899841308594</ele></trkpt><trkpt lat="46.55817033583298" lon="7.891010267660022"><ele>1640.6399841308594</ele></trkpt><trkpt lat="46.55817033536732" lon="7.891000267583877"><ele>1640.0499877929688</ele></trkpt></trkseg></trk></gpx>