<?xml version="1.0" encoding="utf-8"?><gpx version="1.1" creator="MySchweizMobil - https://map.schweizmobil.ch/" xmlns:xsi="http://www.w3.org/2001/XMLSchema-instance" xmlns="http://www.topografix.com/GPX/1/1" xsi:schemaLocation="http://www.topografix.com/GPX/1/1 http://www.topografix.com/GPX/1/1/gpx.xsd"><metadata><name>Axalp Swing</name><bounds minlat="46.70344040216878" minlon="8.034410281572491" maxlat="46.718790320213884" maxlon="8.041822620667517" /></metadata><trk><name>Axalp Swing</name><trkseg><trkpt lat="46.709802431520075" lon="8.041822620667517"><ele>1919.0999755859375</ele></trkpt><trkpt lat="46.709732704330236" lon="8.041739452630281"><ele>1920.1999816894531</ele></trkpt><trkpt lat="46.70966297062114" lon="8.04165759216994"><ele>1921.0999755859375</ele></trkpt><trkpt lat="46.70959234330803" lon="8.041574414353818"><ele>1921.5999755859375</ele></trkpt><trkpt lat="46.70952260913327" lon="8.0414925548248"><ele>1922.2999877929688</ele></trkpt><trkpt lat="46.709452881943434" lon="8.041409387253225"><ele>1922.8999938964844</ele></trkpt><trkpt lat="46.709383147303015" lon="8.041327527724206"><ele>1923.0999755859375</ele></trkpt><trkpt lat="46.709313419647515" lon="8.041244360618293"><ele>1923.0999755859375</ele></trkpt><trkpt lat="46.709243685007095" lon="8.041162501554936"><ele>1922.6999816894531</ele></trkpt><trkpt lat="46.709173956885934" lon="8.041079334914684"><ele>1922.0</ele></trkpt><trkpt lat="46.70910422177985" lon="8.040997475851327"><ele>1921.3999938964844</ele></trkpt><trkpt lat="46.70903449365869" lon="8.040914309676737"><ele>1920.7999877929688</ele></trkpt><trkpt lat="46.708991578780115" lon="8.040864136535674"><ele>1920.2999877929688</ele></trkpt><trkpt lat="46.70890328800306" lon="8.040889307390898"><ele>1920.5999755859375</ele></trkpt><trkpt lat="46.70881499676034" lon="8.040914477780461"><ele>1920.7999877929688</ele></trkpt><trkpt lat="46.70872670598328" lon="8.040939648170024"><ele>1920.8999938964844</ele></trkpt><trkpt lat="46.70863840775564" lon="8.040966126602143"><ele>1920.8999938964844</ele></trkpt><trkpt lat="46.708550116512924" lon="8.040991296526045"><ele>1920.3999938964844</ele></trkpt><trkpt lat="46.70846272492781" lon="8.041016476694494"><ele>1919.6999816894531</ele></trkpt><trkpt lat="46.708374433685094" lon="8.041041647084057"><ele>1919.0999755859375</ele></trkpt><trkpt lat="46.708286142442375" lon="8.041066817007959"><ele>1918.5</ele></trkpt><trkpt lat="46.70819785119966" lon="8.04109198693186"><ele>1917.5999755859375</ele></trkpt><trkpt lat="46.70810955297202" lon="8.041118463966995"><ele>1916.2999877929688</ele></trkpt><trkpt lat="46.7080212617293" lon="8.041143633890897"><ele>1915.0</ele></trkpt><trkpt lat="46.70793297048658" lon="8.041168803349137"><ele>1914.3999938964844</ele></trkpt><trkpt lat="46.707844679709524" lon="8.041193973273039"><ele>1915.0999755859375</ele></trkpt><trkpt lat="46.70773746445775" lon="8.041225470602512"><ele>1916.8999938964844</ele></trkpt><trkpt lat="46.707647470757365" lon="8.041232313029468"><ele>1917.2999877929688</ele></trkpt><trkpt lat="46.70755747053772" lon="8.04124046349898"><ele>1918.5999755859375</ele></trkpt><trkpt lat="46.70746837044135" lon="8.041248623747379"><ele>1921.0</ele></trkpt><trkpt lat="46.707378370221704" lon="8.041256773751229"><ele>1922.5999755859375</ele></trkpt><trkpt lat="46.7072883695364" lon="8.04126492375508"><ele>1922.6999816894531</ele></trkpt><trkpt lat="46.70719836931676" lon="8.04127307375893"><ele>1922.3999938964844</ele></trkpt><trkpt lat="46.70710926828906" lon="8.041281233541667"><ele>1921.5</ele></trkpt><trkpt lat="46.707019267603755" lon="8.041289383079857"><ele>1920.3999938964844</ele></trkpt><trkpt lat="46.70692927390337" lon="8.041296225041151"><ele>1920.1999816894531</ele></trkpt><trkpt lat="46.706839273218066" lon="8.041304375045002"><ele>1920.0999755859375</ele></trkpt><trkpt lat="46.70675017219037" lon="8.041312534827739"><ele>1919.6999816894531</ele></trkpt><trkpt lat="46.70668627182022" lon="8.041318360250443"><ele>1919.1999816894531</ele></trkpt><trkpt lat="46.706596250645816" lon="8.041330432984978"><ele>1919.0999755859375</ele></trkpt><trkpt lat="46.70650712912902" lon="8.0413425154984"><ele>1919.7999877929688</ele></trkpt><trkpt lat="46.70641710795462" lon="8.041354588232934"><ele>1920.7999877929688</ele></trkpt><trkpt lat="46.70632798643783" lon="8.041366670746356"><ele>1920.8999938964844</ele></trkpt><trkpt lat="46.706237972248346" lon="8.041377435438335"><ele>1920.6999816894531</ele></trkpt><trkpt lat="46.70614885073155" lon="8.041389517951757"><ele>1921.5</ele></trkpt><trkpt lat="46.70605882955715" lon="8.041401590686291"><ele>1922.5</ele></trkpt><trkpt lat="46.70596970804036" lon="8.041413672734052"><ele>1922.5999755859375</ele></trkpt><trkpt lat="46.705879686865956" lon="8.041425745002925"><ele>1922.2999877929688</ele></trkpt><trkpt lat="46.7057905648835" lon="8.041437827050686"><ele>1921.2999877929688</ele></trkpt><trkpt lat="46.705653733573854" lon="8.041455914732069"><ele>1919.0</ele></trkpt><trkpt lat="46.70557490736246" lon="8.041392267215997"><ele>1918.5999755859375</ele></trkpt><trkpt lat="46.70549698686227" lon="8.041327321436256"><ele>1918.0999755859375</ele></trkpt><trkpt lat="46.70541816065088" lon="8.041263673920184"><ele>1917.8999938964844</ele></trkpt><trkpt lat="46.70534023316577" lon="8.041200036648661"><ele>1917.3999938964844</ele></trkpt><trkpt lat="46.705261413473636" lon="8.041135082021356"><ele>1917.0</ele></trkpt><trkpt lat="46.70518258726224" lon="8.041071435436606"><ele>1918.7999877929688</ele></trkpt><trkpt lat="46.70510466117412" lon="8.041007799096406"><ele>1922.2999877929688</ele></trkpt><trkpt lat="46.70505002560094" lon="8.040962730068713"><ele>1925.8999938964844</ele></trkpt><trkpt lat="46.7050137729384" lon="8.040843328926712"><ele>1926.6999816894531</ele></trkpt><trkpt lat="46.70497752772644" lon="8.040722620673478"><ele>1928.1999816894531</ele></trkpt><trkpt lat="46.70494217472151" lon="8.040603230241686"><ele>1930.0</ele></trkpt><trkpt lat="46.70490592205897" lon="8.040483830031008"><ele>1931.1999816894531</ele></trkpt><trkpt lat="46.70486967591569" lon="8.040363122243434"><ele>1931.2999877929688</ele></trkpt><trkpt lat="46.70483432197943" lon="8.040243731811643"><ele>1930.8999938964844</ele></trkpt><trkpt lat="46.70479806885123" lon="8.040124331600964"><ele>1929.8999938964844</ele></trkpt><trkpt lat="46.70476182177663" lon="8.04000362381339"><ele>1928.3999938964844</ele></trkpt><trkpt lat="46.70472646737471" lon="8.03988423384726"><ele>1927.0</ele></trkpt><trkpt lat="46.70469021331519" lon="8.039764833636582"><ele>1925.5999755859375</ele></trkpt><trkpt lat="46.704653966706246" lon="8.039644126780331"><ele>1925.5</ele></trkpt><trkpt lat="46.70461771264672" lon="8.039524727500975"><ele>1926.5999755859375</ele></trkpt><trkpt lat="46.70458235824481" lon="8.039405338466167"><ele>1927.5</ele></trkpt><trkpt lat="46.7045461111702" lon="8.039284632075578"><ele>1928.5</ele></trkpt><trkpt lat="46.70450985711068" lon="8.039165233727545"><ele>1929.6999816894531</ele></trkpt><trkpt lat="46.7044745022431" lon="8.039045845158398"><ele>1930.0999755859375</ele></trkpt><trkpt lat="46.704438254702836" lon="8.038925138767809"><ele>1929.7999877929688</ele></trkpt><trkpt lat="46.70440199971199" lon="8.038805740419775"><ele>1929.2999877929688</ele></trkpt><trkpt lat="46.70436665136367" lon="8.038685044739395"><ele>1928.1999816894531</ele></trkpt><trkpt lat="46.704330395907164" lon="8.038565646391362"><ele>1926.3999938964844</ele></trkpt><trkpt lat="46.70430121989921" lon="8.03846855647862"><ele>1924.7999877929688</ele></trkpt><trkpt lat="46.70430039661005" lon="8.038470319937915"><ele>1922.6799926757812</ele></trkpt><trkpt lat="46.70429039699957" lon="8.038470319937915"><ele>1923.5899963378906</ele></trkpt><trkpt lat="46.70425039716065" lon="8.038450320251286"><ele>1924.2899780273438</ele></trkpt><trkpt lat="46.704200397245586" lon="8.038440320175141"><ele>1925.8099975585938</ele></trkpt><trkpt lat="46.704150397796184" lon="8.038410320412368"><ele>1927.0999755859375</ele></trkpt><trkpt lat="46.704070397652686" lon="8.038390320725739"><ele>1928.1699829101562</ele></trkpt><trkpt lat="46.70399039797485" lon="8.03835032088682"><ele>1929.22998046875</ele></trkpt><trkpt lat="46.70388039853424" lon="8.038250321522355"><ele>1932.3399963378906</ele></trkpt><trkpt lat="46.703870398923755" lon="8.038210321683437"><ele>1933.1899719238281</ele></trkpt><trkpt lat="46.70377039955929" lon="8.038190321996808"><ele>1936.0099792480469</ele></trkpt><trkpt lat="46.70373039972037" lon="8.03815032215789"><ele>1937.8399963378906</ele></trkpt><trkpt lat="46.7037003999576" lon="8.038160322699696"><ele>1938.8199768066406</ele></trkpt><trkpt lat="46.70366040058434" lon="8.038100322708488"><ele>1941.0899963378906</ele></trkpt><trkpt lat="46.70357040129602" lon="8.037980323657393"><ele>1945.6099853515625</ele></trkpt><trkpt lat="46.7035304014571" lon="8.03797032404691"><ele>1947.2099914550781</ele></trkpt><trkpt lat="46.70351040177047" lon="8.038000323809683"><ele>1947.6499938964844</ele></trkpt><trkpt lat="46.70350040169433" lon="8.038010323885828"><ele>1948.1699829101562</ele></trkpt><trkpt lat="46.70344040216878" lon="8.038020324427634"><ele>1950.2099914550781</ele></trkpt><trkpt lat="46.703450402244925" lon="8.03805032465607"><ele>1950.9599914550781</ele></trkpt><trkpt lat="46.70346040278673" lon="8.038070324342698"><ele>1951.719970703125</ele></trkpt><trkpt lat="46.703470402397215" lon="8.038080324418843"><ele>1951.8299865722656</ele></trkpt><trkpt lat="46.70346040278673" lon="8.038070324342698"><ele>1951.719970703125</ele></trkpt><trkpt lat="46.703450402244925" lon="8.03805032465607"><ele>1950.9599914550781</ele></trkpt><trkpt lat="46.70344040216878" lon="8.038020324427634"><ele>1950.2099914550781</ele></trkpt><trkpt lat="46.70350040169433" lon="8.038010323885828"><ele>1948.1699829101562</ele></trkpt><trkpt lat="46.70351040177047" lon="8.038000323809683"><ele>1947.6499938964844</ele></trkpt><trkpt lat="46.7035304014571" lon="8.03797032404691"><ele>1947.2099914550781</ele></trkpt><trkpt lat="46.70357040129602" lon="8.037980323657393"><ele>1945.6099853515625</ele></trkpt><trkpt lat="46.70366040058434" lon="8.038100322708488"><ele>1941.0899963378906</ele></trkpt><trkpt lat="46.7037003999576" lon="8.038160322699696"><ele>1938.8199768066406</ele></trkpt><trkpt lat="46.70373039972037" lon="8.03815032215789"><ele>1937.8399963378906</ele></trkpt><trkpt lat="46.70377039955929" lon="8.038190321996808"><ele>1936.0099792480469</ele></trkpt><trkpt lat="46.703870398923755" lon="8.038210321683437"><ele>1933.1899719238281</ele></trkpt><trkpt lat="46.70388039853424" lon="8.038250321522355"><ele>1932.3399963378906</ele></trkpt><trkpt lat="46.70399039797485" lon="8.03835032088682"><ele>1929.22998046875</ele></trkpt><trkpt lat="46.704070397652686" lon="8.038390320725739"><ele>1928.1699829101562</ele></trkpt><trkpt lat="46.704150397796184" lon="8.038410320412368"><ele>1927.0999755859375</ele></trkpt><trkpt lat="46.704200397245586" lon="8.038440320175141"><ele>1925.8099975585938</ele></trkpt><trkpt lat="46.70425039716065" lon="8.038450320251286"><ele>1924.2899780273438</ele></trkpt><trkpt lat="46.70429039699957" lon="8.038470319937915"><ele>1923.5899963378906</ele></trkpt><trkpt lat="46.704370396677405" lon="8.038470319937915"><ele>1921.7699890136719</ele></trkpt><trkpt lat="46.70447039604187" lon="8.038480319548398"><ele>1919.3399963378906</ele></trkpt><trkpt lat="46.70454039564356" lon="8.038500319235027"><ele>1917.739990234375</ele></trkpt><trkpt lat="46.7046203953214" lon="8.038540318608284"><ele>1915.8699951171875</ele></trkpt><trkpt lat="46.70469039492309" lon="8.038540318608284"><ele>1913.5999755859375</ele></trkpt><trkpt lat="46.7048003943637" lon="8.038580317981541"><ele>1910.3399963378906</ele></trkpt><trkpt lat="46.70493039349094" lon="8.038590317592025"><ele>1907.1199951171875</ele></trkpt><trkpt lat="46.70514039322734" lon="8.038630316965282"><ele>1904.5499877929688</ele></trkpt><trkpt lat="46.705220392905176" lon="8.03869031695649"><ele>1903.6999816894531</ele></trkpt><trkpt lat="46.70527039282024" lon="8.038760316558182"><ele>1903.0599975585938</ele></trkpt><trkpt lat="46.70530039258301" lon="8.038810316473246"><ele>1902.219970703125</ele></trkpt><trkpt lat="46.70534039242193" lon="8.03882031654939"><ele>1902.1399841308594</ele></trkpt><trkpt lat="46.70538039226085" lon="8.03882031608373"><ele>1900.5699768066406</ele></trkpt><trkpt lat="46.70550039131194" lon="8.03878031577915"><ele>1896.1799926757812</ele></trkpt><trkpt lat="46.70564039051533" lon="8.038780314847827"><ele>1891.219970703125</ele></trkpt><trkpt lat="46.705770389642566" lon="8.038880314212292"><ele>1886.6499938964844</ele></trkpt><trkpt lat="46.705790389329195" lon="8.038890313822776"><ele>1885.6699829101562</ele></trkpt><trkpt lat="46.70580038940534" lon="8.038870313670486"><ele>1885.0899963378906</ele></trkpt><trkpt lat="46.70580038893968" lon="8.03873031353578"><ele>1883.1999816894531</ele></trkpt><trkpt lat="46.70580038847402" lon="8.03871031338349"><ele>1881.3099975585938</ele></trkpt><trkpt lat="46.70575038716197" lon="8.038440311793238"><ele>1873.8999938964844</ele></trkpt><trkpt lat="46.70577038638294" lon="8.03838031180203"><ele>1871.739990234375</ele></trkpt><trkpt lat="46.70584038505331" lon="8.038160310592502"><ele>1864.6399841308594</ele></trkpt><trkpt lat="46.705880384892225" lon="8.038090310059488"><ele>1862.8499755859375</ele></trkpt><trkpt lat="46.70593038480729" lon="8.038020309992135"><ele>1862.5899963378906</ele></trkpt><trkpt lat="46.70602038409561" lon="8.037810309790075"><ele>1859.739990234375</ele></trkpt><trkpt lat="46.70611038384959" lon="8.03772030910477"><ele>1857.2799987792969</ele></trkpt><trkpt lat="46.70613038353622" lon="8.037650309037417"><ele>1856.4499816894531</ele></trkpt><trkpt lat="46.70619038306177" lon="8.037590308580548"><ele>1854.6299743652344</ele></trkpt><trkpt lat="46.706230382900685" lon="8.03751030843705"><ele>1853.1899719238281</ele></trkpt><trkpt lat="46.70626038266346" lon="8.037440308369696"><ele>1852.3699951171875</ele></trkpt><trkpt lat="46.706340382341295" lon="8.037370308302343"><ele>1852.0</ele></trkpt><trkpt lat="46.706400382798165" lon="8.03732030838728"><ele>1852.6299743652344</ele></trkpt><trkpt lat="46.70647038286552" lon="8.037280308548361"><ele>1853.2899780273438</ele></trkpt><trkpt lat="46.706550382543355" lon="8.037270308472216"><ele>1852.2599792480469</ele></trkpt><trkpt lat="46.70664038229734" lon="8.03726030793041"><ele>1849.8199768066406</ele></trkpt><trkpt lat="46.706700381822884" lon="8.037250307854265"><ele>1848.2699890136719</ele></trkpt><trkpt lat="46.70673038158566" lon="8.03724030777812"><ele>1847.6499938964844</ele></trkpt><trkpt lat="46.706770381424576" lon="8.03722030762583"><ele>1846.9499816894531</ele></trkpt><trkpt lat="46.70682038133964" lon="8.03720030747354"><ele>1845.7799987792969</ele></trkpt><trkpt lat="46.70688038133085" lon="8.03718030732125"><ele>1845.0899963378906</ele></trkpt><trkpt lat="46.706940381322056" lon="8.03718030732125"><ele>1844.8899841308594</ele></trkpt><trkpt lat="46.70699038123712" lon="8.03716030716896"><ele>1844.3899841308594</ele></trkpt><trkpt lat="46.70711038028821" lon="8.03714030655101"><ele>1841.3699951171875</ele></trkpt><trkpt lat="46.70714038005099" lon="8.03712030639872"><ele>1840.469970703125</ele></trkpt><trkpt lat="46.70717038027942" lon="8.03708030609414"><ele>1839.3999938964844</ele></trkpt><trkpt lat="46.707220379728824" lon="8.037000305950642"><ele>1837.72998046875</ele></trkpt><trkpt lat="46.70726037956774" lon="8.036940305959433"><ele>1836.9499816894531</ele></trkpt><trkpt lat="46.707310379482806" lon="8.03689030604437"><ele>1836.4599914550781</ele></trkpt><trkpt lat="46.70734037924558" lon="8.03685030573979"><ele>1836.3199768066406</ele></trkpt><trkpt lat="46.70736037939787" lon="8.0368303055875"><ele>1836.2899780273438</ele></trkpt><trkpt lat="46.7073803790845" lon="8.036790305748582"><ele>1835.6199951171875</ele></trkpt><trkpt lat="46.70740037923679" lon="8.036760305520147"><ele>1835.0999755859375</ele></trkpt><trkpt lat="46.70743037899956" lon="8.036740305367857"><ele>1834.97998046875</ele></trkpt><trkpt lat="46.707460379227996" lon="8.036720305681229"><ele>1834.6499938964844</ele></trkpt><trkpt lat="46.70747037883848" lon="8.036700305528939"><ele>1834.1399841308594</ele></trkpt><trkpt lat="46.7075103786774" lon="8.036660305224359"><ele>1833.219970703125</ele></trkpt><trkpt lat="46.707550378516316" lon="8.036610305309296"><ele>1831.9299926757812</ele></trkpt><trkpt lat="46.70758037781343" lon="8.036480304785073"><ele>1829.0399780273438</ele></trkpt><trkpt lat="46.70760037750006" lon="8.036360303871334"><ele>1825.72998046875</ele></trkpt><trkpt lat="46.707600377034396" lon="8.0362503034994"><ele>1823.3399963378906</ele></trkpt><trkpt lat="46.707600376568735" lon="8.036210303660482"><ele>1822.5999755859375</ele></trkpt><trkpt lat="46.7076503764838" lon="8.03621030319482"><ele>1821.5999755859375</ele></trkpt><trkpt lat="46.70769037632272" lon="8.036200303118676"><ele>1820.5699768066406</ele></trkpt><trkpt lat="46.70778037561104" lon="8.036130302585661"><ele>1817.5399780273438</ele></trkpt><trkpt lat="46.70783037506044" lon="8.036100302357227"><ele>1815.6799926757812</ele></trkpt><trkpt lat="46.70785037474707" lon="8.036040301900357"><ele>1813.469970703125</ele></trkpt><trkpt lat="46.70788037450984" lon="8.036000302061439"><ele>1812.7799987792969</ele></trkpt><trkpt lat="46.70792037434876" lon="8.035960301756859"><ele>1812.1199951171875</ele></trkpt><trkpt lat="46.707930374424905" lon="8.035870301537216"><ele>1810.8499755859375</ele></trkpt><trkpt lat="46.70793037395924" lon="8.035770301241428"><ele>1809.5</ele></trkpt><trkpt lat="46.707940373104066" lon="8.03548030089587"><ele>1805.2899780273438</ele></trkpt><trkpt lat="46.707960373256356" lon="8.035480300430208"><ele>1804.739990234375</ele></trkpt><trkpt lat="46.70822037290782" lon="8.035450300667435"><ele>1804.1999816894531</ele></trkpt><trkpt lat="46.70854037301615" lon="8.035420300439"><ele>1803.469970703125</ele></trkpt><trkpt lat="46.708620372693986" lon="8.035410300362855"><ele>1803.1299743652344</ele></trkpt><trkpt lat="46.70871037244797" lon="8.035350300371647"><ele>1802.3799743652344</ele></trkpt><trkpt lat="46.70875037275255" lon="8.035310300067067"><ele>1801.9499816894531</ele></trkpt><trkpt lat="46.708770372439176" lon="8.035300299990922"><ele>1801.8199768066406</ele></trkpt><trkpt lat="46.70884037250653" lon="8.035230299923569"><ele>1801.1899719238281</ele></trkpt><trkpt lat="46.70889037242159" lon="8.035180300008506"><ele>1800.72998046875</ele></trkpt><trkpt lat="46.70901037193835" lon="8.035070299636573"><ele>1799.75</ele></trkpt><trkpt lat="46.709090372081846" lon="8.035010299645364"><ele>1799.0699768066406</ele></trkpt><trkpt lat="46.70919037191197" lon="8.034940299578011"><ele>1798.2099914550781</ele></trkpt><trkpt lat="46.709300371818244" lon="8.034900299273431"><ele>1797.3299865722656</ele></trkpt><trkpt lat="46.70938037149608" lon="8.034890299197286"><ele>1796.5299987792969</ele></trkpt><trkpt lat="46.70946037117392" lon="8.034870299044997"><ele>1795.8399963378906</ele></trkpt><trkpt lat="46.709580371156335" lon="8.034820299129933"><ele>1794.6199951171875</ele></trkpt><trkpt lat="46.70965037122369" lon="8.034800298977643"><ele>1794.1499938964844</ele></trkpt><trkpt lat="46.709710370749235" lon="8.034800298977643"><ele>1793.5199890136719</ele></trkpt><trkpt lat="46.709860370494425" lon="8.034820298664272"><ele>1792.25</ele></trkpt><trkpt lat="46.709920370485634" lon="8.03486029850319"><ele>1791.739990234375</ele></trkpt><trkpt lat="46.71004037000239" lon="8.03499029809609"><ele>1790.2699890136719</ele></trkpt><trkpt lat="46.71011037006974" lon="8.03503029840067"><ele>1789.6499938964844</ele></trkpt><trkpt lat="46.710160369984806" lon="8.035050298087299"><ele>1789.2999877929688</ele></trkpt><trkpt lat="46.71026036981493" lon="8.035040298011154"><ele>1788.47998046875</ele></trkpt><trkpt lat="46.710330369882286" lon="8.035020297858864"><ele>1787.7999877929688</ele></trkpt><trkpt lat="46.71040036948398" lon="8.034980297554284"><ele>1787.0799865722656</ele></trkpt><trkpt lat="46.71049036923796" lon="8.034900297410786"><ele>1786.3599853515625</ele></trkpt><trkpt lat="46.71053036954254" lon="8.034870297648013"><ele>1785.9599914550781</ele></trkpt><trkpt lat="46.71060036914423" lon="8.034840297419578"><ele>1785.2799987792969</ele></trkpt><trkpt lat="46.71068036928773" lon="8.034850297495723"><ele>1784.4499816894531</ele></trkpt><trkpt lat="46.710820368956774" lon="8.034860297106206"><ele>1783.1299743652344</ele></trkpt><trkpt lat="46.710970368701965" lon="8.034900296945125"><ele>1781.7699890136719</ele></trkpt><trkpt lat="46.711060368455946" lon="8.034920296631753"><ele>1780.969970703125</ele></trkpt><trkpt lat="46.71117036836222" lon="8.034970296546817"><ele>1779.8299865722656</ele></trkpt><trkpt lat="46.71129036787897" lon="8.035030296538025"><ele>1778.8099975585938</ele></trkpt><trkpt lat="46.71137036802247" lon="8.035090296063572"><ele>1777.97998046875</ele></trkpt><trkpt lat="46.71146036777645" lon="8.035180296283215"><ele>1777.1299743652344</ele></trkpt><trkpt lat="46.71156036760658" lon="8.035270296037197"><ele>1776.22998046875</ele></trkpt><trkpt lat="46.7116003674455" lon="8.035290295723826"><ele>1775.8599853515625</ele></trkpt><trkpt lat="46.71164036728442" lon="8.03530029579997"><ele>1775.4499816894531</ele></trkpt><trkpt lat="46.711680367123336" lon="8.03530029579997"><ele>1775.0299987792969</ele></trkpt><trkpt lat="46.71175036719069" lon="8.035260295495391"><ele>1774.2899780273438</ele></trkpt><trkpt lat="46.71182036679238" lon="8.035190295428038"><ele>1773.2899780273438</ele></trkpt><trkpt lat="46.71188036678359" lon="8.035170295275748"><ele>1772.4299926757812</ele></trkpt><trkpt lat="46.71197036653757" lon="8.035160295199603"><ele>1771.2599792480469</ele></trkpt><trkpt lat="46.71218036580831" lon="8.035190294496715"><ele>1768.2999877929688</ele></trkpt><trkpt lat="46.71229036571458" lon="8.035230294335634"><ele>1766.7699890136719</ele></trkpt><trkpt lat="46.71229036524892" lon="8.03520029457286"><ele>1766.3099975585938</ele></trkpt><trkpt lat="46.71234036516398" lon="8.035170293878764"><ele>1764.3099975585938</ele></trkpt><trkpt lat="46.712500364519656" lon="8.035220293793827"><ele>1761.1799926757812</ele></trkpt><trkpt lat="46.7126403641887" lon="8.035240293480456"><ele>1759.2799987792969</ele></trkpt><trkpt lat="46.71273036394268" lon="8.035310293082148"><ele>1757.6899719238281</ele></trkpt><trkpt lat="46.712780363392085" lon="8.035330292768776"><ele>1756.6299743652344</ele></trkpt><trkpt lat="46.71281036362052" lon="8.035340292844921"><ele>1756.1699829101562</ele></trkpt><trkpt lat="46.71297036251053" lon="8.035520291887224"><ele>1751.7699890136719</ele></trkpt><trkpt lat="46.71301036234945" lon="8.035580291878432"><ele>1750.6199951171875</ele></trkpt><trkpt lat="46.713040362112224" lon="8.03560029156506"><ele>1749.8599853515625</ele></trkpt><trkpt lat="46.713060362264514" lon="8.03560029156506"><ele>1749.5299987792969</ele></trkpt><trkpt lat="46.71310036210343" lon="8.03560029156506"><ele>1748.989990234375</ele></trkpt><trkpt lat="46.713150362018496" lon="8.035610291641206"><ele>1748.2699890136719</ele></trkpt><trkpt lat="46.71321036154404" lon="8.035630291327834"><ele>1746.9099731445312</ele></trkpt><trkpt lat="46.71331036137417" lon="8.035680290777236"><ele>1744.7699890136719</ele></trkpt><trkpt lat="46.71334036113694" lon="8.035690290853381"><ele>1744.0499877929688</ele></trkpt><trkpt lat="46.71337036089972" lon="8.035660290624946"><ele>1742.6099853515625</ele></trkpt><trkpt lat="46.71340036066249" lon="8.035630290396512"><ele>1741.8999938964844</ele></trkpt><trkpt lat="46.71342036034912" lon="8.035620290320367"><ele>1740.4599914550781</ele></trkpt><trkpt lat="46.71349035995081" lon="8.035660289693624"><ele>1738.2999877929688</ele></trkpt><trkpt lat="46.71355035947636" lon="8.035680289845914"><ele>1736.8699951171875</ele></trkpt><trkpt lat="46.71364035923034" lon="8.035730289295316"><ele>1734.5099792480469</ele></trkpt><trkpt lat="46.71367035899311" lon="8.03578028921038"><ele>1733.6999816894531</ele></trkpt><trkpt lat="46.7136803586036" lon="8.035850289277732"><ele>1733.1099853515625</ele></trkpt><trkpt lat="46.71369035867974" lon="8.03589028911665"><ele>1732.219970703125</ele></trkpt><trkpt lat="46.71371035836637" lon="8.035900288727134"><ele>1731.2699890136719</ele></trkpt><trkpt lat="46.713720358442515" lon="8.03589028865099"><ele>1730.6599731445312</ele></trkpt><trkpt lat="46.713730358053" lon="8.0358702884987"><ele>1730.5</ele></trkpt><trkpt lat="46.713730358053" lon="8.035750288516283"><ele>1729.5</ele></trkpt><trkpt lat="46.71374035719782" lon="8.035650287754834"><ele>1726.2899780273438</ele></trkpt><trkpt lat="46.71378035703674" lon="8.0355402873829"><ele>1723.25</ele></trkpt><trkpt lat="46.71379035664722" lon="8.035500287543982"><ele>1722.6099853515625</ele></trkpt><trkpt lat="46.71377035649493" lon="8.035380287095904"><ele>1720.6799926757812</ele></trkpt><trkpt lat="46.71377035602927" lon="8.035300286952406"><ele>1719.6799926757812</ele></trkpt><trkpt lat="46.71377035602927" lon="8.035260286647826"><ele>1719.4399719238281</ele></trkpt><trkpt lat="46.71376035595313" lon="8.035200286656618"><ele>1718.9299926757812</ele></trkpt><trkpt lat="46.7137903557159" lon="8.035210286732763"><ele>1717.9299926757812</ele></trkpt><trkpt lat="46.713800355326384" lon="8.035230286419392"><ele>1716.8299865722656</ele></trkpt><trkpt lat="46.71383035508916" lon="8.035240286029875"><ele>1715.5499877929688</ele></trkpt><trkpt lat="46.7138403551653" lon="8.03527028625831"><ele>1714.7799987792969</ele></trkpt><trkpt lat="46.713870354928076" lon="8.035290285944939"><ele>1713.3799743652344</ele></trkpt><trkpt lat="46.71388035453856" lon="8.035320285707712"><ele>1712.5499877929688</ele></trkpt><trkpt lat="46.71390035422519" lon="8.035300285555422"><ele>1711.5599975585938</ele></trkpt><trkpt lat="46.71391035430133" lon="8.035230285022408"><ele>1709.7799987792969</ele></trkpt><trkpt lat="46.71391035383567" lon="8.03521028533578"><ele>1709.3199768066406</ele></trkpt><trkpt lat="46.71392035391182" lon="8.03515028487891"><ele>1708.3899841308594</ele></trkpt><trkpt lat="46.71391035383567" lon="8.035100284963846"><ele>1707.6799926757812</ele></trkpt><trkpt lat="46.71390035375953" lon="8.035040284972638"><ele>1707.0899963378906</ele></trkpt><trkpt lat="46.71389035321772" lon="8.034950284752995"><ele>1705.5399780273438</ele></trkpt><trkpt lat="46.713880352675915" lon="8.034850284457207"><ele>1703.5799865722656</ele></trkpt><trkpt lat="46.71389035275206" lon="8.034790284000337"><ele>1702.0799865722656</ele></trkpt><trkpt lat="46.71392035251483" lon="8.034780283924192"><ele>1701.0799865722656</ele></trkpt><trkpt lat="46.71394035220146" lon="8.034810283686966"><ele>1699.7799987792969</ele></trkpt><trkpt lat="46.713970351964235" lon="8.03484028344974"><ele>1698.1399841308594</ele></trkpt><trkpt lat="46.71398035157472" lon="8.03482028329745"><ele>1697.5299987792969</ele></trkpt><trkpt lat="46.71398035157472" lon="8.034790283069015"><ele>1697.0</ele></trkpt><trkpt lat="46.71400035126135" lon="8.034770282916725"><ele>1695.6899719238281</ele></trkpt><trkpt lat="46.71401035087183" lon="8.034710282925516"><ele>1694.5599975585938</ele></trkpt><trkpt lat="46.714000350330025" lon="8.034550282172859"><ele>1690.8799743652344</ele></trkpt><trkpt lat="46.71399034978822" lon="8.034460281953216"><ele>1689.0899963378906</ele></trkpt><trkpt lat="46.71399034978822" lon="8.034420281648636"><ele>1688.2899780273438</ele></trkpt><trkpt lat="46.714000349864364" lon="8.034410281572491"><ele>1687.8499755859375</ele></trkpt><trkpt lat="46.714050349313766" lon="8.034440281335264"><ele>1686.75</ele></trkpt><trkpt lat="46.71408034907654" lon="8.034470281098038"><ele>1685.5099792480469</ele></trkpt><trkpt lat="46.71411034883931" lon="8.034480281174183"><ele>1684.2999877929688</ele></trkpt><trkpt lat="46.71412034891546" lon="8.034510280936956"><ele>1683.489990234375</ele></trkpt><trkpt lat="46.714140348602086" lon="8.034520281013101"><ele>1682.7599792480469</ele></trkpt><trkpt lat="46.714160348288715" lon="8.034500280860811"><ele>1681.969970703125</ele></trkpt><trkpt lat="46.714180348441005" lon="8.034530280623585"><ele>1680.7099914550781</ele></trkpt><trkpt lat="46.71420034812763" lon="8.034530280157924"><ele>1679.75</ele></trkpt><trkpt lat="46.71423034789041" lon="8.034520280081779"><ele>1678.7799987792969</ele></trkpt><trkpt lat="46.714270347263664" lon="8.034600279759616"><ele>1675.4299926757812</ele></trkpt><trkpt lat="46.71429034695029" lon="8.0346102793701"><ele>1674.9499816894531</ele></trkpt><trkpt lat="46.71431034710258" lon="8.034580279607326"><ele>1673.989990234375</ele></trkpt><trkpt lat="46.71433034678921" lon="8.03457027906552"><ele>1673.0299987792969</ele></trkpt><trkpt lat="46.71436034608632" lon="8.034630279056728"><ele>1671.1099853515625</ele></trkpt><trkpt lat="46.71438034623861" lon="8.034610278904438"><ele>1670.6299743652344</ele></trkpt><trkpt lat="46.71439034631476" lon="8.034610278904438"><ele>1670.1499938964844</ele></trkpt><trkpt lat="46.71441034600139" lon="8.034640278667212"><ele>1669.1899719238281</ele></trkpt><trkpt lat="46.714430345688015" lon="8.034620278514922"><ele>1668.22998046875</ele></trkpt><trkpt lat="46.714450345374644" lon="8.034650278277695"><ele>1667.1699829101562</ele></trkpt><trkpt lat="46.71448034513742" lon="8.034680278040469"><ele>1665.4299926757812</ele></trkpt><trkpt lat="46.714520344510674" lon="8.034670277498662"><ele>1663.0799865722656</ele></trkpt><trkpt lat="46.714540344662964" lon="8.034690277650952"><ele>1661.8699951171875</ele></trkpt><trkpt lat="46.71458034403622" lon="8.034690277185291"><ele>1660.4599914550781</ele></trkpt><trkpt lat="46.714590344112366" lon="8.03473027702421"><ele>1659.4499816894531</ele></trkpt><trkpt lat="46.71462034387514" lon="8.03473027702421"><ele>1658.2799987792969</ele></trkpt><trkpt lat="46.71465034363791" lon="8.034770276863128"><ele>1656.9599914550781</ele></trkpt><trkpt lat="46.71469034301117" lon="8.034800276625901"><ele>1655.5499877929688</ele></trkpt><trkpt lat="46.714740342926234" lon="8.034850276075304"><ele>1653.9399719238281</ele></trkpt><trkpt lat="46.71490034228191" lon="8.03493027575314"><ele>1650.5799865722656</ele></trkpt><trkpt lat="46.714960341807455" lon="8.034950275439769"><ele>1648.6399841308594</ele></trkpt><trkpt lat="46.71504034101963" lon="8.035020275041461"><ele>1645.7899780273438</ele></trkpt><trkpt lat="46.71506034117192" lon="8.035070274490863"><ele>1644.72998046875</ele></trkpt><trkpt lat="46.71513034030795" lon="8.035110274329782"><ele>1641.7899780273438</ele></trkpt><trkpt lat="46.71515033999458" lon="8.035140274092555"><ele>1640.7799987792969</ele></trkpt><trkpt lat="46.71517034014687" lon="8.035140274092555"><ele>1640.0899963378906</ele></trkpt><trkpt lat="46.71523033967242" lon="8.03524027345702"><ele>1637.97998046875</ele></trkpt><trkpt lat="46.71528033912182" lon="8.035300273448229"><ele>1636.4199829101562</ele></trkpt><trkpt lat="46.71534033911303" lon="8.035320273134857"><ele>1635.0499877929688</ele></trkpt><trkpt lat="46.715380338951945" lon="8.03539027273655"><ele>1633.9599914550781</ele></trkpt><trkpt lat="46.71541033871472" lon="8.03541027288884"><ele>1633.3099975585938</ele></trkpt><trkpt lat="46.71546033816412" lon="8.035510272718966"><ele>1631.6799926757812</ele></trkpt><trkpt lat="46.71550033800304" lon="8.035570272244513"><ele>1630.5999755859375</ele></trkpt><trkpt lat="46.71552033815533" lon="8.035610272083431"><ele>1629.6999816894531</ele></trkpt><trkpt lat="46.71559033775702" lon="8.03565027192235"><ele>1628.239990234375</ele></trkpt><trkpt lat="46.71564033720642" lon="8.035680271685123"><ele>1626.4299926757812</ele></trkpt><trkpt lat="46.715690336655825" lon="8.035720271524042"><ele>1624.0699768066406</ele></trkpt><trkpt lat="46.7157203364186" lon="8.03576027136296"><ele>1622.739990234375</ele></trkpt><trkpt lat="46.71574033657089" lon="8.035770270973444"><ele>1621.7999877929688</ele></trkpt><trkpt lat="46.715780335944146" lon="8.035760270897299"><ele>1620.469970703125</ele></trkpt><trkpt lat="46.71579033602029" lon="8.035810270812362"><ele>1619.22998046875</ele></trkpt><trkpt lat="46.715780335478485" lon="8.03587027033791"><ele>1618.1399841308594</ele></trkpt><trkpt lat="46.71579033555463" lon="8.0358902704902"><ele>1617.5999755859375</ele></trkpt><trkpt lat="46.71581033524126" lon="8.035890270024538"><ele>1616.9199829101562</ele></trkpt><trkpt lat="46.71583033539355" lon="8.035860270261765"><ele>1616.1299743652344</ele></trkpt><trkpt lat="46.71585033508018" lon="8.035860269796103"><ele>1615.5899963378906</ele></trkpt><trkpt lat="46.71585033508018" lon="8.035880269948393"><ele>1615.1999816894531</ele></trkpt><trkpt lat="46.71586033469066" lon="8.035950269550085"><ele>1613.8099975585938</ele></trkpt><trkpt lat="46.715870334766805" lon="8.035990269389004"><ele>1613.0</ele></trkpt><trkpt lat="46.71595033397898" lon="8.03609026921913"><ele>1610.2999877929688</ele></trkpt><trkpt lat="46.715980333741754" lon="8.03609026921913"><ele>1609.489990234375</ele></trkpt><trkpt lat="46.7159903338179" lon="8.036090268753469"><ele>1609.1399841308594</ele></trkpt><trkpt lat="46.71602033311501" lon="8.035970268771052"><ele>1606.7799987792969</ele></trkpt><trkpt lat="46.716030333191156" lon="8.035920268390328"><ele>1606.239990234375</ele></trkpt><trkpt lat="46.716050333343446" lon="8.035920268390328"><ele>1605.719970703125</ele></trkpt><trkpt lat="46.7160903327167" lon="8.035970268305391"><ele>1604.1599731445312</ele></trkpt><trkpt lat="46.71611033286899" lon="8.03601026814431"><ele>1603.5099792480469</ele></trkpt><trkpt lat="46.71615033224225" lon="8.036030267830938"><ele>1602.22998046875</ele></trkpt><trkpt lat="46.71619033208117" lon="8.036040267441422"><ele>1601.0399780273438</ele></trkpt><trkpt lat="46.716250331606716" lon="8.03608026728034"><ele>1598.7599792480469</ele></trkpt><trkpt lat="46.716270331293344" lon="8.036130267195404"><ele>1597.739990234375</ele></trkpt><trkpt lat="46.716290331445634" lon="8.036150266882032"><ele>1597.1599731445312</ele></trkpt><trkpt lat="46.71632033120841" lon="8.036130266729742"><ele>1596.1999816894531</ele></trkpt><trkpt lat="46.71634033089504" lon="8.036130266729742"><ele>1595.5799865722656</ele></trkpt><trkpt lat="46.716380330733955" lon="8.03617026656866"><ele>1594.4099731445312</ele></trkpt><trkpt lat="46.71641033049673" lon="8.03617026656866"><ele>1593.6199951171875</ele></trkpt><trkpt lat="46.71648033009842" lon="8.036240266170353"><ele>1591.0699768066406</ele></trkpt><trkpt lat="46.71657032938674" lon="8.036340265534818"><ele>1588.1399841308594</ele></trkpt><trkpt lat="46.716600329615176" lon="8.036370265297592"><ele>1587.3099975585938</ele></trkpt><trkpt lat="46.71663032937795" lon="8.036370265297592"><ele>1586.8099975585938</ele></trkpt><trkpt lat="46.71666032914072" lon="8.036390265449882"><ele>1586.4399719238281</ele></trkpt><trkpt lat="46.71669032936916" lon="8.036420265212655"><ele>1586.0399780273438</ele></trkpt><trkpt lat="46.716730328742415" lon="8.036430264823139"><ele>1584.7899780273438</ele></trkpt><trkpt lat="46.716750328894705" lon="8.036440264899284"><ele>1584.239990234375</ele></trkpt><trkpt lat="46.71678032865748" lon="8.036510264500976"><ele>1582.9199829101562</ele></trkpt><trkpt lat="46.71680032834411" lon="8.03652026457712"><ele>1582.3799743652344</ele></trkpt><trkpt lat="46.71683032810688" lon="8.036530264653265"><ele>1581.2699890136719</ele></trkpt><trkpt lat="46.71685032825917" lon="8.03654026426375"><ele>1580.969970703125</ele></trkpt><trkpt lat="46.7168703279458" lon="8.03654026426375"><ele>1580.6999816894531</ele></trkpt><trkpt lat="46.7168703279458" lon="8.03654026426375"><ele>1580.6599731445312</ele></trkpt><trkpt lat="46.7168703279458" lon="8.036510264500976"><ele>1580.3599853515625</ele></trkpt><trkpt lat="46.7168703279458" lon="8.03650026442483"><ele>1580.219970703125</ele></trkpt><trkpt lat="46.7168703279458" lon="8.03650026442483"><ele>1580.1899719238281</ele></trkpt><trkpt lat="46.71689032809809" lon="8.03650026442483"><ele>1579.969970703125</ele></trkpt><trkpt lat="46.71692032786086" lon="8.03652026411146"><ele>1578.72998046875</ele></trkpt><trkpt lat="46.71694032754749" lon="8.036540263798088"><ele>1578.2599792480469</ele></trkpt><trkpt lat="46.716970327310264" lon="8.036560263950378"><ele>1577.5799865722656</ele></trkpt><trkpt lat="46.71698032738641" lon="8.036550263874233"><ele>1577.0599975585938</ele></trkpt><trkpt lat="46.717040326911956" lon="8.036540263798088"><ele>1575.8799743652344</ele></trkpt><trkpt lat="46.717080326750875" lon="8.036520263645798"><ele>1575.0099792480469</ele></trkpt><trkpt lat="46.71713032666594" lon="8.036500263493508"><ele>1574.1299743652344</ele></trkpt><trkpt lat="46.717210326343775" lon="8.036460263188928"><ele>1573.0199890136719</ele></trkpt><trkpt lat="46.717250326648355" lon="8.036460263188928"><ele>1572.8899841308594</ele></trkpt><trkpt lat="46.71729032648727" lon="8.036440263036638"><ele>1572.5799865722656</ele></trkpt><trkpt lat="46.71735032601282" lon="8.036460262723267"><ele>1571.469970703125</ele></trkpt><trkpt lat="46.717380326241255" lon="8.036460262723267"><ele>1570.72998046875</ele></trkpt><trkpt lat="46.71742032608017" lon="8.036470262799412"><ele>1569.6999816894531</ele></trkpt><trkpt lat="46.71746032545343" lon="8.036500262562186"><ele>1568.3399963378906</ele></trkpt><trkpt lat="46.717490325216204" lon="8.036500262096524"><ele>1567.3999938964844</ele></trkpt><trkpt lat="46.71752032497898" lon="8.036530261859298"><ele>1565.5199890136719</ele></trkpt><trkpt lat="46.717560324817896" lon="8.036570261698216"><ele>1564.0299987792969</ele></trkpt><trkpt lat="46.717600324656814" lon="8.0365802613087"><ele>1562.6899719238281</ele></trkpt><trkpt lat="46.71764032403007" lon="8.036610261071473"><ele>1561.2899780273438</ele></trkpt><trkpt lat="46.71766032418236" lon="8.036640261299908"><ele>1560.489990234375</ele></trkpt><trkpt lat="46.71766032418236" lon="8.036670261062682"><ele>1560.2899780273438</ele></trkpt><trkpt lat="46.717670323792845" lon="8.036680261138827"><ele>1560.1999816894531</ele></trkpt><trkpt lat="46.717690323945135" lon="8.0367102609016"><ele>1559.6699829101562</ele></trkpt><trkpt lat="46.71771032363176" lon="8.036720260977745"><ele>1559.3799743652344</ele></trkpt><trkpt lat="46.71772032370791" lon="8.03673026105389"><ele>1559.1399841308594</ele></trkpt><trkpt lat="46.71775032347068" lon="8.03673026105389"><ele>1558.7999877929688</ele></trkpt><trkpt lat="46.71781032346189" lon="8.0367102609016"><ele>1558.1599731445312</ele></trkpt><trkpt lat="46.71781032346189" lon="8.0367102609016"><ele>1558.0799865722656</ele></trkpt><trkpt lat="46.71783032361418" lon="8.03669026074931"><ele>1557.8499755859375</ele></trkpt><trkpt lat="46.717860323376954" lon="8.03667026059702"><ele>1557.4499816894531</ele></trkpt><trkpt lat="46.71794032305479" lon="8.036600260529667"><ele>1556.3899841308594</ele></trkpt><trkpt lat="46.717970323283225" lon="8.036570260301232"><ele>1555.9399719238281</ele></trkpt><trkpt lat="46.718000323046" lon="8.036540260072798"><ele>1555.489990234375</ele></trkpt><trkpt lat="46.71805032296106" lon="8.036470260005444"><ele>1554.6499938964844</ele></trkpt><trkpt lat="46.71809032279998" lon="8.036380259785801"><ele>1553.6799926757812</ele></trkpt><trkpt lat="46.718100322410464" lon="8.036340259946883"><ele>1553.3299865722656</ele></trkpt><trkpt lat="46.7181303226389" lon="8.03625025972724"><ele>1552.4499816894531</ele></trkpt><trkpt lat="46.71816032240167" lon="8.036170259583741"><ele>1551.5499877929688</ele></trkpt><trkpt lat="46.718190322164446" lon="8.036110259592533"><ele>1550.7599792480469</ele></trkpt><trkpt lat="46.71820032224059" lon="8.036100259516388"><ele>1550.7099914550781</ele></trkpt><trkpt lat="46.718210321851075" lon="8.036090259440243"><ele>1550.47998046875</ele></trkpt><trkpt lat="46.71824032207951" lon="8.036070259287953"><ele>1550.0</ele></trkpt><trkpt lat="46.71828032191843" lon="8.036070259287953"><ele>1549.3499755859375</ele></trkpt><trkpt lat="46.71837032167241" lon="8.036080258898437"><ele>1548.239990234375</ele></trkpt><trkpt lat="46.71839032135904" lon="8.036100259050727"><ele>1548.0</ele></trkpt><trkpt lat="46.718490321189165" lon="8.036190258804709"><ele>1546.4299926757812</ele></trkpt><trkpt lat="46.71860032109544" lon="8.036310258787125"><ele>1544.9199829101562</ele></trkpt><trkpt lat="46.718660320620984" lon="8.036390258464962"><ele>1544.0099792480469</ele></trkpt><trkpt lat="46.71872032061219" lon="8.036530258134007"><ele>1542.8099975585938</ele></trkpt><trkpt lat="46.71876032045111" lon="8.03664025804028"><ele>1541.7799987792969</ele></trkpt><trkpt lat="46.718770320061594" lon="8.036700258031487"><ele>1541.3499755859375</ele></trkpt><trkpt lat="46.718790320213884" lon="8.036800257861614"><ele>1540.5799865722656</ele></trkpt><trkpt lat="46.71879031974822" lon="8.036860257852823"><ele>1540.0899963378906</ele></trkpt><trkpt lat="46.71879031974822" lon="8.036880258005112"><ele>1539.9099731445312</ele></trkpt><trkpt lat="46.71879031974822" lon="8.03696025768295"><ele>1539.3099975585938</ele></trkpt><trkpt lat="46.71879031974822" lon="8.036970257759094"><ele>1539.2999877929688</ele></trkpt><trkpt lat="46.71879031974822" lon="8.037020257674158"><ele>1538.969970703125</ele></trkpt><trkpt lat="46.71878031967208" lon="8.037140257656574"><ele>1537.97998046875</ele></trkpt><trkpt lat="46.71873031929135" lon="8.037370257079601"><ele>1536.7699890136719</ele></trkpt></trkseg></trk></gpx>