<?xml version="1.0" encoding="utf-8"?><gpx version="1.1" creator="MySchweizMobil - https://map.schweizmobil.ch/" xmlns:xsi="http://www.w3.org/2001/XMLSchema-instance" xmlns="http://www.topografix.com/GPX/1/1" xsi:schemaLocation="http://www.topografix.com/GPX/1/1 http://www.topografix.com/GPX/1/1/gpx.xsd"><metadata><name>Giessbach to Iseltwald</name><bounds minlat="46.7109101228416" minlon="7.9628800987266" maxlat="46.73600012436509" maxlon="8.02475011581555" /></metadata><trk><name>Giessbach to Iseltwald</name><trkseg><trkpt lat="46.734790123067796" lon="8.01953009981662"><ele>566.6299743652344</ele></trkpt><trkpt lat="46.73488012328744" lon="8.019640099722892"><ele>566.5599975585938</ele></trkpt><trkpt lat="46.73492012312636" lon="8.019590099342167"><ele>565.969970703125</ele></trkpt><trkpt lat="46.73497012304142" lon="8.019670099485666"><ele>565.6699829101562</ele></trkpt><trkpt lat="46.735060123261064" lon="8.019910099450499"><ele>565.6099853515625</ele></trkpt><trkpt lat="46.735020123422146" lon="8.019940099678934"><ele>566.5099792480469</ele></trkpt><trkpt lat="46.735000123269856" lon="8.019950099755079"><ele>567.1099853515625</ele></trkpt><trkpt lat="46.735020123422146" lon="8.020010099746287"><ele>568.5199890136719</ele></trkpt><trkpt lat="46.73500012373552" lon="8.020030100364238"><ele>570.0699768066406</ele></trkpt><trkpt lat="46.734990124125034" lon="8.020050100516528"><ele>571.47998046875</ele></trkpt><trkpt lat="46.73506012465805" lon="8.020170100498945"><ele>573.0299987792969</ele></trkpt><trkpt lat="46.73508012481034" lon="8.020260100718588"><ele>573.9499816894531</ele></trkpt><trkpt lat="46.735180125106126" lon="8.020510100759566"><ele>574.8099975585938</ele></trkpt><trkpt lat="46.73523012502119" lon="8.020600100979209"><ele>575.239990234375</ele></trkpt><trkpt lat="46.73526012478396" lon="8.020680101122707"><ele>575.239990234375</ele></trkpt><trkpt lat="46.7352901250124" lon="8.02073010103777"><ele>574.989990234375</ele></trkpt><trkpt lat="46.73531012516469" lon="8.020790101028979"><ele>574.8999938964844</ele></trkpt><trkpt lat="46.73538012430072" lon="8.020830100402236"><ele>572.1399841308594</ele></trkpt><trkpt lat="46.73549012374133" lon="8.020940100308508"><ele>569.7999877929688</ele></trkpt><trkpt lat="46.7356001236476" lon="8.021100100129843"><ele>569.3599853515625</ele></trkpt><trkpt lat="46.7356801237911" lon="8.02116009965539"><ele>568.1799926757812</ele></trkpt><trkpt lat="46.73575012339279" lon="8.021250099409372"><ele>566.7699890136719</ele></trkpt><trkpt lat="46.73579012323171" lon="8.021290099713951"><ele>566.4399719238281</ele></trkpt><trkpt lat="46.73585012322292" lon="8.021440099459141"><ele>566.8699951171875</ele></trkpt><trkpt lat="46.73590012360364" lon="8.02156009990722"><ele>568.239990234375</ele></trkpt><trkpt lat="46.73592012375593" lon="8.021600099746138"><ele>568.75</ele></trkpt><trkpt lat="46.735990124288946" lon="8.021790100261569"><ele>571.9099731445312</ele></trkpt><trkpt lat="46.73600012436509" lon="8.021830100566149"><ele>572.4299926757812</ele></trkpt><trkpt lat="46.735990124288946" lon="8.021840100642294"><ele>572.5899963378906</ele></trkpt><trkpt lat="46.73597012460232" lon="8.021840100642294"><ele>572.8699951171875</ele></trkpt><trkpt lat="46.7359301247634" lon="8.02179010072723"><ele>573.8199768066406</ele></trkpt><trkpt lat="46.735900125000626" lon="8.021760100964457"><ele>574.1899719238281</ele></trkpt><trkpt lat="46.73583012493327" lon="8.021680100820959"><ele>575.1499938964844</ele></trkpt><trkpt lat="46.7356701255776" lon="8.021540101617575"><ele>578.47998046875</ele></trkpt><trkpt lat="46.73558012628928" lon="8.021390101872385"><ele>580.4299926757812</ele></trkpt><trkpt lat="46.73552012629807" lon="8.021280101966113"><ele>582.0299987792969</ele></trkpt><trkpt lat="46.73546012677252" lon="8.021220102440566"><ele>583.2799987792969</ele></trkpt><trkpt lat="46.735380127094686" lon="8.021180102601647"><ele>584.7799987792969</ele></trkpt><trkpt lat="46.735270127188414" lon="8.021070102695376"><ele>586.8999938964844</ele></trkpt><trkpt lat="46.73521012766287" lon="8.021030102856457"><ele>587.9099731445312</ele></trkpt><trkpt lat="46.73520012758672" lon="8.021020103245974"><ele>588.3099975585938</ele></trkpt><trkpt lat="46.73519012751058" lon="8.021040102932602"><ele>588.5499877929688</ele></trkpt><trkpt lat="46.735200128052384" lon="8.021080103237182"><ele>589.4199829101562</ele></trkpt><trkpt lat="46.73528012819588" lon="8.021220103371888"><ele>591.0199890136719</ele></trkpt><trkpt lat="46.735350128263235" lon="8.021350103896111"><ele>592.2999877929688</ele></trkpt><trkpt lat="46.735390128567815" lon="8.02141010388732"><ele>593.5899963378906</ele></trkpt><trkpt lat="46.73546012956649" lon="8.021660104393959"><ele>596.8499755859375</ele></trkpt><trkpt lat="46.7355201295577" lon="8.021790104918182"><ele>598.6099853515625</ele></trkpt><trkpt lat="46.73554012970999" lon="8.021880105137825"><ele>599.5199890136719</ele></trkpt><trkpt lat="46.73554013017565" lon="8.021930105052888"><ele>600.25</ele></trkpt><trkpt lat="46.735530130099505" lon="8.021950105205178"><ele>600.4599914550781</ele></trkpt><trkpt lat="46.73550013033673" lon="8.021960105281323"><ele>601.0599975585938</ele></trkpt><trkpt lat="46.73546013049781" lon="8.021960105281323"><ele>601.7699890136719</ele></trkpt><trkpt lat="46.73533013090491" lon="8.021850105840713"><ele>603.97998046875</ele></trkpt><trkpt lat="46.73520013131201" lon="8.021790105849504"><ele>606.2899780273438</ele></trkpt><trkpt lat="46.73504013195634" lon="8.021750106476247"><ele>609.0399780273438</ele></trkpt><trkpt lat="46.73498013196513" lon="8.021730106789619"><ele>609.9599914550781</ele></trkpt><trkpt lat="46.73493013205007" lon="8.021660106722265"><ele>611.0799865722656</ele></trkpt><trkpt lat="46.734880132600665" lon="8.021620106883347"><ele>612.239990234375</ele></trkpt><trkpt lat="46.734860132448375" lon="8.021620107349008"><ele>612.9299926757812</ele></trkpt><trkpt lat="46.73484013276175" lon="8.021640107035637"><ele>613.4599914550781</ele></trkpt><trkpt lat="46.73484013276175" lon="8.021700107492507"><ele>613.8199768066406</ele></trkpt><trkpt lat="46.734900133218616" lon="8.021800107322633"><ele>615.4299926757812</ele></trkpt><trkpt lat="46.73497013328597" lon="8.021900107618421"><ele>617.239990234375</ele></trkpt><trkpt lat="46.735080134123564" lon="8.0220201080665"><ele>619.739990234375</ele></trkpt><trkpt lat="46.73520013457164" lon="8.022100108675659"><ele>621.8699951171875</ele></trkpt><trkpt lat="46.735250134486705" lon="8.022170108743012"><ele>623.0399780273438</ele></trkpt><trkpt lat="46.735290134791285" lon="8.022240108810365"><ele>624.3899841308594</ele></trkpt><trkpt lat="46.735290135256946" lon="8.022280109114945"><ele>625.0599975585938</ele></trkpt><trkpt lat="46.7352801351808" lon="8.022300109267235"><ele>625.3299865722656</ele></trkpt><trkpt lat="46.73525013541803" lon="8.022300109267235"><ele>626.0299987792969</ele></trkpt><trkpt lat="46.7351501355879" lon="8.022260109428316"><ele>628.1299743652344</ele></trkpt><trkpt lat="46.735010135918856" lon="8.022270109970123"><ele>629.3599853515625</ele></trkpt><trkpt lat="46.73487013624981" lon="8.022310110274702"><ele>631.489990234375</ele></trkpt><trkpt lat="46.73486013663933" lon="8.02235011011362"><ele>631.969970703125</ele></trkpt><trkpt lat="46.73486013663933" lon="8.022380110342056"><ele>632.25</ele></trkpt><trkpt lat="46.73487013671547" lon="8.022410110104829"><ele>632.6199951171875</ele></trkpt><trkpt lat="46.73488013679162" lon="8.022450110409409"><ele>633.1699829101562</ele></trkpt><trkpt lat="46.734920136630535" lon="8.022480110637844"><ele>633.7699890136719</ele></trkpt><trkpt lat="46.73499013716355" lon="8.022520110942423"><ele>635.0999755859375</ele></trkpt><trkpt lat="46.735020137391984" lon="8.022540110629052"><ele>635.719970703125</ele></trkpt><trkpt lat="46.73508013738319" lon="8.022560110781342"><ele>636.8099975585938</ele></trkpt><trkpt lat="46.73514013784006" lon="8.022580110933632"><ele>637.6099853515625</ele></trkpt><trkpt lat="46.73524013813585" lon="8.022580111399293"><ele>639.1899719238281</ele></trkpt><trkpt lat="46.73528013797477" lon="8.022580111399293"><ele>639.5299987792969</ele></trkpt><trkpt lat="46.73530013812706" lon="8.022590111475438"><ele>639.8399963378906</ele></trkpt><trkpt lat="46.73530013812706" lon="8.022620111703873"><ele>640.1699829101562</ele></trkpt><trkpt lat="46.73528013844043" lon="8.022640111390501"><ele>640.5299987792969</ele></trkpt><trkpt lat="46.73516013845801" lon="8.022690111771226"><ele>641.9599914550781</ele></trkpt><trkpt lat="46.73504013894126" lon="8.022770112380385"><ele>644.1499938964844</ele></trkpt><trkpt lat="46.73493013950065" lon="8.02282011276111"><ele>646.3199768066406</ele></trkpt><trkpt lat="46.73490013927221" lon="8.022850112523884"><ele>646.7599792480469</ele></trkpt><trkpt lat="46.734900139737874" lon="8.022880112752318"><ele>647.0399780273438</ele></trkpt><trkpt lat="46.73491013934836" lon="8.022900112904608"><ele>647.1899719238281</ele></trkpt><trkpt lat="46.73493013950065" lon="8.022900112904608"><ele>647.4299926757812</ele></trkpt><trkpt lat="46.73497013980523" lon="8.022880112752318"><ele>647.8999938964844</ele></trkpt><trkpt lat="46.73504013987258" lon="8.02286011306569"><ele>648.6499938964844</ele></trkpt><trkpt lat="46.73508014017716" lon="8.02286011306569"><ele>649.4599914550781</ele></trkpt><trkpt lat="46.735150140244514" lon="8.022870113141835"><ele>650.5899963378906</ele></trkpt><trkpt lat="46.73521014070138" lon="8.02290011337027"><ele>651.6999816894531</ele></trkpt><trkpt lat="46.73526014061645" lon="8.022930113598704"><ele>652.5699768066406</ele></trkpt><trkpt lat="46.73530014092103" lon="8.022930113598704"><ele>653.1799926757812</ele></trkpt><trkpt lat="46.7353301406838" lon="8.022910113912076"><ele>653.6399841308594</ele></trkpt><trkpt lat="46.73537014098838" lon="8.022860113997012"><ele>654.5799865722656</ele></trkpt><trkpt lat="46.735400141216815" lon="8.022830113768578"><ele>655.25</ele></trkpt><trkpt lat="46.73543014144525" lon="8.022830114234239"><ele>655.7599792480469</ele></trkpt><trkpt lat="46.735440141521394" lon="8.022830114234239"><ele>655.989990234375</ele></trkpt><trkpt lat="46.735440141521394" lon="8.022850113920867"><ele>656.1199951171875</ele></trkpt><trkpt lat="46.73543014144525" lon="8.022890114225447"><ele>656.6399841308594</ele></trkpt><trkpt lat="46.73541014175862" lon="8.022930114530027"><ele>657.1899719238281</ele></trkpt><trkpt lat="46.7353701419197" lon="8.02298011444509"><ele>657.8199768066406</ele></trkpt><trkpt lat="46.735290142241865" lon="8.02302011474967"><ele>659.1899719238281</ele></trkpt><trkpt lat="46.73522014217451" lon="8.023030114825815"><ele>659.8799743652344</ele></trkpt><trkpt lat="46.735160142183304" lon="8.02302011474967"><ele>659.7999877929688</ele></trkpt><trkpt lat="46.73511014226824" lon="8.02302011474967"><ele>660.0699768066406</ele></trkpt><trkpt lat="46.73507014242932" lon="8.02306011505425"><ele>661.0599975585938</ele></trkpt><trkpt lat="46.735030142590404" lon="8.023130115121603"><ele>661.739990234375</ele></trkpt><trkpt lat="46.735010142438114" lon="8.023160115350038"><ele>662.4199829101562</ele></trkpt><trkpt lat="46.735010142903775" lon="8.023210115265101"><ele>662.6799926757812</ele></trkpt><trkpt lat="46.735030142590404" lon="8.023340115323663"><ele>662.7599792480469</ele></trkpt><trkpt lat="46.73506014281884" lon="8.023490115068853"><ele>662.8599853515625</ele></trkpt><trkpt lat="46.7351101427339" lon="8.023700115270913"><ele>662.97998046875</ele></trkpt><trkpt lat="46.735180142801255" lon="8.023890115320683"><ele>663.4099731445312</ele></trkpt><trkpt lat="46.735200142953545" lon="8.02395011531189"><ele>663.6199951171875</ele></trkpt><trkpt lat="46.73523014318198" lon="8.02399011561647"><ele>664.0799865722656</ele></trkpt><trkpt lat="46.73530014324933" lon="8.024290115572512"><ele>664.6599731445312</ele></trkpt><trkpt lat="46.735370143316686" lon="8.024530115537345"><ele>665.3699951171875</ele></trkpt><trkpt lat="46.73531014332548" lon="8.024550115689635"><ele>665.2999877929688</ele></trkpt><trkpt lat="46.73529014317319" lon="8.02456011576578"><ele>665.3999938964844</ele></trkpt><trkpt lat="46.73527014348656" lon="8.024620115756989"><ele>665.8799743652344</ele></trkpt><trkpt lat="46.735240143258125" lon="8.024670115672052"><ele>666.22998046875</ele></trkpt><trkpt lat="46.735200143419206" lon="8.024710115976632"><ele>666.47998046875</ele></trkpt><trkpt lat="46.73517014365643" lon="8.024730116128922"><ele>666.8399963378906</ele></trkpt><trkpt lat="46.735130143817514" lon="8.02475011581555"><ele>667.1899719238281</ele></trkpt><trkpt lat="46.73508014390245" lon="8.02475011581555"><ele>667.6699829101562</ele></trkpt><trkpt lat="46.73502014391124" lon="8.024720116052777"><ele>668.3199768066406</ele></trkpt><trkpt lat="46.73489014431834" lon="8.024630116298795"><ele>670.2999877929688</ele></trkpt><trkpt lat="46.73471014481038" lon="8.024500116705894"><ele>672.0</ele></trkpt><trkpt lat="46.734700144734234" lon="8.02449011662975"><ele>672.0699768066406</ele></trkpt><trkpt lat="46.73463014466688" lon="8.024380116723478"><ele>672.0099792480469</ele></trkpt><trkpt lat="46.734620144590735" lon="8.024360116571188"><ele>672.0</ele></trkpt><trkpt lat="46.734620144590735" lon="8.024360116571188"><ele>671.6399841308594</ele></trkpt><trkpt lat="46.73461014451459" lon="8.024350116495043"><ele>671.72998046875</ele></trkpt><trkpt lat="46.734600144438446" lon="8.02434011688456"><ele>672.0</ele></trkpt><trkpt lat="46.73458014475182" lon="8.024310116656125"><ele>672.0</ele></trkpt><trkpt lat="46.73458014475182" lon="8.024310116656125"><ele>671.8099975585938</ele></trkpt><trkpt lat="46.73457014467567" lon="8.024290116503835"><ele>672.0</ele></trkpt><trkpt lat="46.734510144684464" lon="8.024240116588771"><ele>672.2999877929688</ele></trkpt><trkpt lat="46.73448014492169" lon="8.024230116978288"><ele>672.5199890136719</ele></trkpt><trkpt lat="46.73439014516771" lon="8.024210116825998"><ele>673.7999877929688</ele></trkpt><trkpt lat="46.73435014532879" lon="8.024180117063224"><ele>674.5</ele></trkpt><trkpt lat="46.7343301451765" lon="8.024160117376596"><ele>674.8699951171875</ele></trkpt><trkpt lat="46.734320145100355" lon="8.02415011730045"><ele>675.0999755859375</ele></trkpt><trkpt lat="46.73429014533758" lon="8.024090117309242"><ele>676.0299987792969</ele></trkpt><trkpt lat="46.73428014526144" lon="8.024070117622614"><ele>676.3999938964844</ele></trkpt><trkpt lat="46.7342801457271" lon="8.024030117783695"><ele>677.1899719238281</ele></trkpt><trkpt lat="46.73426014557481" lon="8.023950117640197"><ele>677.5999755859375</ele></trkpt><trkpt lat="46.73424014588818" lon="8.023890117648989"><ele>677.739990234375</ele></trkpt><trkpt lat="46.73422014573589" lon="8.02383011765778"><ele>677.8199768066406</ele></trkpt><trkpt lat="46.73422014573589" lon="8.02383011765778"><ele>677.8999938964844</ele></trkpt><trkpt lat="46.73424014588818" lon="8.023890117648989"><ele>677.739990234375</ele></trkpt><trkpt lat="46.73426014557481" lon="8.023950117640197"><ele>677.5999755859375</ele></trkpt><trkpt lat="46.7342801457271" lon="8.024030117783695"><ele>677.1899719238281</ele></trkpt><trkpt lat="46.73428014526144" lon="8.024070117622614"><ele>676.3999938964844</ele></trkpt><trkpt lat="46.73429014533758" lon="8.024090117309242"><ele>676.0299987792969</ele></trkpt><trkpt lat="46.734320145100355" lon="8.02415011730045"><ele>675.0999755859375</ele></trkpt><trkpt lat="46.7343301451765" lon="8.024160117376596"><ele>674.8699951171875</ele></trkpt><trkpt lat="46.73435014532879" lon="8.024180117063224"><ele>674.5</ele></trkpt><trkpt lat="46.73439014516771" lon="8.024210116825998"><ele>673.7999877929688</ele></trkpt><trkpt lat="46.73448014492169" lon="8.024230116978288"><ele>672.5199890136719</ele></trkpt><trkpt lat="46.734510144684464" lon="8.024240116588771"><ele>672.2999877929688</ele></trkpt><trkpt lat="46.73457014467567" lon="8.024290116503835"><ele>672.0</ele></trkpt><trkpt lat="46.73458014475182" lon="8.024310116656125"><ele>671.8099975585938</ele></trkpt><trkpt lat="46.73458014475182" lon="8.024310116656125"><ele>672.0</ele></trkpt><trkpt lat="46.734600144438446" lon="8.02434011688456"><ele>672.0</ele></trkpt><trkpt lat="46.73461014451459" lon="8.024350116495043"><ele>671.72998046875</ele></trkpt><trkpt lat="46.734620144590735" lon="8.024360116571188"><ele>671.6399841308594</ele></trkpt><trkpt lat="46.73463014466688" lon="8.024340116418898"><ele>671.4399719238281</ele></trkpt><trkpt lat="46.73469014419243" lon="8.024380116257817"><ele>669.8999938964844</ele></trkpt><trkpt lat="46.734690143726766" lon="8.024320116266608"><ele>668.8099975585938</ele></trkpt><trkpt lat="46.734710143879056" lon="8.024270115885884"><ele>667.3899841308594</ele></trkpt><trkpt lat="46.73468014318496" lon="8.02418011566624"><ele>665.5399780273438</ele></trkpt><trkpt lat="46.734650142956525" lon="8.024130115751177"><ele>664.5399780273438</ele></trkpt><trkpt lat="46.73462014272809" lon="8.024060115218163"><ele>663.0899963378906</ele></trkpt><trkpt lat="46.734590142499655" lon="8.02399011515081"><ele>661.7699890136719</ele></trkpt><trkpt lat="46.73456014227122" lon="8.02395011484623"><ele>660.2699890136719</ele></trkpt><trkpt lat="46.734570141881704" lon="8.023920114617795"><ele>658.989990234375</ele></trkpt><trkpt lat="46.734640141483396" lon="8.02391011454165"><ele>657.219970703125</ele></trkpt><trkpt lat="46.73471014108509" lon="8.023890113923699"><ele>654.9599914550781</ele></trkpt><trkpt lat="46.73474014084786" lon="8.023850113619119"><ele>653.0399780273438</ele></trkpt><trkpt lat="46.73473014077172" lon="8.023840113542974"><ele>652.6499938964844</ele></trkpt><trkpt lat="46.73471014061943" lon="8.023820113390684"><ele>652.0699768066406</ele></trkpt><trkpt lat="46.73470014054328" lon="8.023800113238394"><ele>651.6999816894531</ele></trkpt><trkpt lat="46.73471014061943" lon="8.02377011347562"><ele>651.4499816894531</ele></trkpt><trkpt lat="46.734750140458345" lon="8.023740113247186"><ele>650.4299926757812</ele></trkpt><trkpt lat="46.73478013975546" lon="8.023700112942606"><ele>649.1699829101562</ele></trkpt><trkpt lat="46.73480013990775" lon="8.023640112951398"><ele>647.8899841308594</ele></trkpt><trkpt lat="46.734800139442086" lon="8.023550112731755"><ele>646.7999877929688</ele></trkpt><trkpt lat="46.73479013936594" lon="8.023460112512112"><ele>645.8499755859375</ele></trkpt><trkpt lat="46.73476013913751" lon="8.023370112292469"><ele>645.0199890136719</ele></trkpt><trkpt lat="46.73474013898522" lon="8.023220112081617"><ele>644.4599914550781</ele></trkpt><trkpt lat="46.7347501385957" lon="8.0231001120992"><ele>643.4099731445312</ele></trkpt><trkpt lat="46.73477013874799" lon="8.022950111888349"><ele>642.2599792480469</ele></trkpt><trkpt lat="46.734800138510764" lon="8.022830111905932"><ele>641.8199768066406</ele></trkpt><trkpt lat="46.734870138112456" lon="8.022690111305565"><ele>639.2899780273438</ele></trkpt><trkpt lat="46.73499013716355" lon="8.022520110942423"><ele>635.0999755859375</ele></trkpt><trkpt lat="46.734920136630535" lon="8.022480110637844"><ele>633.7699890136719</ele></trkpt><trkpt lat="46.73488013679162" lon="8.022450110409409"><ele>633.1699829101562</ele></trkpt><trkpt lat="46.73487013671547" lon="8.022410110104829"><ele>632.6199951171875</ele></trkpt><trkpt lat="46.73486013663933" lon="8.022380110342056"><ele>632.25</ele></trkpt><trkpt lat="46.73486013663933" lon="8.02235011011362"><ele>631.969970703125</ele></trkpt><trkpt lat="46.73487013624981" lon="8.022310110274702"><ele>631.489990234375</ele></trkpt><trkpt lat="46.73487013624981" lon="8.022270109970123"><ele>631.0</ele></trkpt><trkpt lat="46.734860136173666" lon="8.022240110207349"><ele>630.7999877929688</ele></trkpt><trkpt lat="46.73485013609752" lon="8.022210109978914"><ele>630.5899963378906</ele></trkpt><trkpt lat="46.73483013594523" lon="8.02220010990277"><ele>630.3999938964844</ele></trkpt><trkpt lat="46.7348101362586" lon="8.022230109665543"><ele>629.7099914550781</ele></trkpt><trkpt lat="46.734800135716796" lon="8.022250109817833"><ele>628.9399719238281</ele></trkpt><trkpt lat="46.734780135564506" lon="8.022280109580606"><ele>628.2899780273438</ele></trkpt><trkpt lat="46.73476013587788" lon="8.022280109580606"><ele>627.989990234375</ele></trkpt><trkpt lat="46.73468013573438" lon="8.02235010964796"><ele>627.2899780273438</ele></trkpt><trkpt lat="46.734570135362446" lon="8.022400109563023"><ele>627.3099975585938</ele></trkpt><trkpt lat="46.73453013552353" lon="8.022360109258443"><ele>627.4499816894531</ele></trkpt><trkpt lat="46.734440135769546" lon="8.022280109580606"><ele>627.7699890136719</ele></trkpt><trkpt lat="46.73440013593063" lon="8.022220109589398"><ele>628.2699890136719</ele></trkpt><trkpt lat="46.73438013577834" lon="8.022130109835416"><ele>628.7599792480469</ele></trkpt><trkpt lat="46.73436013562605" lon="8.021930109709501"><ele>628.6299743652344</ele></trkpt><trkpt lat="46.7343001361005" lon="8.021760109812021"><ele>629.6499938964844</ele></trkpt><trkpt lat="46.734310135710984" lon="8.021470109466463"><ele>628.2799987792969</ele></trkpt><trkpt lat="46.734310135710984" lon="8.021350109484047"><ele>627.4599914550781</ele></trkpt><trkpt lat="46.734290135558695" lon="8.021270109340549"><ele>626.9399719238281</ele></trkpt><trkpt lat="46.734230135101825" lon="8.021140109281987"><ele>625.3899841308594</ele></trkpt><trkpt lat="46.73420013487339" lon="8.021010108757764"><ele>623.4399719238281</ele></trkpt><trkpt lat="46.73414013441652" lon="8.020830108318478"><ele>620.9099731445312</ele></trkpt><trkpt lat="46.73412013379857" lon="8.02073010802269"><ele>619.3999938964844</ele></trkpt><trkpt lat="46.73410013364628" lon="8.020620107650757"><ele>617.469970703125</ele></trkpt><trkpt lat="46.73418013332412" lon="8.020660107489675"><ele>615.25</ele></trkpt><trkpt lat="46.73425013292581" lon="8.020730107557029"><ele>614.5399780273438</ele></trkpt><trkpt lat="46.73427013261244" lon="8.020760107319802"><ele>613.8499755859375</ele></trkpt><trkpt lat="46.734480131883174" lon="8.02093010675162"><ele>609.9599914550781</ele></trkpt><trkpt lat="46.73451013211161" lon="8.02095010643825"><ele>609.4399719238281</ele></trkpt><trkpt lat="46.73454013187438" lon="8.020890106447041"><ele>608.3399963378906</ele></trkpt><trkpt lat="46.73458013124764" lon="8.020750105846673"><ele>606.3199768066406</ele></trkpt><trkpt lat="46.73458013124764" lon="8.020660106092691"><ele>605.719970703125</ele></trkpt><trkpt lat="46.73456013062969" lon="8.020330105442554"><ele>602.1199951171875</ele></trkpt><trkpt lat="46.734520129393786" lon="8.02003010455519"><ele>597.3099975585938</ele></trkpt><trkpt lat="46.734500128775835" lon="8.019870104268193"><ele>594.8799743652344</ele></trkpt><trkpt lat="46.734440128318965" lon="8.019650103524327"><ele>591.0999755859375</ele></trkpt><trkpt lat="46.73445012792945" lon="8.019610103219748"><ele>590.3299865722656</ele></trkpt><trkpt lat="46.73450012784451" lon="8.019640103448182"><ele>589.1999816894531</ele></trkpt><trkpt lat="46.73452012753114" lon="8.0196801032871"><ele>588.6999816894531</ele></trkpt><trkpt lat="46.73454012768343" lon="8.01970010297373"><ele>588.2599792480469</ele></trkpt><trkpt lat="46.734550127759576" lon="8.01970010297373"><ele>588.0399780273438</ele></trkpt><trkpt lat="46.73456012737006" lon="8.01968010282144"><ele>587.5399780273438</ele></trkpt><trkpt lat="46.734550127293915" lon="8.019640102982521"><ele>586.8099975585938</ele></trkpt><trkpt lat="46.734530127141625" lon="8.019580102525651"><ele>585.9199829101562</ele></trkpt><trkpt lat="46.734430126380175" lon="8.019340102095157"><ele>582.5099792480469</ele></trkpt><trkpt lat="46.734370125923306" lon="8.019170101732016"><ele>579.739990234375</ele></trkpt><trkpt lat="46.734370125923306" lon="8.01914010150358"><ele>578.8699951171875</ele></trkpt><trkpt lat="46.73438012553379" lon="8.019120101351291"><ele>578.6199951171875</ele></trkpt><trkpt lat="46.734390125609934" lon="8.019120101351291"><ele>578.1599731445312</ele></trkpt><trkpt lat="46.73441012529656" lon="8.019120101351291"><ele>577.5899963378906</ele></trkpt><trkpt lat="46.734440125059336" lon="8.019120101351291"><ele>576.6299743652344</ele></trkpt><trkpt lat="46.734480124898255" lon="8.019130100961775"><ele>575.6599731445312</ele></trkpt><trkpt lat="46.7344901249744" lon="8.019130100961775"><ele>575.3099975585938</ele></trkpt><trkpt lat="46.734500125050545" lon="8.019110100809485"><ele>574.6099853515625</ele></trkpt><trkpt lat="46.7344901249744" lon="8.01908010058105"><ele>574.0699768066406</ele></trkpt><trkpt lat="46.73443012451753" lon="8.019060100894421"><ele>573.8299865722656</ele></trkpt><trkpt lat="46.73436012445018" lon="8.019000100437552"><ele>572.2999877929688</ele></trkpt><trkpt lat="46.7343201241456" lon="8.018950100522488"><ele>571.4299926757812</ele></trkpt><trkpt lat="46.73431012406945" lon="8.018920100294054"><ele>570.72998046875</ele></trkpt><trkpt lat="46.73428012384102" lon="8.018900100141764"><ele>570.3199768066406</ele></trkpt><trkpt lat="46.73426012415439" lon="8.018900100141764"><ele>570.2799987792969</ele></trkpt><trkpt lat="46.7342401240021" lon="8.018890100065619"><ele>570.5199890136719</ele></trkpt><trkpt lat="46.734210123773664" lon="8.01887010037899"><ele>570.3299865722656</ele></trkpt><trkpt lat="46.73412012401968" lon="8.01883010007441"><ele>570.4599914550781</ele></trkpt><trkpt lat="46.73409012425691" lon="8.018810100387782"><ele>570.5799865722656</ele></trkpt><trkpt lat="46.7340301242657" lon="8.018760100007057"><ele>570.6999816894531</ele></trkpt><trkpt lat="46.73390012420714" lon="8.018560100346804"><ele>570.7699890136719</ele></trkpt><trkpt lat="46.73381012445316" lon="8.018420100212097"><ele>571.5699768066406</ele></trkpt><trkpt lat="46.73375012446195" lon="8.018370100297034"><ele>571.9299926757812</ele></trkpt><trkpt lat="46.733700124546885" lon="8.018280100543052"><ele>573.0999755859375</ele></trkpt><trkpt lat="46.73352012457326" lon="8.017900100909173"><ele>573.9099731445312</ele></trkpt><trkpt lat="46.73337012482807" lon="8.017600100953132"><ele>574.6499938964844</ele></trkpt><trkpt lat="46.733270125463605" lon="8.017500101123005"><ele>577.1299743652344</ele></trkpt><trkpt lat="46.73315012594685" lon="8.01740010175854"><ele>580.4199829101562</ele></trkpt><trkpt lat="46.73298012698069" lon="8.017230102792382"><ele>585.7099914550781</ele></trkpt><trkpt lat="46.73289012769237" lon="8.01712010288611"><ele>588.0299987792969</ele></trkpt><trkpt lat="46.732720128726214" lon="8.016840104013681"><ele>594.3699951171875</ele></trkpt><trkpt lat="46.73262012982741" lon="8.016670104581863"><ele>598.4499816894531</ele></trkpt><trkpt lat="46.732390131335706" lon="8.01623010635376"><ele>607.3599853515625</ele></trkpt><trkpt lat="46.732120133936405" lon="8.015690107829869"><ele>619.3299865722656</ele></trkpt><trkpt lat="46.732030134648085" lon="8.01556010870263"><ele>622.9399719238281</ele></trkpt><trkpt lat="46.73191013559699" lon="8.015390109270811"><ele>627.9199829101562</ele></trkpt><trkpt lat="46.7317901365459" lon="8.015240109991282"><ele>632.1599731445312</ele></trkpt><trkpt lat="46.73162013757974" lon="8.015140111092478"><ele>638.1699829101562</ele></trkpt><trkpt lat="46.731410139240324" lon="8.015060112345964"><ele>645.22998046875</ele></trkpt><trkpt lat="46.73125013988465" lon="8.014960112981498"><ele>649.1299743652344</ele></trkpt><trkpt lat="46.73101014178246" lon="8.01479011401534"><ele>657.1499938964844</ele></trkpt><trkpt lat="46.730660144239664" lon="8.014470116235316"><ele>670.1999816894531</ele></trkpt><trkpt lat="46.730440145824105" lon="8.014230117667466"><ele>678.3699951171875</ele></trkpt><trkpt lat="46.73030014708638" lon="8.014060118701309"><ele>684.22998046875</ele></trkpt><trkpt lat="46.730110148433596" lon="8.013800119515508"><ele>691.219970703125</ele></trkpt><trkpt lat="46.73013014905155" lon="8.013940120115876"><ele>694.2099914550781</ele></trkpt><trkpt lat="46.73017014982179" lon="8.014160120859742"><ele>697.8899841308594</ele></trkpt><trkpt lat="46.73017015075311" lon="8.014340121299028"><ele>701.7599792480469</ele></trkpt><trkpt lat="46.730140150524676" lon="8.014240121468902"><ele>702.3599853515625</ele></trkpt><trkpt lat="46.73011015029624" lon="8.014170121401548"><ele>701.0</ele></trkpt><trkpt lat="46.73007015045732" lon="8.014020121190697"><ele>700.8099975585938</ele></trkpt><trkpt lat="46.72998014977202" lon="8.01371012069285"><ele>698.5</ele></trkpt><trkpt lat="46.72996015008539" lon="8.013560120947659"><ele>698.3799743652344</ele></trkpt><trkpt lat="46.72995014954358" lon="8.013460120651871"><ele>697.6999816894531</ele></trkpt><trkpt lat="46.72985014971346" lon="8.013150120619684"><ele>697.2999877929688</ele></trkpt><trkpt lat="46.72982014948502" lon="8.013040120713413"><ele>697.5</ele></trkpt><trkpt lat="46.72982014995068" lon="8.01297012064606"><ele>697.6599731445312</ele></trkpt><trkpt lat="46.72983014956117" lon="8.012740120757371"><ele>697.8099975585938</ele></trkpt><trkpt lat="46.72984014963731" lon="8.012580120936036"><ele>697.8999938964844</ele></trkpt><trkpt lat="46.72984014963731" lon="8.012540120631456"><ele>697.8399963378906</ele></trkpt><trkpt lat="46.72984014963731" lon="8.012470120564103"><ele>697.8999938964844</ele></trkpt><trkpt lat="46.729590150527656" lon="8.011480121407658"><ele>702.3999938964844</ele></trkpt><trkpt lat="46.72944015124813" lon="8.0109301218763"><ele>706.0</ele></trkpt><trkpt lat="46.729410151485354" lon="8.010850122198462"><ele>706.5</ele></trkpt><trkpt lat="46.729370151646435" lon="8.010750122368336"><ele>707.1999816894531</ele></trkpt><trkpt lat="46.72925015212968" lon="8.010430122260004"><ele>709.0</ele></trkpt><trkpt lat="46.72917015245184" lon="8.010220122523606"><ele>710.5699768066406</ele></trkpt><trkpt lat="46.72914015268907" lon="8.010170123074204"><ele>711.8499755859375</ele></trkpt><trkpt lat="46.72912015253678" lon="8.01012012315914"><ele>712.2999877929688</ele></trkpt><trkpt lat="46.72910015285015" lon="8.01010012300685"><ele>712.2999877929688</ele></trkpt><trkpt lat="46.72905015293509" lon="8.010050123091787"><ele>712.2999877929688</ele></trkpt><trkpt lat="46.7290301527828" lon="8.010030122939497"><ele>712.2999877929688</ele></trkpt><trkpt lat="46.72902015270665" lon="8.010020122863352"><ele>712.1799926757812</ele></trkpt><trkpt lat="46.728960152715445" lon="8.009970122948289"><ele>712.2999877929688</ele></trkpt><trkpt lat="46.728920152876526" lon="8.009950122795999"><ele>712.2999877929688</ele></trkpt><trkpt lat="46.728900152724236" lon="8.009940123185515"><ele>712.2999877929688</ele></trkpt><trkpt lat="46.72889015264809" lon="8.009940123185515"><ele>712.6799926757812</ele></trkpt><trkpt lat="46.72889015264809" lon="8.009940123185515"><ele>712.2999877929688</ele></trkpt><trkpt lat="46.7288701524958" lon="8.00993012310937"><ele>712.2999877929688</ele></trkpt><trkpt lat="46.728770152665675" lon="8.009840122889727"><ele>712.2999877929688</ele></trkpt><trkpt lat="46.72876015258953" lon="8.009830123279244"><ele>712.6899719238281</ele></trkpt><trkpt lat="46.72868015291169" lon="8.009680123068392"><ele>712.3899841308594</ele></trkpt><trkpt lat="46.72855015285313" lon="8.009430123027414"><ele>712.0</ele></trkpt><trkpt lat="46.72850015247241" lon="8.009300122968853"><ele>712.1699829101562</ele></trkpt><trkpt lat="46.72846015263349" lon="8.00921012274921"><ele>712.0999755859375</ele></trkpt><trkpt lat="46.72843015240505" lon="8.009110122919083"><ele>711.7799987792969</ele></trkpt><trkpt lat="46.728390152566135" lon="8.008980122860521"><ele>711.6999816894531</ele></trkpt><trkpt lat="46.7283601523377" lon="8.008790122810751"><ele>711.0999755859375</ele></trkpt><trkpt lat="46.7283601523377" lon="8.0086401225999"><ele>710.7999877929688</ele></trkpt><trkpt lat="46.7283601523377" lon="8.008500122465193"><ele>710.5</ele></trkpt><trkpt lat="46.72834015218541" lon="8.008330122567713"><ele>710.0</ele></trkpt><trkpt lat="46.72830015234649" lon="8.008030122611672"><ele>710.6699829101562</ele></trkpt><trkpt lat="46.72826015250757" lon="8.007810122799128"><ele>711.0699768066406</ele></trkpt><trkpt lat="46.72825015243143" lon="8.00773012265563"><ele>711.2699890136719</ele></trkpt><trkpt lat="46.728220152668655" lon="8.007570122834295"><ele>711.989990234375</ele></trkpt><trkpt lat="46.728200152516365" lon="8.007450122851878"><ele>712.3299865722656</ele></trkpt><trkpt lat="46.728200152516365" lon="8.007440122775733"><ele>712.3899841308594</ele></trkpt><trkpt lat="46.72819015290588" lon="8.007370123174042"><ele>713.0499877929688</ele></trkpt><trkpt lat="46.72814015299082" lon="8.007120123133063"><ele>713.6899719238281</ele></trkpt><trkpt lat="46.7281001531519" lon="8.006910123396665"><ele>714.5099792480469</ele></trkpt><trkpt lat="46.7281001531519" lon="8.00688012316823"><ele>715.0699768066406</ele></trkpt><trkpt lat="46.7281001531519" lon="8.006870123557746"><ele>714.6899719238281</ele></trkpt><trkpt lat="46.72806015331298" lon="8.006690123584121"><ele>715.8999938964844</ele></trkpt><trkpt lat="46.72803015355021" lon="8.006590123753995"><ele>716.0499877929688</ele></trkpt><trkpt lat="46.72801015339792" lon="8.006510123610497"><ele>716.219970703125</ele></trkpt><trkpt lat="46.727980153635144" lon="8.006440123543143"><ele>716.3999938964844</ele></trkpt><trkpt lat="46.72795015340671" lon="8.00637012347579"><ele>716.7099914550781</ele></trkpt><trkpt lat="46.72791015356779" lon="8.006280123721808"><ele>717.0999755859375</ele></trkpt><trkpt lat="46.727790153585374" lon="8.006090123672038"><ele>717.5999755859375</ele></trkpt><trkpt lat="46.72772015398368" lon="8.005990123841912"><ele>717.7999877929688</ele></trkpt><trkpt lat="46.72767015360296" lon="8.005950124002993"><ele>717.8399963378906</ele></trkpt><trkpt lat="46.72767015360296" lon="8.005950124002993"><ele>717.72998046875</ele></trkpt><trkpt lat="46.727580153848976" lon="8.00584012363106"><ele>717.8999938964844</ele></trkpt><trkpt lat="46.72755015362054" lon="8.005810123868287"><ele>717.8999938964844</ele></trkpt><trkpt lat="46.72753015393391" lon="8.005780123639852"><ele>717.8999938964844</ele></trkpt><trkpt lat="46.72751015378162" lon="8.005760123953223"><ele>717.969970703125</ele></trkpt><trkpt lat="46.727430153638124" lon="8.005640123970807"><ele>718.0</ele></trkpt><trkpt lat="46.72736015403643" lon="8.005530124064535"><ele>718.2899780273438</ele></trkpt><trkpt lat="46.72736015403643" lon="8.00552012398839"><ele>718.2999877929688</ele></trkpt><trkpt lat="46.72736015403643" lon="8.00552012398839"><ele>718.2999877929688</ele></trkpt><trkpt lat="46.72729015396908" lon="8.005380123853683"><ele>718.0999755859375</ele></trkpt><trkpt lat="46.727240154054016" lon="8.005250123795122"><ele>718.0899963378906</ele></trkpt><trkpt lat="46.727220153901726" lon="8.005220124032348"><ele>718.0199890136719</ele></trkpt><trkpt lat="46.72721015382558" lon="8.005190123803914"><ele>718.0</ele></trkpt><trkpt lat="46.72717015398666" lon="8.005090123973787"><ele>717.969970703125</ele></trkpt><trkpt lat="46.72717015398666" lon="8.005090123973787"><ele>718.0</ele></trkpt><trkpt lat="46.72710015391931" lon="8.004860123619437"><ele>717.6299743652344</ele></trkpt><trkpt lat="46.72708015376702" lon="8.004800123628229"><ele>717.4299926757812</ele></trkpt><trkpt lat="46.72706015361473" lon="8.004730123560876"><ele>717.1999816894531</ele></trkpt><trkpt lat="46.727010153699666" lon="8.004650123417377"><ele>716.8999938964844</ele></trkpt><trkpt lat="46.726990153547376" lon="8.004620123654604"><ele>716.7699890136719</ele></trkpt><trkpt lat="46.72693015355617" lon="8.00453012343496"><ele>716.3999938964844</ele></trkpt><trkpt lat="46.72691015340388" lon="8.004500123672187"><ele>716.2599792480469</ele></trkpt><trkpt lat="46.72681015357375" lon="8.00436012353748"><ele>715.6999816894531</ele></trkpt><trkpt lat="46.72676015319303" lon="8.004300123546273"><ele>715.239990234375</ele></trkpt><trkpt lat="46.72673015343025" lon="8.004270123317838"><ele>715.0799865722656</ele></trkpt><trkpt lat="46.72672015335411" lon="8.004260123241693"><ele>715.0</ele></trkpt><trkpt lat="46.72670015320182" lon="8.00423012347892"><ele>714.8999938964844</ele></trkpt><trkpt lat="46.72670015320182" lon="8.004220123402774"><ele>714.9099731445312</ele></trkpt><trkpt lat="46.72662015305832" lon="8.004050123039633"><ele>714.1999816894531</ele></trkpt><trkpt lat="46.726610152982175" lon="8.00400012312457"><ele>714.1299743652344</ele></trkpt><trkpt lat="46.72660015290603" lon="8.00398012297228"><ele>714.0999755859375</ele></trkpt><trkpt lat="46.72657015314326" lon="8.0038101230748"><ele>713.5999755859375</ele></trkpt><trkpt lat="46.72651015268639" lon="8.003520123194903"><ele>712.97998046875</ele></trkpt><trkpt lat="46.72650015261024" lon="8.003470122814178"><ele>712.8499755859375</ele></trkpt><trkpt lat="46.726480152923614" lon="8.003370122984052"><ele>712.5</ele></trkpt><trkpt lat="46.726380152627826" lon="8.002980122808367"><ele>711.6899719238281</ele></trkpt><trkpt lat="46.72635015239939" lon="8.002870122902095"><ele>711.3999938964844</ele></trkpt><trkpt lat="46.72631015256047" lon="8.002740122843534"><ele>711.0</ele></trkpt><trkpt lat="46.72627015225589" lon="8.002580122556537"><ele>710.2699890136719</ele></trkpt><trkpt lat="46.7262501521036" lon="8.002520122565329"><ele>709.989990234375</ele></trkpt><trkpt lat="46.72623015195131" lon="8.00246012257412"><ele>709.6999816894531</ele></trkpt><trkpt lat="46.72620015218854" lon="8.002400122582912"><ele>709.2999877929688</ele></trkpt><trkpt lat="46.726190152112395" lon="8.002370122354478"><ele>709.0999755859375</ele></trkpt><trkpt lat="46.72614015173167" lon="8.002260122448206"><ele>708.5</ele></trkpt><trkpt lat="46.72609015181661" lon="8.002140122000128"><ele>708.0</ele></trkpt><trkpt lat="46.72602015174925" lon="8.002020122017711"><ele>707.469970703125</ele></trkpt><trkpt lat="46.72601015167311" lon="8.002010121941566"><ele>707.469970703125</ele></trkpt><trkpt lat="46.72597015183419" lon="8.001930121798068"><ele>707.1999816894531</ele></trkpt><trkpt lat="46.72588015161455" lon="8.00168012175709"><ele>706.7999877929688</ele></trkpt><trkpt lat="46.72585015138611" lon="8.001600122079253"><ele>706.72998046875</ele></trkpt><trkpt lat="46.72584015130997" lon="8.001570121850818"><ele>706.6999816894531</ele></trkpt><trkpt lat="46.72583015169948" lon="8.00151012185961"><ele>706.72998046875</ele></trkpt><trkpt lat="46.72578015131876" lon="8.001310121733695"><ele>706.6999816894531</ele></trkpt><trkpt lat="46.72576015163213" lon="8.001210121903569"><ele>706.6999816894531</ele></trkpt><trkpt lat="46.725730151403695" lon="8.001000121701509"><ele>706.6999816894531</ele></trkpt><trkpt lat="46.72568015148863" lon="8.000820122193545"><ele>707.0</ele></trkpt><trkpt lat="46.725580151658505" lon="8.000360121950507"><ele>706.6899719238281</ele></trkpt><trkpt lat="46.72555015143007" lon="8.000230121891946"><ele>706.1999816894531</ele></trkpt><trkpt lat="46.72553015127778" lon="8.000160121824592"><ele>705.969970703125</ele></trkpt><trkpt lat="46.72551015112549" lon="8.000100121833384"><ele>705.5999755859375</ele></trkpt><trkpt lat="46.72549015143886" lon="8.000040121842176"><ele>705.2999877929688</ele></trkpt><trkpt lat="46.72545015113428" lon="7.999930121470243"><ele>704.8999938964844</ele></trkpt><trkpt lat="46.72544015105814" lon="7.999900121707469"><ele>704.6099853515625</ele></trkpt><trkpt lat="46.72542015090585" lon="7.999850121326745"><ele>704.5</ele></trkpt><trkpt lat="46.725350150838494" lon="7.999700121581554"><ele>703.6999816894531</ele></trkpt><trkpt lat="46.725290150847286" lon="7.999590121209621"><ele>703.1399841308594</ele></trkpt><trkpt lat="46.72520015062764" lon="7.999420121312141"><ele>701.989990234375</ele></trkpt><trkpt lat="46.725060150492936" lon="7.999160120729357"><ele>700.5</ele></trkpt><trkpt lat="46.72502015018836" lon="7.999100120738149"><ele>700.0199890136719</ele></trkpt><trkpt lat="46.72486014990136" lon="7.998820120468736"><ele>697.9399719238281</ele></trkpt><trkpt lat="46.72469014953822" lon="7.998520120047033"><ele>695.8999938964844</ele></trkpt><trkpt lat="46.724660149309784" lon="7.99845011997968"><ele>695.47998046875</ele></trkpt><trkpt lat="46.724660149309784" lon="7.998440119903535"><ele>695.4099731445312</ele></trkpt><trkpt lat="46.724580149166286" lon="7.998270120006055"><ele>694.2999877929688</ele></trkpt><trkpt lat="46.72457014909014" lon="7.998270120006055"><ele>694.2699890136719</ele></trkpt><trkpt lat="46.72452014917508" lon="7.998250119853765"><ele>694.2999877929688</ele></trkpt><trkpt lat="46.72452014917508" lon="7.99824011977762"><ele>694.5999755859375</ele></trkpt><trkpt lat="46.72450014902279" lon="7.998230119701475"><ele>694.4199829101562</ele></trkpt><trkpt lat="46.7244801488705" lon="7.998200119938701"><ele>694.47998046875</ele></trkpt><trkpt lat="46.724450149107724" lon="7.9981801197864115"><ele>694.5999755859375</ele></trkpt><trkpt lat="46.72436014888808" lon="7.9980201199650764"><ele>694.0599975585938</ele></trkpt><trkpt lat="46.72429014882073" lon="7.9979101195931435"><ele>693.7999877929688</ele></trkpt><trkpt lat="46.724220148753375" lon="7.997810119763017"><ele>693.2799987792969</ele></trkpt><trkpt lat="46.72415014868602" lon="7.997720119543374"><ele>692.8699951171875</ele></trkpt><trkpt lat="46.7241101488471" lon="7.997660119552165"><ele>692.5999755859375</ele></trkpt><trkpt lat="46.724010148551315" lon="7.997540119569749"><ele>692.2999877929688</ele></trkpt><trkpt lat="46.72395014856011" lon="7.997470119502395"><ele>692.3999938964844</ele></trkpt><trkpt lat="46.72391014872119" lon="7.997420119587332"><ele>692.4099731445312</ele></trkpt><trkpt lat="46.7238901485689" lon="7.997380119748414"><ele>692.3999938964844</ele></trkpt><trkpt lat="46.72385014872998" lon="7.997330119367689"><ele>692.0</ele></trkpt><trkpt lat="46.72377014858648" lon="7.997190119698644"><ele>692.3999938964844</ele></trkpt><trkpt lat="46.72354014823213" lon="7.996640119235963"><ele>690.5</ele></trkpt><trkpt lat="46.72343014832586" lon="7.996350119356066"><ele>690.97998046875</ele></trkpt><trkpt lat="46.72343014832586" lon="7.996350119356066"><ele>690.989990234375</ele></trkpt><trkpt lat="46.7233801484108" lon="7.996260119136423"><ele>691.0699768066406</ele></trkpt><trkpt lat="46.72336014825851" lon="7.996230119373649"><ele>690.5999755859375</ele></trkpt><trkpt lat="46.723140148445964" lon="7.995920119341463"><ele>690.72998046875</ele></trkpt><trkpt lat="46.722950148861855" lon="7.995640119537711"><ele>693.7999877929688</ele></trkpt><trkpt lat="46.72280014818534" lon="7.995350119192153"><ele>690.2999877929688</ele></trkpt><trkpt lat="46.72264014836401" lon="7.995030119083822"><ele>691.0</ele></trkpt><trkpt lat="46.72260014805943" lon="7.99490011902526"><ele>690.75</ele></trkpt><trkpt lat="46.72254014806822" lon="7.99473011912778"><ele>690.0</ele></trkpt><trkpt lat="46.7224201480858" lon="7.9945201189257205"><ele>690.1999816894531</ele></trkpt><trkpt lat="46.722340147942305" lon="7.994430119171739"><ele>690.2799987792969</ele></trkpt><trkpt lat="46.72226014826447" lon="7.994330119341612"><ele>690.3999938964844</ele></trkpt><trkpt lat="46.72223014803603" lon="7.994280118960887"><ele>690.3099975585938</ele></trkpt><trkpt lat="46.72218014812097" lon="7.99418011913076"><ele>690.2999877929688</ele></trkpt><trkpt lat="46.72208014829084" lon="7.9939901190809906"><ele>690.0999755859375</ele></trkpt><trkpt lat="46.72195014823228" lon="7.993730118963867"><ele>690.3499755859375</ele></trkpt><trkpt lat="46.72195014823228" lon="7.993730118963867"><ele>690.3499755859375</ele></trkpt><trkpt lat="46.72195014869794" lon="7.993720119353384"><ele>692.2999877929688</ele></trkpt><trkpt lat="46.721870148554444" lon="7.993580119684339"><ele>692.6999816894531</ele></trkpt><trkpt lat="46.72180014802143" lon="7.993520119227469"><ele>690.3999938964844</ele></trkpt><trkpt lat="46.72171014826745" lon="7.993470119312406"><ele>690.5999755859375</ele></trkpt><trkpt lat="46.721640148200095" lon="7.993430119473487"><ele>691.0</ele></trkpt><trkpt lat="46.72159014828503" lon="7.993360119406134"><ele>691.0999755859375</ele></trkpt><trkpt lat="46.7215701485984" lon="7.993300119414926"><ele>691.3299865722656</ele></trkpt><trkpt lat="46.72154014836997" lon="7.9932001191191375"><ele>691.2999877929688</ele></trkpt><trkpt lat="46.72152014821768" lon="7.993170119356364"><ele>691.4199829101562</ele></trkpt><trkpt lat="46.72150014853105" lon="7.993120119441301"><ele>691.25</ele></trkpt><trkpt lat="46.72148014837876" lon="7.993080119136721"><ele>691.5</ele></trkpt><trkpt lat="46.721410148311406" lon="7.9930301192216575"><ele>691.5</ele></trkpt><trkpt lat="46.72131014848128" lon="7.992980119306594"><ele>692.2699890136719</ele></trkpt><trkpt lat="46.721300148405135" lon="7.992980119306594"><ele>692.2999877929688</ele></trkpt><trkpt lat="46.72112014889717" lon="7.992700119502842"><ele>692.8999938964844</ele></trkpt><trkpt lat="46.72100014844909" lon="7.9925101194530725"><ele>692.0499877929688</ele></trkpt><trkpt lat="46.7209801482968" lon="7.992490119300783"><ele>692.0</ele></trkpt><trkpt lat="46.72081014793366" lon="7.99240011908114"><ele>689.8999938964844</ele></trkpt><trkpt lat="46.72077014809474" lon="7.992340119089931"><ele>689.9599914550781</ele></trkpt><trkpt lat="46.72074014786631" lon="7.992290119174868"><ele>689.5</ele></trkpt><trkpt lat="46.720690147951245" lon="7.992120118811727"><ele>688.1999816894531</ele></trkpt><trkpt lat="46.72066014772281" lon="7.991880118846893"><ele>687.3399963378906</ele></trkpt><trkpt lat="46.720650147646666" lon="7.9918501186184585"><ele>687.2999877929688</ele></trkpt><trkpt lat="46.72064014757052" lon="7.99181011877954"><ele>687.0899963378906</ele></trkpt><trkpt lat="46.72057014750317" lon="7.991620118264109"><ele>686.0999755859375</ele></trkpt><trkpt lat="46.72049014735967" lon="7.991430118214339"><ele>685.7699890136719</ele></trkpt><trkpt lat="46.720270147081465" lon="7.9909501182846725"><ele>685.7999877929688</ele></trkpt><trkpt lat="46.72017014725134" lon="7.9907701183110476"><ele>685.6999816894531</ele></trkpt><trkpt lat="46.72009014710784" lon="7.990660118404776"><ele>685.97998046875</ele></trkpt><trkpt lat="46.720060147345066" lon="7.9906101184897125"><ele>685.8999938964844</ele></trkpt><trkpt lat="46.719890146981925" lon="7.990360118448734"><ele>685.5</ele></trkpt><trkpt lat="46.71984014706686" lon="7.990310118533671"><ele>685.8299865722656</ele></trkpt><trkpt lat="46.71978014707565" lon="7.990240118466318"><ele>685.3999938964844</ele></trkpt><trkpt lat="46.719720147084445" lon="7.990200118161738"><ele>685.219970703125</ele></trkpt><trkpt lat="46.719660147093236" lon="7.9901501182466745"><ele>684.8999938964844</ele></trkpt><trkpt lat="46.71965014701709" lon="7.9901501182466745"><ele>685.1799926757812</ele></trkpt><trkpt lat="46.71963014733046" lon="7.9901501182466745"><ele>685.6999816894531</ele></trkpt><trkpt lat="46.7195801474154" lon="7.990130118560046"><ele>686.3999938964844</ele></trkpt><trkpt lat="46.71952014742419" lon="7.990060118492693"><ele>685.8699951171875</ele></trkpt><trkpt lat="46.719400147441775" lon="7.989910118747503"><ele>687.7999877929688</ele></trkpt><trkpt lat="46.719360147602856" lon="7.989840118680149"><ele>687.72998046875</ele></trkpt><trkpt lat="46.71933014737442" lon="7.989780118688941"><ele>687.5</ele></trkpt><trkpt lat="46.719270147848874" lon="7.989690118934959"><ele>688.1999816894531</ele></trkpt><trkpt lat="46.71921014832333" lon="7.9895801190286875"><ele>691.0</ele></trkpt><trkpt lat="46.719180148560554" lon="7.9895201195031404"><ele>691.6999816894531</ele></trkpt><trkpt lat="46.71915014833212" lon="7.989430119283497"><ele>691.6899719238281</ele></trkpt><trkpt lat="46.71913014817983" lon="7.989370119292289"><ele>690.8999938964844</ele></trkpt><trkpt lat="46.71913014817983" lon="7.989280119072646"><ele>690.5999755859375</ele></trkpt><trkpt lat="46.7191101484932" lon="7.989210119005293"><ele>691.3799743652344</ele></trkpt><trkpt lat="46.7191101484932" lon="7.989180119242519"><ele>691.5099792480469</ele></trkpt><trkpt lat="46.71906014857814" lon="7.988960119429976"><ele>692.6399841308594</ele></trkpt><trkpt lat="46.71902014873922" lon="7.988740119617432"><ele>693.6899719238281</ele></trkpt><trkpt lat="46.718990148976445" lon="7.988540119957179"><ele>695.2999877929688</ele></trkpt><trkpt lat="46.71894014952704" lon="7.988170119933784"><ele>696.3399963378906</ele></trkpt><trkpt lat="46.71891014929861" lon="7.988060120027512"><ele>696.8499755859375</ele></trkpt><trkpt lat="46.71887014945969" lon="7.987980120349675"><ele>697.4399719238281</ele></trkpt><trkpt lat="46.71880014939234" lon="7.987880120053887"><ele>697.47998046875</ele></trkpt><trkpt lat="46.71874014940113" lon="7.987770120147616"><ele>696.8299865722656</ele></trkpt><trkpt lat="46.718670149333775" lon="7.987670120317489"><ele>697.1499938964844</ele></trkpt><trkpt lat="46.71858014957979" lon="7.987400120124221"><ele>697.6899719238281</ele></trkpt><trkpt lat="46.71853014966473" lon="7.9873401201330125"><ele>697.7899780273438</ele></trkpt><trkpt lat="46.71847014967352" lon="7.987270120531321"><ele>698.6199951171875</ele></trkpt><trkpt lat="46.718350149691105" lon="7.987100120168179"><ele>698.5599975585938</ele></trkpt><trkpt lat="46.71827015001327" lon="7.986980120185763"><ele>698.5199890136719</ele></trkpt><trkpt lat="46.71817014971748" lon="7.986860120203346"><ele>698.7999877929688</ele></trkpt><trkpt lat="46.7180801499635" lon="7.986760120373219"><ele>699.0199890136719</ele></trkpt><trkpt lat="46.7180801499635" lon="7.986760120373219"><ele>699.0299987792969</ele></trkpt><trkpt lat="46.71779014961794" lon="7.986090120393783"><ele>697.739990234375</ele></trkpt><trkpt lat="46.7177001493983" lon="7.9859201200306416"><ele>697.3699951171875</ele></trkpt><trkpt lat="46.7174901496619" lon="7.985520120244473"><ele>698.7599792480469</ele></trkpt><trkpt lat="46.717420149594545" lon="7.985290120355785"><ele>697.739990234375</ele></trkpt><trkpt lat="46.71732014929876" lon="7.985000120010227"><ele>696.239990234375</ele></trkpt><trkpt lat="46.71721014752984" lon="7.984620118513703"><ele>686.7799987792969</ele></trkpt><trkpt lat="46.717080146074295" lon="7.984320117626339"><ele>680.8399963378906</ele></trkpt><trkpt lat="46.71702014608309" lon="7.984190117102116"><ele>679.2699890136719</ele></trkpt><trkpt lat="46.71699014585465" lon="7.984080117195845"><ele>678.6599731445312</ele></trkpt><trkpt lat="46.716980145312846" lon="7.9839901169762015"><ele>677.2899780273438</ele></trkpt><trkpt lat="46.717000145465136" lon="7.983920116908848"><ele>676.8799743652344</ele></trkpt><trkpt lat="46.71699014538899" lon="7.983790116850287"><ele>676.3399963378906</ele></trkpt><trkpt lat="46.7169701452367" lon="7.9837101167067885"><ele>676.1399841308594</ele></trkpt><trkpt lat="46.716960145160556" lon="7.98365011671558"><ele>675.8199768066406</ele></trkpt><trkpt lat="46.716960145160556" lon="7.983590116258711"><ele>674.8799743652344</ele></trkpt><trkpt lat="46.716920144855976" lon="7.983490116428584"><ele>673.6199951171875</ele></trkpt><trkpt lat="46.71687014447525" lon="7.983340116217732"><ele>672.2599792480469</ele></trkpt><trkpt lat="46.71684014424682" lon="7.9832301158457994"><ele>671.6599731445312</ele></trkpt><trkpt lat="46.71684014424682" lon="7.983170115854591"><ele>671.4299926757812</ele></trkpt><trkpt lat="46.71685014432296" lon="7.983130116015673"><ele>671.2999877929688</ele></trkpt><trkpt lat="46.71689014416188" lon="7.983070116024464"><ele>670.9399719238281</ele></trkpt><trkpt lat="46.71694014407694" lon="7.983000115957111"><ele>670.8299865722656</ele></trkpt><trkpt lat="46.71697014430538" lon="7.982980115804821"><ele>670.7699890136719</ele></trkpt><trkpt lat="46.7170101441443" lon="7.982980115804821"><ele>670.8799743652344</ele></trkpt><trkpt lat="46.717070144135505" lon="7.982970115728676"><ele>671.4499816894531</ele></trkpt><trkpt lat="46.717110144440085" lon="7.982950116042048"><ele>671.4199829101562</ele></trkpt><trkpt lat="46.717150144279" lon="7.982900116126984"><ele>671.5799865722656</ele></trkpt><trkpt lat="46.71717014443129" lon="7.982840116135776"><ele>671.469970703125</ele></trkpt><trkpt lat="46.71718014404178" lon="7.982780115678906"><ele>670.6999816894531</ele></trkpt><trkpt lat="46.71717014396563" lon="7.9826401155442"><ele>669.8699951171875</ele></trkpt><trkpt lat="46.71711014350876" lon="7.982450115028769"><ele>667.2099914550781</ele></trkpt><trkpt lat="46.71706014312804" lon="7.982310114894062"><ele>665.0299987792969</ele></trkpt><trkpt lat="46.71698014298454" lon="7.982060114853084"><ele>665.3399963378906</ele></trkpt><trkpt lat="46.716990143060684" lon="7.982010114938021"><ele>665.3899841308594</ele></trkpt><trkpt lat="46.71698014298454" lon="7.9819401148706675"><ele>665.4199829101562</ele></trkpt><trkpt lat="46.71696014283225" lon="7.981850114651024"><ele>664.7999877929688</ele></trkpt><trkpt lat="46.71694014267996" lon="7.981770114507526"><ele>663.5399780273438</ele></trkpt><trkpt lat="46.71690014237538" lon="7.981680114287883"><ele>661.8499755859375</ele></trkpt><trkpt lat="46.716850141994655" lon="7.9815501142293215"><ele>659.9199829101562</ele></trkpt><trkpt lat="46.71680014161393" lon="7.981430113781244"><ele>658.47998046875</ele></trkpt><trkpt lat="46.716750141233206" lon="7.981280113570392"><ele>656.0999755859375</ele></trkpt><trkpt lat="46.71670014085248" lon="7.981150113046169"><ele>653.6499938964844</ele></trkpt><trkpt lat="46.71665014047176" lon="7.981040112674236"><ele>651.5</ele></trkpt><trkpt lat="46.716550139244646" lon="7.980810111854225"><ele>647.5299987792969</ele></trkpt><trkpt lat="46.71652013948187" lon="7.980730111710727"><ele>646.469970703125</ele></trkpt><trkpt lat="46.71650013886392" lon="7.980590111576021"><ele>644.4199829101562</ele></trkpt><trkpt lat="46.71646013809368" lon="7.980410110671073"><ele>640.5799865722656</ele></trkpt><trkpt lat="46.716430137399584" lon="7.980270110536367"><ele>637.5999755859375</ele></trkpt><trkpt lat="46.71641013678163" lon="7.980170110240579"><ele>635.3899841308594</ele></trkpt><trkpt lat="46.71637013647705" lon="7.980050109792501"><ele>632.8199768066406</ele></trkpt><trkpt lat="46.71633013617247" lon="7.979940109420568"><ele>630.989990234375</ele></trkpt><trkpt lat="46.71630013594404" lon="7.979830109048635"><ele>629.0199890136719</ele></trkpt><trkpt lat="46.71627013524994" lon="7.979700108524412"><ele>626.5499877929688</ele></trkpt><trkpt lat="46.71625013463199" lon="7.979580108076334"><ele>624.3399963378906</ele></trkpt><trkpt lat="46.71618013409898" lon="7.979420107789338"><ele>621.7999877929688</ele></trkpt><trkpt lat="46.71611013356596" lon="7.979290107265115"><ele>619.3999938964844</ele></trkpt><trkpt lat="46.71606013318524" lon="7.979180107358843"><ele>617.5</ele></trkpt><trkpt lat="46.71602013288066" lon="7.979080107063055"><ele>615.5899963378906</ele></trkpt><trkpt lat="46.71598013257608" lon="7.979020106606185"><ele>613.9099731445312</ele></trkpt><trkpt lat="46.71596013242379" lon="7.978970106225461"><ele>612.6299743652344</ele></trkpt><trkpt lat="46.71596013242379" lon="7.978940106462687"><ele>611.7799987792969</ele></trkpt><trkpt lat="46.71598013211042" lon="7.978950106073171"><ele>611.6099853515625</ele></trkpt><trkpt lat="46.71601013187319" lon="7.978980105835944"><ele>610.72998046875</ele></trkpt><trkpt lat="46.716040132101625" lon="7.979000105988234"><ele>610.0399780273438</ele></trkpt><trkpt lat="46.716080131940544" lon="7.979020105674863"><ele>609.5399780273438</ele></trkpt><trkpt lat="46.716060131788254" lon="7.978990105912089"><ele>609.1199951171875</ele></trkpt><trkpt lat="46.716040131635964" lon="7.97895010560751"><ele>608.5</ele></trkpt><trkpt lat="46.71595013141632" lon="7.978850105311722"><ele>607.0</ele></trkpt><trkpt lat="46.715750130824745" lon="7.9786501047201455"><ele>603.7799987792969</ele></trkpt><trkpt lat="46.71568013029173" lon="7.978590104728937"><ele>602.719970703125</ele></trkpt><trkpt lat="46.71562013030052" lon="7.978510104585439"><ele>601.8899841308594</ele></trkpt><trkpt lat="46.71559013007209" lon="7.978460104670376"><ele>601.4099731445312</ele></trkpt><trkpt lat="46.715500129852444" lon="7.978250104468316"><ele>599.6999816894531</ele></trkpt><trkpt lat="46.71547012962401" lon="7.978160104248673"><ele>598.97998046875</ele></trkpt><trkpt lat="46.71543012931943" lon="7.978100104257464"><ele>598.3999938964844</ele></trkpt><trkpt lat="46.71537012932822" lon="7.9779801038093865"><ele>597.8999938964844</ele></trkpt><trkpt lat="46.71529012918472" lon="7.97786010382697"><ele>596.7999877929688</ele></trkpt><trkpt lat="46.715230129193515" lon="7.977720103692263"><ele>596.5999755859375</ele></trkpt><trkpt lat="46.71514012897387" lon="7.977470103651285"><ele>594.7999877929688</ele></trkpt><trkpt lat="46.71511012874544" lon="7.977400103583932"><ele>594.75</ele></trkpt><trkpt lat="46.71505012875423" lon="7.97727010352537"><ele>594.0999755859375</ele></trkpt><trkpt lat="46.71489012846723" lon="7.976980103179812"><ele>593.3499755859375</ele></trkpt><trkpt lat="46.714810128323734" lon="7.976840103045106"><ele>592.6999816894531</ele></trkpt><trkpt lat="46.71476012840867" lon="7.976720103062689"><ele>592.8399963378906</ele></trkpt><trkpt lat="46.714730128180236" lon="7.9766201032325625"><ele>592.0299987792969</ele></trkpt><trkpt lat="46.71466012811288" lon="7.976430103182793"><ele>591.6799926757812</ele></trkpt><trkpt lat="46.7146201278083" lon="7.976260102819651"><ele>590.9299926757812</ele></trkpt><trkpt lat="46.71461012819782" lon="7.976210102904588"><ele>590.8199768066406</ele></trkpt><trkpt lat="46.714600128121674" lon="7.976180102676153"><ele>590.7699890136719</ele></trkpt><trkpt lat="46.71459012804553" lon="7.976160102989525"><ele>590.6899719238281</ele></trkpt><trkpt lat="46.714560127817094" lon="7.9761101026088"><ele>590.5299987792969</ele></trkpt><trkpt lat="46.714480127673596" lon="7.976000102702528"><ele>589.9599914550781</ele></trkpt><trkpt lat="46.71444012783468" lon="7.97594010271132"><ele>589.739990234375</ele></trkpt><trkpt lat="46.71443012775853" lon="7.97592010255903"><ele>589.6699829101562</ele></trkpt><trkpt lat="46.71439012745395" lon="7.975800102576613"><ele>589.1999816894531</ele></trkpt><trkpt lat="46.71434012753889" lon="7.975660102441907"><ele>588.7999877929688</ele></trkpt><trkpt lat="46.71430012769997" lon="7.975580102298409"><ele>588.6899719238281</ele></trkpt><trkpt lat="46.71428012754768" lon="7.97556010261178"><ele>588.5899963378906</ele></trkpt><trkpt lat="46.71418012725189" lon="7.975450102239847"><ele>588.0399780273438</ele></trkpt><trkpt lat="46.71407012734562" lon="7.975260102190077"><ele>587.3899841308594</ele></trkpt><trkpt lat="46.71401012735441" lon="7.975150102283806"><ele>587.0399780273438</ele></trkpt><trkpt lat="46.71396012697369" lon="7.975050101988018"><ele>586.6999816894531</ele></trkpt><trkpt lat="46.71388012683019" lon="7.974910101853311"><ele>586.1599731445312</ele></trkpt><trkpt lat="46.71381012676284" lon="7.974750102031976"><ele>585.6999816894531</ele></trkpt><trkpt lat="46.713740126695484" lon="7.97459010174498"><ele>585.1099853515625</ele></trkpt><trkpt lat="46.71363012678921" lon="7.974280101712793"><ele>583.989990234375</ele></trkpt><trkpt lat="46.71350012626499" lon="7.97398010129109"><ele>582.0799865722656</ele></trkpt><trkpt lat="46.7134001259692" lon="7.973840101156384"><ele>580.8599853515625</ele></trkpt><trkpt lat="46.71337012574077" lon="7.973780101165175"><ele>580.6399841308594</ele></trkpt><trkpt lat="46.71329012559727" lon="7.973640101030469"><ele>579.4499816894531</ele></trkpt><trkpt lat="46.71325012575835" lon="7.973550100810826"><ele>578.8499755859375</ele></trkpt><trkpt lat="46.71323012560606" lon="7.973460100591183"><ele>578.2799987792969</ele></trkpt><trkpt lat="46.71311012469232" lon="7.973040100187063"><ele>575.5</ele></trkpt><trkpt lat="46.71308012492955" lon="7.972910100128502"><ele>574.7999877929688</ele></trkpt><trkpt lat="46.71306012477726" lon="7.972860100213438"><ele>574.4499816894531</ele></trkpt><trkpt lat="46.71306012477726" lon="7.972850100137293"><ele>574.4299926757812</ele></trkpt><trkpt lat="46.713080124463886" lon="7.9728300999850035"><ele>574.3399963378906</ele></trkpt><trkpt lat="46.713080124463886" lon="7.97278010006994"><ele>574.0199890136719</ele></trkpt><trkpt lat="46.713080124463886" lon="7.972730100154877"><ele>573.7099914550781</ele></trkpt><trkpt lat="46.71307012438774" lon="7.972690099850297"><ele>573.4399719238281</ele></trkpt><trkpt lat="46.71300012432039" lon="7.972510099876672"><ele>572.2799987792969</ele></trkpt><trkpt lat="46.71297012409195" lon="7.972420099657029"><ele>571.72998046875</ele></trkpt><trkpt lat="46.71288012387231" lon="7.972140099387616"><ele>569.7699890136719</ele></trkpt><trkpt lat="46.71276012295857" lon="7.971700098831207"><ele>567.0799865722656</ele></trkpt><trkpt lat="46.71275012334809" lon="7.971670099068433"><ele>566.97998046875</ele></trkpt><trkpt lat="46.71269012289122" lon="7.971490098629147"><ele>566.4099731445312</ele></trkpt><trkpt lat="46.71268012281507" lon="7.971420099027455"><ele>566.2999877929688</ele></trkpt><trkpt lat="46.71267012320459" lon="7.971380098722875"><ele>566.2699890136719</ele></trkpt><trkpt lat="46.71267012320459" lon="7.971300098579377"><ele>566.2599792480469</ele></trkpt><trkpt lat="46.712640122976154" lon="7.970870098564774"><ele>566.0699768066406</ele></trkpt><trkpt lat="46.712600122671574" lon="7.970250098500401"><ele>565.719970703125</ele></trkpt><trkpt lat="46.71259012306109" lon="7.969950098544359"><ele>565.5899963378906</ele></trkpt><trkpt lat="46.71259012306109" lon="7.969910098705441"><ele>565.5899963378906</ele></trkpt><trkpt lat="46.71261012274772" lon="7.969410098623484"><ele>565.739990234375</ele></trkpt><trkpt lat="46.71261012274772" lon="7.969330098479986"><ele>565.72998046875</ele></trkpt><trkpt lat="46.71259012306109" lon="7.969250098802149"><ele>565.7799987792969</ele></trkpt><trkpt lat="46.71255012275651" lon="7.969160098582506"><ele>565.6999816894531</ele></trkpt><trkpt lat="46.71240012301132" lon="7.968830098863691"><ele>565.5799865722656</ele></trkpt><trkpt lat="46.71232012286782" lon="7.9687000988051295"><ele>565.4099731445312</ele></trkpt><trkpt lat="46.71225012280047" lon="7.968610098585486"><ele>565.3499755859375</ele></trkpt><trkpt lat="46.712160122580826" lon="7.968520098831505"><ele>565.3399963378906</ele></trkpt><trkpt lat="46.71181012270972" lon="7.968220098409802"><ele>565.3099975585938</ele></trkpt><trkpt lat="46.711630122736096" lon="7.968070098664612"><ele>565.3199768066406</ele></trkpt><trkpt lat="46.71156012266874" lon="7.967990098521113"><ele>565.3699951171875</ele></trkpt><trkpt lat="46.71149012260139" lon="7.967900098767132"><ele>565.4099731445312</ele></trkpt><trkpt lat="46.71141012292355" lon="7.967820098623633"><ele>565.4499816894531</ele></trkpt><trkpt lat="46.71137012261897" lon="7.96777009870857"><ele>565.5199890136719</ele></trkpt><trkpt lat="46.71124012302607" lon="7.96760009881109"><ele>565.8499755859375</ele></trkpt><trkpt lat="46.71117012295872" lon="7.967520098667592"><ele>566.0299987792969</ele></trkpt><trkpt lat="46.7111301231198" lon="7.9674600986763835"><ele>566.0599975585938</ele></trkpt><trkpt lat="46.71108012273908" lon="7.967380098532885"><ele>566.0599975585938</ele></trkpt><trkpt lat="46.71104012290016" lon="7.9672900987789035"><ele>566.1199951171875</ele></trkpt><trkpt lat="46.710990122985095" lon="7.967090098652989"><ele>566.0099792480469</ele></trkpt><trkpt lat="46.71094012307003" lon="7.9668600987643"><ele>566.0699768066406</ele></trkpt><trkpt lat="46.71092012291774" lon="7.966680098790675"><ele>566.1399841308594</ele></trkpt><trkpt lat="46.7109101228416" lon="7.966570098884404"><ele>566.2099914550781</ele></trkpt><trkpt lat="46.71092012291774" lon="7.966470098588616"><ele>566.3099975585938</ele></trkpt><trkpt lat="46.71092012291774" lon="7.966410098597407"><ele>566.3599853515625</ele></trkpt><trkpt lat="46.710950123146176" lon="7.966270098928362"><ele>566.2699890136719</ele></trkpt><trkpt lat="46.71102012274787" lon="7.966010098811239"><ele>566.1199951171875</ele></trkpt><trkpt lat="46.71110012289137" lon="7.965740098617971"><ele>566.1399841308594</ele></trkpt><trkpt lat="46.71117012295872" lon="7.9655200988054276"><ele>566.3999938964844</ele></trkpt><trkpt lat="46.71119012311101" lon="7.965430098585784"><ele>566.469970703125</ele></trkpt><trkpt lat="46.71123012294993" lon="7.965310098603368"><ele>566.6199951171875</ele></trkpt><trkpt lat="46.71128012286499" lon="7.965120099019259"><ele>566.7799987792969</ele></trkpt><trkpt lat="46.71130012301728" lon="7.96506009856239"><ele>566.7999877929688</ele></trkpt><trkpt lat="46.711350122932345" lon="7.965010098647326"><ele>566.7799987792969</ele></trkpt><trkpt lat="46.711520122829825" lon="7.964750098530203"><ele>566.5399780273438</ele></trkpt><trkpt lat="46.71155012305826" lon="7.96470009861514"><ele>566.3999938964844</ele></trkpt><trkpt lat="46.711560123134404" lon="7.9646300985477865"><ele>566.4099731445312</ele></trkpt><trkpt lat="46.711560123134404" lon="7.964440098963678"><ele>566.5</ele></trkpt><trkpt lat="46.71155012305826" lon="7.9642900987528265"><ele>566.6099853515625</ele></trkpt><trkpt lat="46.711540122982115" lon="7.96415009861812"><ele>566.5</ele></trkpt><trkpt lat="46.71153012290597" lon="7.96396009856835"><ele>566.3799743652344</ele></trkpt><trkpt lat="46.711520122829825" lon="7.963740098755807"><ele>566.2599792480469</ele></trkpt><trkpt lat="46.71151012275368" lon="7.963530098553747"><ele>566.0</ele></trkpt><trkpt lat="46.71151012275368" lon="7.963460098486394"><ele>566.1799926757812</ele></trkpt><trkpt lat="46.71151012275368" lon="7.96339009841904"><ele>566.0</ele></trkpt><trkpt lat="46.711500123143196" lon="7.963130098767579"><ele>566.2599792480469</ele></trkpt><trkpt lat="46.711500123143196" lon="7.96305009862408"><ele>566.1999816894531</ele></trkpt><trkpt lat="46.711500123143196" lon="7.962900098413229"><ele>566.0799865722656</ele></trkpt><trkpt lat="46.711500123143196" lon="7.962900098413229"><ele>566.0</ele></trkpt><trkpt lat="46.71145012276247" lon="7.9628800987266"><ele>566.0</ele></trkpt></trkseg></trk></gpx>