<?xml version="1.0" encoding="utf-8"?><gpx version="1.1" creator="MySchweizMobil - https://map.schweizmobil.ch/" xmlns:xsi="http://www.w3.org/2001/XMLSchema-instance" xmlns="http://www.topografix.com/GPX/1/1" xsi:schemaLocation="http://www.topografix.com/GPX/1/1 http://www.topografix.com/GPX/1/1/gpx.xsd"><metadata><name>Schynige Platte Loop</name><bounds minlat="46.65105040697381" minlon="7.9067803281359375" maxlat="46.65943040465936" maxlon="7.915730320382863" /></metadata><trk><name>Schynige Platte Loop</name><trkseg><trkpt lat="46.651070406194776" lon="7.9097103220410645"><ele>1977.3299865722656</ele></trkpt><trkpt lat="46.651060407049954" lon="7.909700322896242"><ele>1980.5999755859375</ele></trkpt><trkpt lat="46.65105040697381" lon="7.909640322905034"><ele>1980.5999755859375</ele></trkpt><trkpt lat="46.65105040697381" lon="7.9095803229138255"><ele>1980.5999755859375</ele></trkpt><trkpt lat="46.65109040681273" lon="7.909290322568268"><ele>1980.1599731445312</ele></trkpt><trkpt lat="46.65110040688887" lon="7.909250322729349"><ele>1980.3999938964844</ele></trkpt><trkpt lat="46.65112040704116" lon="7.909230323042721"><ele>1981.2999877929688</ele></trkpt><trkpt lat="46.65116040688008" lon="7.909070322755724"><ele>1981.0999755859375</ele></trkpt><trkpt lat="46.651190406642854" lon="7.908930322621018"><ele>1980.6999816894531</ele></trkpt><trkpt lat="46.651210406795144" lon="7.908890322782099"><ele>1980.72998046875</ele></trkpt><trkpt lat="46.651230406947434" lon="7.908880322705954"><ele>1980.6999816894531</ele></trkpt><trkpt lat="46.651230406947434" lon="7.908880322705954"><ele>1980.5</ele></trkpt><trkpt lat="46.651230406947434" lon="7.908920323010534"><ele>1981.22998046875</ele></trkpt><trkpt lat="46.65124040702358" lon="7.908940322697163"><ele>1981.5</ele></trkpt><trkpt lat="46.651230407413095" lon="7.909020323306322"><ele>1982.8999938964844</ele></trkpt><trkpt lat="46.65124040748924" lon="7.909050323069096"><ele>1983.3999938964844</ele></trkpt><trkpt lat="46.651250407565385" lon="7.909050323069096"><ele>1983.5999755859375</ele></trkpt><trkpt lat="46.651270407717675" lon="7.909040323458612"><ele>1984.219970703125</ele></trkpt><trkpt lat="46.65131040755659" lon="7.909020323306322"><ele>1985.1999816894531</ele></trkpt><trkpt lat="46.65135040786117" lon="7.908990323543549"><ele>1986.4299926757812</ele></trkpt><trkpt lat="46.65137040801346" lon="7.908980323467404"><ele>1986.72998046875</ele></trkpt><trkpt lat="46.65137040801346" lon="7.908980323467404"><ele>1986.6999816894531</ele></trkpt><trkpt lat="46.65147040877491" lon="7.9089403240941465"><ele>1989.1999816894531</ele></trkpt><trkpt lat="46.65147040877491" lon="7.9089403240941465"><ele>1989.1599731445312</ele></trkpt><trkpt lat="46.65148040885106" lon="7.908960324246436"><ele>1989.5999755859375</ele></trkpt><trkpt lat="46.65148040885106" lon="7.908970324322581"><ele>1989.7999877929688</ele></trkpt><trkpt lat="46.65147040877491" lon="7.90899032400921"><ele>1990.0899963378906</ele></trkpt><trkpt lat="46.651450409088284" lon="7.9090503244660795"><ele>1991.0999755859375</ele></trkpt><trkpt lat="46.651450409088284" lon="7.909060324542224"><ele>1991.2599792480469</ele></trkpt><trkpt lat="46.651450409088284" lon="7.909060324542224"><ele>1991.2599792480469</ele></trkpt><trkpt lat="46.65148040931672" lon="7.909060324542224"><ele>1992.0399780273438</ele></trkpt><trkpt lat="46.65158040961251" lon="7.909060325007886"><ele>1994.5899963378906</ele></trkpt><trkpt lat="46.65159040968865" lon="7.909060325007886"><ele>1994.8999938964844</ele></trkpt><trkpt lat="46.65161040984094" lon="7.909070325084031"><ele>1995.3999938964844</ele></trkpt><trkpt lat="46.651620409917086" lon="7.909070325084031"><ele>1995.739990234375</ele></trkpt><trkpt lat="46.651620409917086" lon="7.909080325160176"><ele>1995.8399963378906</ele></trkpt><trkpt lat="46.651620409917086" lon="7.90911032538861"><ele>1996.8999938964844</ele></trkpt><trkpt lat="46.6516104103066" lon="7.909150325227529"><ele>1997.5399780273438</ele></trkpt><trkpt lat="46.651590411085635" lon="7.9093103259801865"><ele>2000.7999877929688</ele></trkpt><trkpt lat="46.651590411085635" lon="7.909340326208621"><ele>2001.4199829101562</ele></trkpt><trkpt lat="46.651590411085635" lon="7.909370325971395"><ele>2002.0999755859375</ele></trkpt><trkpt lat="46.65162041131407" lon="7.909470326267183"><ele>2003.5999755859375</ele></trkpt><trkpt lat="46.65164041193202" lon="7.9095203266479075"><ele>2004.6399841308594</ele></trkpt><trkpt lat="46.65164041146636" lon="7.9095203266479075"><ele>2004.5</ele></trkpt><trkpt lat="46.651650412008166" lon="7.909530326724052"><ele>2005.0199890136719</ele></trkpt><trkpt lat="46.65166041161865" lon="7.909530326724052"><ele>2005.0</ele></trkpt><trkpt lat="46.651710412465036" lon="7.909640327095985"><ele>2007.2999877929688</ele></trkpt><trkpt lat="46.6517604123801" lon="7.909700327087194"><ele>2008.5999755859375</ele></trkpt><trkpt lat="46.651790412608534" lon="7.909720327239484"><ele>2009.0899963378906</ele></trkpt><trkpt lat="46.651790412608534" lon="7.909710327163339"><ele>2009.0799865722656</ele></trkpt><trkpt lat="46.65178041253239" lon="7.909680327400565"><ele>2009.0</ele></trkpt><trkpt lat="46.651790412608534" lon="7.90967032732442"><ele>2008.969970703125</ele></trkpt><trkpt lat="46.651790412608534" lon="7.909660327248275"><ele>2009.0999755859375</ele></trkpt><trkpt lat="46.65180041268468" lon="7.909610327333212"><ele>2009.2999877929688</ele></trkpt><trkpt lat="46.6518404125236" lon="7.909510327503085"><ele>2009.3399963378906</ele></trkpt><trkpt lat="46.6518404125236" lon="7.909510327503085"><ele>2009.3399963378906</ele></trkpt><trkpt lat="46.65187041275203" lon="7.909440327435732"><ele>2009.5999755859375</ele></trkpt><trkpt lat="46.651940412819386" lon="7.909300327301025"><ele>2010.1999816894531</ele></trkpt><trkpt lat="46.651960412971675" lon="7.909230327699333"><ele>2010.5</ele></trkpt><trkpt lat="46.65197041304782" lon="7.909210327547044"><ele>2010.469970703125</ele></trkpt><trkpt lat="46.65197041304782" lon="7.909210327547044"><ele>2010.7999877929688</ele></trkpt><trkpt lat="46.652000412810594" lon="7.909170327708125"><ele>2010.7999877929688</ele></trkpt><trkpt lat="46.65205041272566" lon="7.909130327403545"><ele>2010.3999938964844</ele></trkpt><trkpt lat="46.652170412708074" lon="7.909060327336192"><ele>2009.2999877929688</ele></trkpt><trkpt lat="46.65223041269928" lon="7.909030327107757"><ele>2009.1999816894531</ele></trkpt><trkpt lat="46.65225041238591" lon="7.9090103269554675"><ele>2008.6499938964844</ele></trkpt><trkpt lat="46.652280412614346" lon="7.908990327268839"><ele>2008.5499877929688</ele></trkpt><trkpt lat="46.65231041237712" lon="7.908960327040404"><ele>2008.7999877929688</ele></trkpt><trkpt lat="46.65237041236833" lon="7.908900327049196"><ele>2008.2999877929688</ele></trkpt><trkpt lat="46.652430412359536" lon="7.908800326753408"><ele>2007.0899963378906</ele></trkpt><trkpt lat="46.652470412198454" lon="7.908740326762199"><ele>2007.0</ele></trkpt><trkpt lat="46.652560411952436" lon="7.908630326855928"><ele>2005.9999694824219</ele></trkpt><trkpt lat="46.6526104118675" lon="7.908570326864719"><ele>2005.4299926757812</ele></trkpt><trkpt lat="46.65263041201979" lon="7.9085603267885745"><ele>2005.2999877929688</ele></trkpt><trkpt lat="46.65268041193485" lon="7.90851032640785"><ele>2005.0999755859375</ele></trkpt><trkpt lat="46.652750411536545" lon="7.908480326645076"><ele>2004.0999755859375</ele></trkpt><trkpt lat="46.65289041120559" lon="7.908460326027125"><ele>2001.7999877929688</ele></trkpt><trkpt lat="46.65297041088343" lon="7.90843032579869"><ele>1999.7999877929688</ele></trkpt><trkpt lat="46.65304041048512" lon="7.908420325722545"><ele>1998.3999938964844</ele></trkpt><trkpt lat="46.653050410561264" lon="7.908430325333029"><ele>1997.8999938964844</ele></trkpt><trkpt lat="46.65307041024789" lon="7.908430325333029"><ele>1998.0999755859375</ele></trkpt><trkpt lat="46.65310041047633" lon="7.908460325561464"><ele>1998.0</ele></trkpt><trkpt lat="46.65315041039139" lon="7.908530325163156"><ele>1996.6999816894531</ele></trkpt><trkpt lat="46.65322040952742" lon="7.908610324840993"><ele>1994.5999755859375</ele></trkpt><trkpt lat="46.653290410060436" lon="7.9086403250694275"><ele>1995.2999877929688</ele></trkpt><trkpt lat="46.653350410051644" lon="7.908660325221717"><ele>1995.5</ele></trkpt><trkpt lat="46.65337040973827" lon="7.908650325145572"><ele>1995.0699768066406</ele></trkpt><trkpt lat="46.65341041004285" lon="7.9086403250694275"><ele>1994.9399719238281</ele></trkpt><trkpt lat="46.65345040988177" lon="7.908630324993283"><ele>1994.8999938964844</ele></trkpt><trkpt lat="46.6534704095684" lon="7.908620324917138"><ele>1994.6399841308594</ele></trkpt><trkpt lat="46.65349040972069" lon="7.908590324688703"><ele>1994.3999938964844</ele></trkpt><trkpt lat="46.65358040947467" lon="7.908510324545205"><ele>1993.5299987792969</ele></trkpt><trkpt lat="46.653610409237444" lon="7.908480324782431"><ele>1993.0999755859375</ele></trkpt><trkpt lat="46.653630409389734" lon="7.908450324553996"><ele>1992.989990234375</ele></trkpt><trkpt lat="46.65366040961817" lon="7.908410324715078"><ele>1992.8999938964844</ele></trkpt><trkpt lat="46.65377040952444" lon="7.908270324580371"><ele>1993.5</ele></trkpt><trkpt lat="46.653840409591794" lon="7.908170324750245"><ele>1994.0</ele></trkpt><trkpt lat="46.653910409193486" lon="7.908110324759036"><ele>1992.5</ele></trkpt><trkpt lat="46.653930409345776" lon="7.908090324606746"><ele>1992.6999816894531</ele></trkpt><trkpt lat="46.65396040910855" lon="7.908040324691683"><ele>1991.7999877929688</ele></trkpt><trkpt lat="46.653990409336984" lon="7.908010324463248"><ele>1991.5099792480469</ele></trkpt><trkpt lat="46.653990409336984" lon="7.908010324463248"><ele>1991.5</ele></trkpt><trkpt lat="46.65402040909976" lon="7.907960324548185"><ele>1991.3999938964844</ele></trkpt><trkpt lat="46.65406040940434" lon="7.90793032431975"><ele>1991.5999755859375</ele></trkpt><trkpt lat="46.65409040916711" lon="7.907890324480832"><ele>1991.3999938964844</ele></trkpt><trkpt lat="46.6541104093194" lon="7.907890324480832"><ele>1991.4599914550781</ele></trkpt><trkpt lat="46.65413040900603" lon="7.907880324404687"><ele>1991.5999755859375</ele></trkpt><trkpt lat="46.65415040915832" lon="7.907850324176252"><ele>1991.2899780273438</ele></trkpt><trkpt lat="46.654160409234464" lon="7.907830324489623"><ele>1991.0999755859375</ele></trkpt><trkpt lat="46.65420040907338" lon="7.907820324413478"><ele>1991.2999877929688</ele></trkpt><trkpt lat="46.65424040937796" lon="7.9078003242611885"><ele>1991.5999755859375</ele></trkpt><trkpt lat="46.654290409293026" lon="7.907770324498415"><ele>1992.5599975585938</ele></trkpt><trkpt lat="46.65434040967375" lon="7.9077303246594965"><ele>1993.7999877929688</ele></trkpt><trkpt lat="46.65438040997833" lon="7.907700324896723"><ele>1994.5099792480469</ele></trkpt><trkpt lat="46.65442040981725" lon="7.9076703251339495"><ele>1995.5</ele></trkpt><trkpt lat="46.65447041019797" lon="7.907600325066596"><ele>1996.1499938964844</ele></trkpt><trkpt lat="46.65448041027412" lon="7.907580325379968"><ele>1996.3999938964844</ele></trkpt><trkpt lat="46.65453041018918" lon="7.907520325388759"><ele>1997.5</ele></trkpt><trkpt lat="46.65455041034147" lon="7.907510325312614"><ele>1997.3499755859375</ele></trkpt><trkpt lat="46.65461041033268" lon="7.907460325397551"><ele>1998.1099853515625</ele></trkpt><trkpt lat="46.654640410561115" lon="7.9074303256347775"><ele>1999.1999816894531</ele></trkpt><trkpt lat="46.654680410865694" lon="7.907420325558633"><ele>1999.239990234375</ele></trkpt><trkpt lat="46.65469041094184" lon="7.907420325558633"><ele>2000.0999755859375</ele></trkpt><trkpt lat="46.65477041108534" lon="7.907360326033086"><ele>2001.6999816894531</ele></trkpt><trkpt lat="46.65483041154221" lon="7.9073103265836835"><ele>2004.0499877929688</ele></trkpt><trkpt lat="46.65489041246474" lon="7.907270326744765"><ele>2006.6999816894531</ele></trkpt><trkpt lat="46.65490041254088" lon="7.90726032666862"><ele>2007.0899963378906</ele></trkpt><trkpt lat="46.65491041261703" lon="7.9072503270581365"><ele>2007.7999877929688</ele></trkpt><trkpt lat="46.65494041284546" lon="7.907200327143073"><ele>2008.7999877929688</ele></trkpt><trkpt lat="46.65494041284546" lon="7.907190327066928"><ele>2008.6899719238281</ele></trkpt><trkpt lat="46.65496041299775" lon="7.907120327465236"><ele>2010.0999755859375</ele></trkpt><trkpt lat="46.6549704130739" lon="7.907050327397883"><ele>2011.7999877929688</ele></trkpt><trkpt lat="46.65499041369185" lon="7.906910328194499"><ele>2014.6999816894531</ele></trkpt><trkpt lat="46.65500041376799" lon="7.906860328279436"><ele>2015.2799987792969</ele></trkpt><trkpt lat="46.655000414233655" lon="7.906840328127146"><ele>2015.8999938964844</ele></trkpt><trkpt lat="46.655000414233655" lon="7.906820328440517"><ele>2016.0799865722656</ele></trkpt><trkpt lat="46.655000414233655" lon="7.906790328212082"><ele>2016.6999816894531</ele></trkpt><trkpt lat="46.655000414233655" lon="7.906790328212082"><ele>2016.4499816894531</ele></trkpt><trkpt lat="46.655000414233655" lon="7.9067803281359375"><ele>2016.5299987792969</ele></trkpt><trkpt lat="46.655000414233655" lon="7.906780328601599"><ele>2016.8999938964844</ele></trkpt><trkpt lat="46.6550104143098" lon="7.906800328288227"><ele>2016.8799743652344</ele></trkpt><trkpt lat="46.65503041446209" lon="7.906840328592807"><ele>2018.0999755859375</ele></trkpt><trkpt lat="46.655040414538234" lon="7.906860328745097"><ele>2018.4199829101562</ele></trkpt><trkpt lat="46.655060414690524" lon="7.906900328584015"><ele>2019.3999938964844</ele></trkpt><trkpt lat="46.65507041476667" lon="7.906940328888595"><ele>2020.1999816894531</ele></trkpt><trkpt lat="46.655080415308475" lon="7.906980329193175"><ele>2021.2999877929688</ele></trkpt><trkpt lat="46.655120415613055" lon="7.907110329251736"><ele>2023.3999938964844</ele></trkpt><trkpt lat="46.65515041584149" lon="7.907160329632461"><ele>2024.7999877929688</ele></trkpt><trkpt lat="46.655160416383296" lon="7.907180329784751"><ele>2026.0999755859375</ele></trkpt><trkpt lat="46.65517041599378" lon="7.907180329784751"><ele>2025.5299987792969</ele></trkpt><trkpt lat="46.655180416069925" lon="7.907180329784751"><ele>2025.8099975585938</ele></trkpt><trkpt lat="46.655180416069925" lon="7.907180329784751"><ele>2025.9099731445312</ele></trkpt><trkpt lat="46.655180416069925" lon="7.907170330174267"><ele>2026.5</ele></trkpt><trkpt lat="46.65517041645944" lon="7.907110330183059"><ele>2026.7999877929688</ele></trkpt><trkpt lat="46.65517041645944" lon="7.907080329954624"><ele>2027.2999877929688</ele></trkpt><trkpt lat="46.655160416383296" lon="7.907020329963416"><ele>2027.5999755859375</ele></trkpt><trkpt lat="46.655160416383296" lon="7.906990330200642"><ele>2027.47998046875</ele></trkpt><trkpt lat="46.65517041645944" lon="7.9069603299722075"><ele>2028.0</ele></trkpt><trkpt lat="46.65517041645944" lon="7.906940330285579"><ele>2028.0199890136719</ele></trkpt><trkpt lat="46.65517041645944" lon="7.906930330209434"><ele>2028.1299743652344</ele></trkpt><trkpt lat="46.65518041700125" lon="7.9069003304466605"><ele>2029.5999755859375</ele></trkpt><trkpt lat="46.65519041707739" lon="7.906830330844969"><ele>2030.8999938964844</ele></trkpt><trkpt lat="46.65521041722968" lon="7.906800330616534"><ele>2031.8799743652344</ele></trkpt><trkpt lat="46.65521041722968" lon="7.90679033100605"><ele>2032.0899963378906</ele></trkpt><trkpt lat="46.65522041730583" lon="7.90679033100605"><ele>2032.1099853515625</ele></trkpt><trkpt lat="46.65522041730583" lon="7.90679033100605"><ele>2032.5</ele></trkpt><trkpt lat="46.65522041777149" lon="7.906820330768824"><ele>2033.0</ele></trkpt><trkpt lat="46.65524041745812" lon="7.906870331149548"><ele>2033.5699768066406</ele></trkpt><trkpt lat="46.65525041799992" lon="7.906890331301838"><ele>2034.6999816894531</ele></trkpt><trkpt lat="46.65527041815221" lon="7.906970331445336"><ele>2035.4499816894531</ele></trkpt><trkpt lat="46.65528041822836" lon="7.9070203313604"><ele>2036.6999816894531</ele></trkpt><trkpt lat="46.6552904183045" lon="7.90704033151269"><ele>2036.8299865722656</ele></trkpt><trkpt lat="46.65531041845679" lon="7.907090331893414"><ele>2038.1999816894531</ele></trkpt><trkpt lat="46.65531041845679" lon="7.907130331732333"><ele>2038.4399719238281</ele></trkpt><trkpt lat="46.655330419074744" lon="7.907190332189202"><ele>2040.0999755859375</ele></trkpt><trkpt lat="46.65534041915089" lon="7.907230332028121"><ele>2041.0</ele></trkpt><trkpt lat="46.65534041915089" lon="7.907230332028121"><ele>2040.8799743652344</ele></trkpt><trkpt lat="46.655350419227034" lon="7.907250332180411"><ele>2041.7999877929688</ele></trkpt><trkpt lat="46.655350419227034" lon="7.907300332561135"><ele>2042.0599975585938</ele></trkpt><trkpt lat="46.655350419227034" lon="7.907300332561135"><ele>2042.1699829101562</ele></trkpt><trkpt lat="46.655370419844985" lon="7.90733033278957"><ele>2043.2999877929688</ele></trkpt><trkpt lat="46.65538041992113" lon="7.90733033278957"><ele>2043.7999877929688</ele></trkpt><trkpt lat="46.65538041992113" lon="7.907300332561135"><ele>2044.2999877929688</ele></trkpt><trkpt lat="46.655390419997275" lon="7.907300332561135"><ele>2044.1799926757812</ele></trkpt><trkpt lat="46.655390419997275" lon="7.907290332950652"><ele>2044.5999755859375</ele></trkpt><trkpt lat="46.65540042007342" lon="7.907270332798362"><ele>2045.2999877929688</ele></trkpt><trkpt lat="46.65540042007342" lon="7.907250333111733"><ele>2045.2899780273438</ele></trkpt><trkpt lat="46.65542042022571" lon="7.907150333281606"><ele>2046.6999816894531</ele></trkpt><trkpt lat="46.655430420301855" lon="7.907130333129317"><ele>2046.8999938964844</ele></trkpt><trkpt lat="46.655430420301855" lon="7.907120333053172"><ele>2047.0999755859375</ele></trkpt><trkpt lat="46.655440420378" lon="7.907110333442688"><ele>2047.239990234375</ele></trkpt><trkpt lat="46.655470420606434" lon="7.906980333384126"><ele>2049.1699829101562</ele></trkpt><trkpt lat="46.65548042114824" lon="7.906940333545208"><ele>2050.0</ele></trkpt><trkpt lat="46.655490421224385" lon="7.906940333545208"><ele>2050.3999938964844</ele></trkpt><trkpt lat="46.65550042130053" lon="7.906950333621353"><ele>2050.489990234375</ele></trkpt><trkpt lat="46.655510421376675" lon="7.906950333621353"><ele>2051.0999755859375</ele></trkpt><trkpt lat="46.655510421376675" lon="7.906980333849788"><ele>2051.3899841308594</ele></trkpt><trkpt lat="46.655530421528965" lon="7.9070203341543674"><ele>2052.1199951171875</ele></trkpt><trkpt lat="46.655530421528965" lon="7.907060333993286"><ele>2052.7999877929688</ele></trkpt><trkpt lat="46.65554042160511" lon="7.907070334069431"><ele>2052.8799743652344</ele></trkpt><trkpt lat="46.65554042160511" lon="7.907140334136784"><ele>2054.0999755859375</ele></trkpt><trkpt lat="46.655550421681255" lon="7.907140334136784"><ele>2054.0599975585938</ele></trkpt><trkpt lat="46.6555604217574" lon="7.907140334602445"><ele>2054.5</ele></trkpt><trkpt lat="46.655570421833545" lon="7.907110334374011"><ele>2055.0</ele></trkpt><trkpt lat="46.655570421833545" lon="7.907090334687382"><ele>2055.3499755859375</ele></trkpt><trkpt lat="46.655590422451496" lon="7.907020334620029"><ele>2056.699981689453</ele></trkpt><trkpt lat="46.65560042252764" lon="7.906950335018337"><ele>2057.5999755859375</ele></trkpt><trkpt lat="46.655630422756076" lon="7.906910335179418"><ele>2058.449981689453</ele></trkpt><trkpt lat="46.65564042283222" lon="7.9068903350271285"><ele>2058.8999938964844</ele></trkpt><trkpt lat="46.655670423060656" lon="7.906880335416645"><ele>2059.7999877929688</ele></trkpt><trkpt lat="46.6556804231368" lon="7.906880335416645"><ele>2059.97998046875</ele></trkpt><trkpt lat="46.655690423212945" lon="7.90689033549279"><ele>2060.5999755859375</ele></trkpt><trkpt lat="46.65570042328909" lon="7.906940335407853"><ele>2061.529998779297</ele></trkpt><trkpt lat="46.655710423365235" lon="7.906970335636288"><ele>2062.5</ele></trkpt><trkpt lat="46.65572042344138" lon="7.906990335788578"><ele>2062.9299926757812</ele></trkpt><trkpt lat="46.65573042398319" lon="7.907010335940868"><ele>2064.0</ele></trkpt><trkpt lat="46.655750424135476" lon="7.907050336245447"><ele>2065.0999755859375</ele></trkpt><trkpt lat="46.65576042374596" lon="7.907050336245447"><ele>2064.739990234375</ele></trkpt><trkpt lat="46.655770424287766" lon="7.907050336245447"><ele>2065.3699951171875</ele></trkpt><trkpt lat="46.655790424440056" lon="7.907050336245447"><ele>2066.0999755859375</ele></trkpt><trkpt lat="46.655790424440056" lon="7.907010336406529"><ele>2066.2999877929688</ele></trkpt><trkpt lat="46.6558004245162" lon="7.907010336406529"><ele>2066.3499755859375</ele></trkpt><trkpt lat="46.6558004245162" lon="7.907000336330384"><ele>2066.4199829101562</ele></trkpt><trkpt lat="46.655810424592346" lon="7.9069703365676105"><ele>2067.199981689453</ele></trkpt><trkpt lat="46.65584042482078" lon="7.906940336339176"><ele>2067.8999938964844</ele></trkpt><trkpt lat="46.6558804246597" lon="7.906930336728692"><ele>2069.0</ele></trkpt><trkpt lat="46.655890424735844" lon="7.906910336576402"><ele>2069.22998046875</ele></trkpt><trkpt lat="46.655890424735844" lon="7.9069003369659185"><ele>2069.5</ele></trkpt><trkpt lat="46.65592042496428" lon="7.906890336889774"><ele>2070.1699829101562</ele></trkpt><trkpt lat="46.655930425040424" lon="7.906880336813629"><ele>2071.0</ele></trkpt><trkpt lat="46.655950425192714" lon="7.906860337127"><ele>2071.0799865722656</ele></trkpt><trkpt lat="46.655970425345004" lon="7.90684033697471"><ele>2072.0999755859375</ele></trkpt><trkpt lat="46.65598042542115" lon="7.906830337364227"><ele>2072.3999938964844</ele></trkpt><trkpt lat="46.65599042549729" lon="7.906830337364227"><ele>2072.439971923828</ele></trkpt><trkpt lat="46.65600042557344" lon="7.906830337364227"><ele>2072.6699829101562</ele></trkpt><trkpt lat="46.65601042564958" lon="7.906830337364227"><ele>2073.199981689453</ele></trkpt><trkpt lat="46.65602042572573" lon="7.9068403374403715"><ele>2073.5</ele></trkpt><trkpt lat="46.65602042572573" lon="7.9068503375165164"><ele>2073.2899780273438</ele></trkpt><trkpt lat="46.65604042587802" lon="7.906890337355435"><ele>2074.5</ele></trkpt><trkpt lat="46.6560804261826" lon="7.906980337575078"><ele>2075.699981689453</ele></trkpt><trkpt lat="46.65611042641103" lon="7.907020337879658"><ele>2075.8299865722656</ele></trkpt><trkpt lat="46.65611042641103" lon="7.907020337879658"><ele>2076.0999755859375</ele></trkpt><trkpt lat="46.65615042624995" lon="7.907060337718576"><ele>2075.769989013672</ele></trkpt><trkpt lat="46.65615042624995" lon="7.907060337718576"><ele>2076.3999938964844</ele></trkpt><trkpt lat="46.65617042640224" lon="7.9071203377097845"><ele>2076.0999755859375</ele></trkpt><trkpt lat="46.656180426012725" lon="7.907130337785929"><ele>2075.5899963378906</ele></trkpt><trkpt lat="46.656180426012725" lon="7.907140337862074"><ele>2075.5799865722656</ele></trkpt><trkpt lat="46.656180426012725" lon="7.907140337862074"><ele>2075.75</ele></trkpt><trkpt lat="46.65619042608887" lon="7.907150337938219"><ele>2075.8999938964844</ele></trkpt><trkpt lat="46.65624042600393" lon="7.907220337539911"><ele>2074.3299865722656</ele></trkpt><trkpt lat="46.65625042561442" lon="7.907250337302685"><ele>2073.6599731445312</ele></trkpt><trkpt lat="46.65627042576671" lon="7.907290337141603"><ele>2072.8999938964844</ele></trkpt><trkpt lat="46.65628042537719" lon="7.907330337446183"><ele>2072.219970703125</ele></trkpt><trkpt lat="46.65628042537719" lon="7.9073503371328115"><ele>2071.199981689453</ele></trkpt><trkpt lat="46.656310425139964" lon="7.90739033697173"><ele>2070.5999755859375</ele></trkpt><trkpt lat="46.65634042490274" lon="7.907430336810648"><ele>2069.9099731445312</ele></trkpt><trkpt lat="46.65636042505503" lon="7.907460336573422"><ele>2069.0</ele></trkpt><trkpt lat="46.65637042466551" lon="7.90752033656463"><ele>2068.8499755859375</ele></trkpt><trkpt lat="46.656380424741656" lon="7.90754033671692"><ele>2068.0</ele></trkpt><trkpt lat="46.6563904248178" lon="7.907560336403549"><ele>2068.0899963378906</ele></trkpt><trkpt lat="46.656400424428284" lon="7.9075903366319835"><ele>2067.199981689453</ele></trkpt><trkpt lat="46.656400424428284" lon="7.9075903366319835"><ele>2067.5899963378906</ele></trkpt><trkpt lat="46.65641042450443" lon="7.9076003367081285"><ele>2067.5999755859375</ele></trkpt><trkpt lat="46.65648042457178" lon="7.90769033646211"><ele>2068.3999938964844</ele></trkpt><trkpt lat="46.65652042487636" lon="7.907720336690545"><ele>2068.7999877929688</ele></trkpt><trkpt lat="46.65654042456299" lon="7.90773033676669"><ele>2068.4199829101562</ele></trkpt><trkpt lat="46.65656042471528" lon="7.90773033676669"><ele>2069.0999755859375</ele></trkpt><trkpt lat="46.6566004245542" lon="7.9077603365294635"><ele>2068.1299743652344</ele></trkpt><trkpt lat="46.65666042454541" lon="7.907810336444527"><ele>2067.8999938964844</ele></trkpt><trkpt lat="46.65673042461276" lon="7.90788033651188"><ele>2066.7999877929688</ele></trkpt><trkpt lat="46.656760424375534" lon="7.907910336274654"><ele>2065.6399841308594</ele></trkpt><trkpt lat="46.65679042413831" lon="7.9079303364269435"><ele>2065.8999938964844</ele></trkpt><trkpt lat="46.65680042421445" lon="7.907930335961282"><ele>2064.959991455078</ele></trkpt><trkpt lat="46.65682042436674" lon="7.9079303364269435"><ele>2065.5999755859375</ele></trkpt><trkpt lat="46.656830423977226" lon="7.907960336189717"><ele>2065.0999755859375</ele></trkpt><trkpt lat="46.656850423663855" lon="7.9080003360286355"><ele>2063.1699829101562</ele></trkpt><trkpt lat="46.656850423663855" lon="7.908010335639119"><ele>2062.6799926757812</ele></trkpt><trkpt lat="46.65686042374" lon="7.908020335715264"><ele>2062.439971923828</ele></trkpt><trkpt lat="46.65690042311326" lon="7.908080335706472"><ele>2061.3999938964844</ele></trkpt><trkpt lat="46.656960422638804" lon="7.908150335308164"><ele>2058.6799926757812</ele></trkpt><trkpt lat="46.65704042231664" lon="7.908260334748775"><ele>2056.2999877929688</ele></trkpt><trkpt lat="46.65709042176604" lon="7.908350334502757"><ele>2054.199981689453</ele></trkpt><trkpt lat="46.65713042160496" lon="7.908420334104449"><ele>2052.5999755859375</ele></trkpt><trkpt lat="46.657140421681106" lon="7.9084303341805935"><ele>2052.029998779297</ele></trkpt><trkpt lat="46.65715042175725" lon="7.908440334256738"><ele>2052.3999938964844</ele></trkpt><trkpt lat="46.65717042144388" lon="7.9085003337822855"><ele>2051.5999755859375</ele></trkpt><trkpt lat="46.6572604207322" lon="7.908630333840847"><ele>2049.5</ele></trkpt><trkpt lat="46.657290420494974" lon="7.9086603336036205"><ele>2048.2999877929688</ele></trkpt><trkpt lat="46.65731042064726" lon="7.908700333442539"><ele>2047.47998046875</ele></trkpt><trkpt lat="46.65730042057112" lon="7.908720333129168"><ele>2046.8399963378906</ele></trkpt><trkpt lat="46.657270420342684" lon="7.908720333129168"><ele>2046.5999755859375</ele></trkpt><trkpt lat="46.65724042011425" lon="7.908710333053023"><ele>2045.7699890136719</ele></trkpt><trkpt lat="46.657230420038104" lon="7.908710333053023"><ele>2045.6999816894531</ele></trkpt><trkpt lat="46.65720042027533" lon="7.908710333053023"><ele>2045.5999755859375</ele></trkpt><trkpt lat="46.65720041980967" lon="7.908720333129168"><ele>2044.7099914550781</ele></trkpt><trkpt lat="46.65720041980967" lon="7.908730332739651"><ele>2044.7999877929688</ele></trkpt><trkpt lat="46.657210419885814" lon="7.908750332891941"><ele>2043.9099731445312</ele></trkpt><trkpt lat="46.65722041996196" lon="7.908760332968086"><ele>2044.0</ele></trkpt><trkpt lat="46.65725041972473" lon="7.9087903327308595"><ele>2042.5299987792969</ele></trkpt><trkpt lat="46.657260419335216" lon="7.908800332341343"><ele>2042.3799743652344</ele></trkpt><trkpt lat="46.65727041941136" lon="7.908820332493633"><ele>2041.7999877929688</ele></trkpt><trkpt lat="46.65729041909799" lon="7.9088603323325515"><ele>2040.6999816894531</ele></trkpt><trkpt lat="46.65732041886076" lon="7.908890332095325"><ele>2039.8999938964844</ele></trkpt><trkpt lat="46.65734041901305" lon="7.9089203318580985"><ele>2038.739990234375</ele></trkpt><trkpt lat="46.65736041869968" lon="7.908950332086533"><ele>2038.7999877929688</ele></trkpt><trkpt lat="46.657460417598486" lon="7.909140331204981"><ele>2033.5</ele></trkpt><trkpt lat="46.65735041722655" lon="7.909150330815464"><ele>2031.0</ele></trkpt><trkpt lat="46.65735041722655" lon="7.909150330815464"><ele>2030.6999816894531</ele></trkpt><trkpt lat="46.65737041691318" lon="7.909190330654383"><ele>2029.9599914550781</ele></trkpt><trkpt lat="46.65738041698933" lon="7.909200330730528"><ele>2029.9999694824219</ele></trkpt><trkpt lat="46.65749041642994" lon="7.909330330323428"><ele>2027.8999938964844</ele></trkpt><trkpt lat="46.657550415955484" lon="7.90940032992512"><ele>2025.75</ele></trkpt><trkpt lat="46.657640415709466" lon="7.909480329602957"><ele>2024.5</ele></trkpt><trkpt lat="46.657700415700674" lon="7.909520329441875"><ele>2023.7999877929688</ele></trkpt><trkpt lat="46.657750415150076" lon="7.9095903295092285"><ele>2021.6999816894531</ele></trkpt><trkpt lat="46.65783041482791" lon="7.909680328797549"><ele>2019.2999877929688</ele></trkpt><trkpt lat="46.65786041505635" lon="7.909680328797549"><ele>2019.3999938964844</ele></trkpt><trkpt lat="46.65787041466683" lon="7.9097203286364675"><ele>2018.0599975585938</ele></trkpt><trkpt lat="46.657880414277315" lon="7.909740328788757"><ele>2017.2999877929688</ele></trkpt><trkpt lat="46.657880414277315" lon="7.909740328788757"><ele>2017.3299865722656</ele></trkpt><trkpt lat="46.6578404144384" lon="7.909740328323096"><ele>2016.6099853515625</ele></trkpt><trkpt lat="46.6578404144384" lon="7.909750328399241"><ele>2016.2799987792969</ele></trkpt><trkpt lat="46.65783041389659" lon="7.9097803281620145"><ele>2014.5999755859375</ele></trkpt><trkpt lat="46.65785041404888" lon="7.909810328390449"><ele>2015.0899963378906</ele></trkpt><trkpt lat="46.65787041373551" lon="7.909810328390449"><ele>2014.3599853515625</ele></trkpt><trkpt lat="46.65792041318491" lon="7.909830327611417"><ele>2011.0999755859375</ele></trkpt><trkpt lat="46.657950413413346" lon="7.909870327915996"><ele>2011.75</ele></trkpt><trkpt lat="46.65798041317612" lon="7.909890327602625"><ele>2010.5</ele></trkpt><trkpt lat="46.6580704129301" lon="7.909950327128172"><ele>2009.1799926757812</ele></trkpt><trkpt lat="46.65816041268408" lon="7.91001032711938"><ele>2008.5</ele></trkpt><trkpt lat="46.65817041276023" lon="7.91003032727167"><ele>2007.75</ele></trkpt><trkpt lat="46.658210412133485" lon="7.910100326873362"><ele>2005.1999816894531</ele></trkpt><trkpt lat="46.65826041204855" lon="7.9101403267122805"><ele>2005.7999877929688</ele></trkpt><trkpt lat="46.65827041212469" lon="7.9101503267884254"><ele>2005.5999755859375</ele></trkpt><trkpt lat="46.65831041196361" lon="7.910180326551199"><ele>2005.0599975585938</ele></trkpt><trkpt lat="46.6583304121159" lon="7.910200326703489"><ele>2005.3999938964844</ele></trkpt><trkpt lat="46.65834041219205" lon="7.910230326466262"><ele>2004.6599731445312</ele></trkpt><trkpt lat="46.65835041226819" lon="7.910260326694697"><ele>2005.0999755859375</ele></trkpt><trkpt lat="46.658490411471575" lon="7.9104803265072405"><ele>2002.4499816894531</ele></trkpt><trkpt lat="46.658510411623865" lon="7.910520326346159"><ele>2002.0399780273438</ele></trkpt><trkpt lat="46.6585904113017" lon="7.910650325939059"><ele>2001.0999755859375</ele></trkpt><trkpt lat="46.65865041129291" lon="7.910740326158702"><ele>2000.5</ele></trkpt><trkpt lat="46.658660410903394" lon="7.910770325921476"><ele>1999.7999877929688</ele></trkpt><trkpt lat="46.65868041059002" lon="7.910830325447023"><ele>1998.1999816894531</ele></trkpt><trkpt lat="46.65869041066617" lon="7.910900325514376"><ele>1998.1699829101562</ele></trkpt><trkpt lat="46.65870041074231" lon="7.9109503254294395"><ele>1997.7999877929688</ele></trkpt><trkpt lat="46.65872041042894" lon="7.910990325268358"><ele>1996.7999877929688</ele></trkpt><trkpt lat="46.65878040995449" lon="7.9111203253269196"><ele>1995.5999755859375</ele></trkpt><trkpt lat="46.65879041003063" lon="7.911180324852467"><ele>1994.0</ele></trkpt><trkpt lat="46.65880040964112" lon="7.911220325157046"><ele>1994.0799865722656</ele></trkpt><trkpt lat="46.65880040964112" lon="7.91125032491982"><ele>1993.719970703125</ele></trkpt><trkpt lat="46.65883040940389" lon="7.911340324673802"><ele>1992.1499938964844</ele></trkpt><trkpt lat="46.658840409480035" lon="7.91138032451272"><ele>1991.719970703125</ele></trkpt><trkpt lat="46.658840409480035" lon="7.9114303244277835"><ele>1991.2599792480469</ele></trkpt><trkpt lat="46.658840409480035" lon="7.911450324580073"><ele>1991.1599731445312</ele></trkpt><trkpt lat="46.658840409014374" lon="7.911580324172974"><ele>1989.2999877929688</ele></trkpt><trkpt lat="46.658840409014374" lon="7.911580324172974"><ele>1989.6099853515625</ele></trkpt><trkpt lat="46.65885040909052" lon="7.9116003243252635"><ele>1989.5599975585938</ele></trkpt><trkpt lat="46.658860408701" lon="7.911660324316472"><ele>1989.2999877929688</ele></trkpt><trkpt lat="46.65889040892944" lon="7.911830324213952"><ele>1988.5999755859375</ele></trkpt><trkpt lat="46.658910408616066" lon="7.911910323891789"><ele>1988.0999755859375</ele></trkpt><trkpt lat="46.658930408768356" lon="7.9119403241202235"><ele>1987.9599914550781</ele></trkpt><trkpt lat="46.65894040837884" lon="7.911960323806852"><ele>1987.6999816894531</ele></trkpt><trkpt lat="46.658950408454984" lon="7.912000324111432"><ele>1987.1999816894531</ele></trkpt><trkpt lat="46.658950408454984" lon="7.912010324187577"><ele>1987.3499755859375</ele></trkpt><trkpt lat="46.658930408302695" lon="7.912030323874205"><ele>1987.2999877929688</ele></trkpt><trkpt lat="46.658930408302695" lon="7.912030323874205"><ele>1987.0899963378906</ele></trkpt><trkpt lat="46.658930408302695" lon="7.91204032395035"><ele>1987.219970703125</ele></trkpt><trkpt lat="46.65890040853992" lon="7.912180324085057"><ele>1988.5999755859375</ele></trkpt><trkpt lat="46.65888040885329" lon="7.9122203243896365"><ele>1990.1999816894531</ele></trkpt><trkpt lat="46.65887040877715" lon="7.912240324541926"><ele>1989.5999755859375</ele></trkpt><trkpt lat="46.65887040877715" lon="7.912240324541926"><ele>1989.6399841308594</ele></trkpt><trkpt lat="46.65887040877715" lon="7.912260324228555"><ele>1989.8799743652344</ele></trkpt><trkpt lat="46.658860409166664" lon="7.91231032460928"><ele>1991.0999755859375</ele></trkpt><trkpt lat="46.65885040955618" lon="7.912350324913859"><ele>1991.6999816894531</ele></trkpt><trkpt lat="46.65883040940389" lon="7.912440324667841"><ele>1992.0099792480469</ele></trkpt><trkpt lat="46.65883040940389" lon="7.912450324743986"><ele>1992.239990234375</ele></trkpt><trkpt lat="46.65883040940389" lon="7.912460324820131"><ele>1992.3999938964844</ele></trkpt><trkpt lat="46.65880040964112" lon="7.912490325048566"><ele>1993.0999755859375</ele></trkpt><trkpt lat="46.65877040987834" lon="7.912560325115919"><ele>1994.2999877929688</ele></trkpt><trkpt lat="46.65877040987834" lon="7.912590325344354"><ele>1994.5</ele></trkpt><trkpt lat="46.6587604098022" lon="7.912620325107127"><ele>1994.7899780273438</ele></trkpt><trkpt lat="46.6587604098022" lon="7.912630325183272"><ele>1994.8299865722656</ele></trkpt><trkpt lat="46.65877040987834" lon="7.912620325107127"><ele>1995.0</ele></trkpt><trkpt lat="46.65878040995449" lon="7.912620325107127"><ele>1995.6699829101562</ele></trkpt><trkpt lat="46.658790410496294" lon="7.912650325335562"><ele>1996.1799926757812</ele></trkpt><trkpt lat="46.658790410496294" lon="7.91275032563135"><ele>1998.1399841308594</ele></trkpt><trkpt lat="46.65879041142762" lon="7.912860326003283"><ele>2001.1099853515625</ele></trkpt><trkpt lat="46.65877041127533" lon="7.912900326307863"><ele>2001.9199829101562</ele></trkpt><trkpt lat="46.65877041174099" lon="7.912920326460153"><ele>2002.3699951171875</ele></trkpt><trkpt lat="46.65878041181713" lon="7.912920326460153"><ele>2002.7599792480469</ele></trkpt><trkpt lat="46.65882041165605" lon="7.9128703265450895"><ele>2003.8399963378906</ele></trkpt><trkpt lat="46.65886041196063" lon="7.9128103270195425"><ele>2005.0099792480469</ele></trkpt><trkpt lat="46.658890412189066" lon="7.912740326952189"><ele>2006.2999877929688</ele></trkpt><trkpt lat="46.65890041226521" lon="7.912730326876044"><ele>2006.7099914550781</ele></trkpt><trkpt lat="46.6589204124175" lon="7.912700327113271"><ele>2008.0</ele></trkpt><trkpt lat="46.65894041256979" lon="7.912670327350497"><ele>2008.739990234375</ele></trkpt><trkpt lat="46.659010413102806" lon="7.912650327663869"><ele>2010.4399719238281</ele></trkpt><trkpt lat="46.659050413407385" lon="7.91265032812953"><ele>2011.8799743652344</ele></trkpt><trkpt lat="46.65910041378811" lon="7.912710328120738"><ele>2013.0299987792969</ele></trkpt><trkpt lat="46.65914041362703" lon="7.912730328273028"><ele>2013.7599792480469</ele></trkpt><trkpt lat="46.65914041409269" lon="7.912760328501463"><ele>2014.239990234375</ele></trkpt><trkpt lat="46.659110414329916" lon="7.912760328501463"><ele>2015.3899841308594</ele></trkpt><trkpt lat="46.65905041480437" lon="7.9128203289583325"><ele>2017.9599914550781</ele></trkpt><trkpt lat="46.659020414575934" lon="7.912870328873396"><ele>2018.1499938964844</ele></trkpt><trkpt lat="46.65901041449979" lon="7.912910329177976"><ele>2018.3299865722656</ele></trkpt><trkpt lat="46.65901041496545" lon="7.912970329169184"><ele>2018.8099975585938</ele></trkpt><trkpt lat="46.65899041481316" lon="7.913050329312682"><ele>2019.719970703125</ele></trkpt><trkpt lat="46.65896041505039" lon="7.913120329380035"><ele>2021.0299987792969</ele></trkpt><trkpt lat="46.65890041552484" lon="7.913250329438597"><ele>2022.3899841308594</ele></trkpt><trkpt lat="46.65884041599929" lon="7.913370330352336"><ele>2025.7699890136719</ele></trkpt><trkpt lat="46.658800416626036" lon="7.913460330571979"><ele>2027.8699951171875</ele></trkpt><trkpt lat="46.65883041685447" lon="7.913430330809206"><ele>2028.719970703125</ele></trkpt><trkpt lat="46.65887041715905" lon="7.913420330733061"><ele>2030.5</ele></trkpt><trkpt lat="46.65889041731134" lon="7.913440330885351"><ele>2031.5599975585938</ele></trkpt><trkpt lat="46.658940417692065" lon="7.913390331435949"><ele>2033.0999755859375</ele></trkpt><trkpt lat="46.65895041776821" lon="7.913380331359804"><ele>2033.6099853515625</ele></trkpt><trkpt lat="46.6589704179205" lon="7.913340331520885"><ele>2034.5399780273438</ele></trkpt><trkpt lat="46.658980417996645" lon="7.913340331520885"><ele>2035.3799743652344</ele></trkpt><trkpt lat="46.658980418462306" lon="7.913440331816673"><ele>2036.7799987792969</ele></trkpt><trkpt lat="46.65896041877568" lon="7.9135203319601715"><ele>2038.2999877929688</ele></trkpt><trkpt lat="46.65896041877568" lon="7.913560332264751"><ele>2038.8199768066406</ele></trkpt><trkpt lat="46.65896041877568" lon="7.913560332264751"><ele>2038.8499755859375</ele></trkpt><trkpt lat="46.6590104191564" lon="7.913490332663059"><ele>2040.739990234375</ele></trkpt><trkpt lat="46.65903041930869" lon="7.913470332510769"><ele>2041.7599792480469</ele></trkpt><trkpt lat="46.65905041946098" lon="7.913460332900286"><ele>2042.3399963378906</ele></trkpt><trkpt lat="46.65907041961327" lon="7.913470332976431"><ele>2042.8599853515625</ele></trkpt><trkpt lat="46.65906041953713" lon="7.9134903331287205"><ele>2043.1599731445312</ele></trkpt><trkpt lat="46.65905041992664" lon="7.913520332891494"><ele>2044.3099975585938</ele></trkpt><trkpt lat="46.659050420392305" lon="7.913580333348364"><ele>2045.969970703125</ele></trkpt><trkpt lat="46.65904042031616" lon="7.9136003335006535"><ele>2046.6999816894531</ele></trkpt><trkpt lat="46.65904042078182" lon="7.913630333729088"><ele>2047.5399780273438</ele></trkpt><trkpt lat="46.65904042078182" lon="7.913660333957523"><ele>2048.8499755859375</ele></trkpt><trkpt lat="46.65906042093411" lon="7.913650333881378"><ele>2049.9299926757812</ele></trkpt><trkpt lat="46.65907042147592" lon="7.9136403342708945"><ele>2050.8299865722656</ele></trkpt><trkpt lat="46.659100423101336" lon="7.913680335506797"><ele>2059.5399780273438</ele></trkpt><trkpt lat="46.659100422635674" lon="7.913650335278362"><ele>2056.72998046875</ele></trkpt><trkpt lat="46.659100422635674" lon="7.913610335439444"><ele>2058.009979248047</ele></trkpt><trkpt lat="46.65914042387158" lon="7.913610336370766"><ele>2063.699981689453</ele></trkpt><trkpt lat="46.65916042448953" lon="7.913650336675346"><ele>2065.72998046875</ele></trkpt><trkpt lat="46.65916042448953" lon="7.913680336903781"><ele>2066.8999938964844</ele></trkpt><trkpt lat="46.65918042464182" lon="7.913710336666554"><ele>2067.3999938964844</ele></trkpt><trkpt lat="46.65916042448953" lon="7.913680336903781"><ele>2066.8999938964844</ele></trkpt><trkpt lat="46.65916042448953" lon="7.913650336675346"><ele>2065.72998046875</ele></trkpt><trkpt lat="46.65914042387158" lon="7.913610336370766"><ele>2063.699981689453</ele></trkpt><trkpt lat="46.659100422635674" lon="7.913610335439444"><ele>2058.009979248047</ele></trkpt><trkpt lat="46.659100422635674" lon="7.913650335278362"><ele>2056.72998046875</ele></trkpt><trkpt lat="46.659100423101336" lon="7.913680335506797"><ele>2059.5399780273438</ele></trkpt><trkpt lat="46.65907042147592" lon="7.9136403342708945"><ele>2050.8299865722656</ele></trkpt><trkpt lat="46.65906042093411" lon="7.913650333881378"><ele>2049.9299926757812</ele></trkpt><trkpt lat="46.65904042078182" lon="7.913660333957523"><ele>2048.8499755859375</ele></trkpt><trkpt lat="46.65904042078182" lon="7.913630333729088"><ele>2047.5399780273438</ele></trkpt><trkpt lat="46.65904042031616" lon="7.9136003335006535"><ele>2046.6999816894531</ele></trkpt><trkpt lat="46.659050420392305" lon="7.913580333348364"><ele>2045.969970703125</ele></trkpt><trkpt lat="46.65905041992664" lon="7.913520332891494"><ele>2044.3099975585938</ele></trkpt><trkpt lat="46.65906041953713" lon="7.9134903331287205"><ele>2043.1599731445312</ele></trkpt><trkpt lat="46.65907041961327" lon="7.913470332976431"><ele>2042.8599853515625</ele></trkpt><trkpt lat="46.65905041946098" lon="7.913460332900286"><ele>2042.3399963378906</ele></trkpt><trkpt lat="46.65903041930869" lon="7.913470332510769"><ele>2041.7599792480469</ele></trkpt><trkpt lat="46.6590104191564" lon="7.913490332663059"><ele>2040.739990234375</ele></trkpt><trkpt lat="46.65896041877568" lon="7.913560332264751"><ele>2038.8499755859375</ele></trkpt><trkpt lat="46.65896041877568" lon="7.913560332264751"><ele>2038.8199768066406</ele></trkpt><trkpt lat="46.65896041877568" lon="7.9135203319601715"><ele>2038.2999877929688</ele></trkpt><trkpt lat="46.658980418462306" lon="7.913440331816673"><ele>2036.7799987792969</ele></trkpt><trkpt lat="46.658980417996645" lon="7.913340331520885"><ele>2035.3799743652344</ele></trkpt><trkpt lat="46.6589704179205" lon="7.913340331520885"><ele>2034.5399780273438</ele></trkpt><trkpt lat="46.65895041776821" lon="7.913380331359804"><ele>2033.6099853515625</ele></trkpt><trkpt lat="46.658940417692065" lon="7.913390331435949"><ele>2033.0999755859375</ele></trkpt><trkpt lat="46.65889041731134" lon="7.913440330885351"><ele>2031.5599975585938</ele></trkpt><trkpt lat="46.65887041715905" lon="7.913420330733061"><ele>2030.5</ele></trkpt><trkpt lat="46.65883041685447" lon="7.913430330809206"><ele>2028.719970703125</ele></trkpt><trkpt lat="46.658800416626036" lon="7.913460330571979"><ele>2027.8699951171875</ele></trkpt><trkpt lat="46.65884041599929" lon="7.913370330352336"><ele>2025.7699890136719</ele></trkpt><trkpt lat="46.65890041552484" lon="7.913250329438597"><ele>2022.3899841308594</ele></trkpt><trkpt lat="46.65896041505039" lon="7.913120329380035"><ele>2021.0299987792969</ele></trkpt><trkpt lat="46.65899041481316" lon="7.913050329312682"><ele>2019.719970703125</ele></trkpt><trkpt lat="46.65901041496545" lon="7.912970329169184"><ele>2018.8099975585938</ele></trkpt><trkpt lat="46.65901041449979" lon="7.912910329177976"><ele>2018.3299865722656</ele></trkpt><trkpt lat="46.659020414575934" lon="7.912870328873396"><ele>2018.1499938964844</ele></trkpt><trkpt lat="46.65905041480437" lon="7.9128203289583325"><ele>2017.9599914550781</ele></trkpt><trkpt lat="46.659110414329916" lon="7.912760328501463"><ele>2015.3899841308594</ele></trkpt><trkpt lat="46.65914041409269" lon="7.912760328501463"><ele>2014.239990234375</ele></trkpt><trkpt lat="46.65914041362703" lon="7.912730328273028"><ele>2013.7599792480469</ele></trkpt><trkpt lat="46.65910041378811" lon="7.912710328120738"><ele>2013.0299987792969</ele></trkpt><trkpt lat="46.659050413407385" lon="7.91265032812953"><ele>2011.8799743652344</ele></trkpt><trkpt lat="46.659010413102806" lon="7.912650327663869"><ele>2010.4399719238281</ele></trkpt><trkpt lat="46.65894041256979" lon="7.912670327350497"><ele>2008.739990234375</ele></trkpt><trkpt lat="46.6589204124175" lon="7.912700327113271"><ele>2008.0</ele></trkpt><trkpt lat="46.65890041226521" lon="7.912730326876044"><ele>2006.7099914550781</ele></trkpt><trkpt lat="46.658890412189066" lon="7.912740326952189"><ele>2006.2999877929688</ele></trkpt><trkpt lat="46.65886041196063" lon="7.9128103270195425"><ele>2005.0099792480469</ele></trkpt><trkpt lat="46.65882041165605" lon="7.9128703265450895"><ele>2003.8399963378906</ele></trkpt><trkpt lat="46.65878041181713" lon="7.912920326460153"><ele>2002.7599792480469</ele></trkpt><trkpt lat="46.65877041174099" lon="7.912920326460153"><ele>2002.3699951171875</ele></trkpt><trkpt lat="46.65877041127533" lon="7.912900326307863"><ele>2001.9199829101562</ele></trkpt><trkpt lat="46.65879041142762" lon="7.912860326003283"><ele>2001.1099853515625</ele></trkpt><trkpt lat="46.658790410496294" lon="7.91275032563135"><ele>1998.1399841308594</ele></trkpt><trkpt lat="46.658790410496294" lon="7.912650325335562"><ele>1996.1799926757812</ele></trkpt><trkpt lat="46.65878040995449" lon="7.912620325107127"><ele>1995.6699829101562</ele></trkpt><trkpt lat="46.65877040987834" lon="7.912620325107127"><ele>1995.0</ele></trkpt><trkpt lat="46.6587604098022" lon="7.912630325183272"><ele>1994.8299865722656</ele></trkpt><trkpt lat="46.6587604098022" lon="7.912620325107127"><ele>1994.7899780273438</ele></trkpt><trkpt lat="46.6587604098022" lon="7.912630325183272"><ele>1994.7999877929688</ele></trkpt><trkpt lat="46.65875040972605" lon="7.912700325250626"><ele>1994.5</ele></trkpt><trkpt lat="46.658730410039425" lon="7.912770325317979"><ele>1994.2999877929688</ele></trkpt><trkpt lat="46.65869041020051" lon="7.912850325461477"><ele>1995.0</ele></trkpt><trkpt lat="46.65864040981978" lon="7.912990325130522"><ele>1994.6699829101562</ele></trkpt><trkpt lat="46.65861041005701" lon="7.913050325121731"><ele>1994.5</ele></trkpt><trkpt lat="46.65860040998086" lon="7.913100325036794"><ele>1994.5299987792969</ele></trkpt><trkpt lat="46.65858040982857" lon="7.913150324951857"><ele>1994.1899719238281</ele></trkpt><trkpt lat="46.65857040975243" lon="7.913200324866921"><ele>1993.5</ele></trkpt><trkpt lat="46.65855040960014" lon="7.9132303250953555"><ele>1993.9399719238281</ele></trkpt><trkpt lat="46.65847040945664" lon="7.913380324840546"><ele>1993.2999877929688</ele></trkpt><trkpt lat="46.65844040969387" lon="7.913420324679464"><ele>1992.6499938964844</ele></trkpt><trkpt lat="46.65840040985495" lon="7.913470325060189"><ele>1993.0999755859375</ele></trkpt><trkpt lat="46.65836040955037" lon="7.913520324975252"><ele>1992.5</ele></trkpt><trkpt lat="46.65832040924579" lon="7.913620324805379"><ele>1991.4299926757812</ele></trkpt><trkpt lat="46.6583004090935" lon="7.913670324720442"><ele>1991.3999938964844</ele></trkpt><trkpt lat="46.6583004090935" lon="7.913700324483216"><ele>1990.8599853515625</ele></trkpt><trkpt lat="46.6583004090935" lon="7.913720324635506"><ele>1991.0</ele></trkpt><trkpt lat="46.658290409017354" lon="7.913770324550569"><ele>1990.8999938964844</ele></trkpt><trkpt lat="46.6583004090935" lon="7.913800324779004"><ele>1990.6399841308594</ele></trkpt><trkpt lat="46.658310409169644" lon="7.913840324617922"><ele>1990.4599914550781</ele></trkpt><trkpt lat="46.65833040885627" lon="7.913910324219614"><ele>1989.6999816894531</ele></trkpt><trkpt lat="46.65834040893242" lon="7.9139803242869675"><ele>1988.8199768066406</ele></trkpt><trkpt lat="46.6584004079923" lon="7.914270323701203"><ele>1985.0799865722656</ele></trkpt><trkpt lat="46.6584004079923" lon="7.914280323777348"><ele>1984.9299926757812</ele></trkpt><trkpt lat="46.65841040760279" lon="7.914330323692411"><ele>1983.7999877929688</ele></trkpt><trkpt lat="46.65844040783122" lon="7.9144603232853115"><ele>1983.6999816894531</ele></trkpt><trkpt lat="46.65844040783122" lon="7.91454032342881"><ele>1983.6999816894531</ele></trkpt><trkpt lat="46.65844040783122" lon="7.914580323267728"><ele>1983.5699768066406</ele></trkpt><trkpt lat="46.65846040751785" lon="7.914690323174"><ele>1982.8999938964844</ele></trkpt><trkpt lat="46.65846040751785" lon="7.91471032332629"><ele>1982.6999816894531</ele></trkpt><trkpt lat="46.658490407746285" lon="7.914760323241353"><ele>1982.6399841308594</ele></trkpt><trkpt lat="46.658510407432914" lon="7.914790323469788"><ele>1982.2999877929688</ele></trkpt><trkpt lat="46.65856040734798" lon="7.914820323232561"><ele>1982.2999877929688</ele></trkpt><trkpt lat="46.65861040726304" lon="7.914840323384851"><ele>1981.8799743652344</ele></trkpt><trkpt lat="46.658700407482684" lon="7.914870323147625"><ele>1981.5999755859375</ele></trkpt><trkpt lat="46.658810406923294" lon="7.91503032296896"><ele>1980.1999816894531</ele></trkpt><trkpt lat="46.658920406363904" lon="7.915150322485715"><ele>1977.7999877929688</ele></trkpt><trkpt lat="46.65904040634632" lon="7.915270322468132"><ele>1976.3999938964844</ele></trkpt><trkpt lat="46.65914040571079" lon="7.915350322145969"><ele>1974.5</ele></trkpt><trkpt lat="46.65917040593922" lon="7.915380321908742"><ele>1974.0299987792969</ele></trkpt><trkpt lat="46.65919040562585" lon="7.915400322061032"><ele>1973.5</ele></trkpt><trkpt lat="46.65922040538862" lon="7.915480321738869"><ele>1972.3999938964844</ele></trkpt><trkpt lat="46.65926040522754" lon="7.915530321653932"><ele>1971.5999755859375</ele></trkpt><trkpt lat="46.65928040537983" lon="7.915540321730077"><ele>1971.72998046875</ele></trkpt><trkpt lat="46.65936040505767" lon="7.915610321331769"><ele>1970.2899780273438</ele></trkpt><trkpt lat="46.6593804047443" lon="7.915620321407914"><ele>1969.7899780273438</ele></trkpt><trkpt lat="46.65942040504888" lon="7.915650321170688"><ele>1969.1499938964844</ele></trkpt><trkpt lat="46.6593804047443" lon="7.915620321407914"><ele>1969.7899780273438</ele></trkpt><trkpt lat="46.65943040465936" lon="7.9156703213229775"><ele>1968.3999938964844</ele></trkpt><trkpt lat="46.65933040436357" lon="7.915690321009606"><ele>1966.5199890136719</ele></trkpt><trkpt lat="46.65922040399164" lon="7.915710320230573"><ele>1963.969970703125</ele></trkpt><trkpt lat="46.659130403772" lon="7.915720320306718"><ele>1963.1899719238281</ele></trkpt><trkpt lat="46.65906040370464" lon="7.915730320382863"><ele>1963.3799743652344</ele></trkpt><trkpt lat="46.65901040378958" lon="7.915710320696235"><ele>1964.1299743652344</ele></trkpt><trkpt lat="46.65897040395066" lon="7.915690320543945"><ele>1964.4199829101562</ele></trkpt><trkpt lat="46.65888040419668" lon="7.915540320798755"><ele>1965.4399719238281</ele></trkpt><trkpt lat="46.65875040413812" lon="7.91551032057032"><ele>1965.8199768066406</ele></trkpt><trkpt lat="46.658700404223055" lon="7.915500320959836"><ele>1966.2899780273438</ele></trkpt><trkpt lat="46.6586304041557" lon="7.915410320740193"><ele>1966.1399841308594</ele></trkpt><trkpt lat="46.65857040416449" lon="7.91534032067284"><ele>1965.9599914550781</ele></trkpt><trkpt lat="46.65852040424943" lon="7.915300320833921"><ele>1965.2699890136719</ele></trkpt><trkpt lat="46.65846040379256" lon="7.915210320614278"><ele>1964.719970703125</ele></trkpt><trkpt lat="46.65839040372521" lon="7.91513032047078"><ele>1964.8399963378906</ele></trkpt><trkpt lat="46.658300403971225" lon="7.915040320716798"><ele>1964.8499755859375</ele></trkpt><trkpt lat="46.65823040390387" lon="7.914990320336074"><ele>1964.8899841308594</ele></trkpt><trkpt lat="46.65818040352315" lon="7.9149603205733"><ele>1963.8499755859375</ele></trkpt><trkpt lat="46.65814040368423" lon="7.9149003201164305"><ele>1962.8499755859375</ele></trkpt><trkpt lat="46.65810040337965" lon="7.914810319896787"><ele>1961.3199768066406</ele></trkpt><trkpt lat="46.658090403303504" lon="7.914760319981724"><ele>1960.6499938964844</ele></trkpt><trkpt lat="46.6580804027617" lon="7.914680319838226"><ele>1960.1799926757812</ele></trkpt><trkpt lat="46.6580804027617" lon="7.9146303199231625"><ele>1960.0299987792969</ele></trkpt><trkpt lat="46.6580804027617" lon="7.914580320008099"><ele>1960.1999816894531</ele></trkpt><trkpt lat="46.65806040307507" lon="7.914560319855809"><ele>1960.3899841308594</ele></trkpt><trkpt lat="46.65798040293157" lon="7.914560319855809"><ele>1960.8999938964844</ele></trkpt><trkpt lat="46.65789040317759" lon="7.914550319779664"><ele>1960.3999938964844</ele></trkpt><trkpt lat="46.657860402949154" lon="7.914540319703519"><ele>1960.3399963378906</ele></trkpt><trkpt lat="46.65783040318638" lon="7.914530319627374"><ele>1960.7099914550781</ele></trkpt><trkpt lat="46.65776040311903" lon="7.914550319779664"><ele>1961.4199829101562</ele></trkpt><trkpt lat="46.65770040312782" lon="7.914530320093036"><ele>1962.0399780273438</ele></trkpt><trkpt lat="46.65751040307805" lon="7.914420320186764"><ele>1961.719970703125</ele></trkpt><trkpt lat="46.65742040332407" lon="7.914380319882184"><ele>1962.1699829101562</ele></trkpt><trkpt lat="46.65736040333286" lon="7.914300320204347"><ele>1962.5199890136719</ele></trkpt><trkpt lat="46.657270403113216" lon="7.914170320145786"><ele>1961.4199829101562</ele></trkpt><trkpt lat="46.65721040312201" lon="7.9141103201545775"><ele>1961.6099853515625</ele></trkpt><trkpt lat="46.65713040344417" lon="7.914050320163369"><ele>1962.2099914550781</ele></trkpt><trkpt lat="46.65707040345296" lon="7.914030320011079"><ele>1962.739990234375</ele></trkpt><trkpt lat="46.65692040370777" lon="7.913950320333242"><ele>1962.9399719238281</ele></trkpt><trkpt lat="46.65687040332705" lon="7.913900319952518"><ele>1962.47998046875</ele></trkpt><trkpt lat="46.65683040348813" lon="7.913900319952518"><ele>1962.4299926757812</ele></trkpt><trkpt lat="46.656800403259695" lon="7.9139303201809525"><ele>1962.0499877929688</ele></trkpt><trkpt lat="46.656740402802825" lon="7.913950319867581"><ele>1960.3799743652344</ele></trkpt><trkpt lat="46.65668040281162" lon="7.913960319478065"><ele>1959.6699829101562</ele></trkpt><trkpt lat="46.65663040289655" lon="7.913960319478065"><ele>1959.0999755859375</ele></trkpt><trkpt lat="46.65658040251583" lon="7.913940319325775"><ele>1957.9299926757812</ele></trkpt><trkpt lat="46.656530402135104" lon="7.91393031924963"><ele>1957.1999816894531</ele></trkpt><trkpt lat="46.65650040237233" lon="7.91391031909734"><ele>1956.6999816894531</ele></trkpt><trkpt lat="46.656470402143896" lon="7.913850319106132"><ele>1956.3599853515625</ele></trkpt><trkpt lat="46.65641040215269" lon="7.913760318886489"><ele>1956.1499938964844</ele></trkpt><trkpt lat="46.656360402237624" lon="7.913650318980217"><ele>1955.72998046875</ele></trkpt><trkpt lat="46.656340402085334" lon="7.913640318904072"><ele>1956.3999938964844</ele></trkpt><trkpt lat="46.656320402398705" lon="7.913640319369733"><ele>1957.1099853515625</ele></trkpt><trkpt lat="46.656300402246416" lon="7.913640319369733"><ele>1957.3999938964844</ele></trkpt><trkpt lat="46.65624040225521" lon="7.913650319445878"><ele>1957.8199768066406</ele></trkpt><trkpt lat="46.656210402492434" lon="7.913650319445878"><ele>1957.2899780273438</ele></trkpt><trkpt lat="46.656170402187854" lon="7.913630319293588"><ele>1956.6499938964844</ele></trkpt><trkpt lat="46.65605040220544" lon="7.913510319311172"><ele>1957.2699890136719</ele></trkpt><trkpt lat="46.65593040222302" lon="7.91336031910032"><ele>1956.989990234375</ele></trkpt><trkpt lat="46.65585040207952" lon="7.913240319117904"><ele>1956.9499816894531</ele></trkpt><trkpt lat="46.655810402240604" lon="7.913130319211632"><ele>1955.97998046875</ele></trkpt><trkpt lat="46.655730402097106" lon="7.912980319000781"><ele>1955.0799865722656</ele></trkpt><trkpt lat="46.65566040202975" lon="7.912900318857282"><ele>1955.1099853515625</ele></trkpt><trkpt lat="46.655620402190834" lon="7.912850318942219"><ele>1955.72998046875</ele></trkpt><trkpt lat="46.65557040227577" lon="7.91283031925559"><ele>1956.6799926757812</ele></trkpt><trkpt lat="46.65551040228456" lon="7.9128203191794455"><ele>1956.9199829101562</ele></trkpt><trkpt lat="46.65544040221721" lon="7.912760319188237"><ele>1957.2799987792969</ele></trkpt><trkpt lat="46.65542040253058" lon="7.912740319035947"><ele>1957.4099731445312</ele></trkpt><trkpt lat="46.655380402226" lon="7.9126503192819655"><ele>1957.5299987792969</ele></trkpt><trkpt lat="46.65533040231094" lon="7.912570319138467"><ele>1956.2899780273438</ele></trkpt><trkpt lat="46.65528040193021" lon="7.912490318994969"><ele>1956.3199768066406</ele></trkpt><trkpt lat="46.655200402252376" lon="7.912470318842679"><ele>1956.0299987792969</ele></trkpt><trkpt lat="46.65515040233731" lon="7.912430319003761"><ele>1956.6399841308594</ele></trkpt><trkpt lat="46.65510040242225" lon="7.912390319164842"><ele>1956.9499816894531</ele></trkpt><trkpt lat="46.65506040211767" lon="7.9123703190125525"><ele>1957.5099792480469</ele></trkpt><trkpt lat="46.655030402354896" lon="7.912350319325924"><ele>1957.7999877929688</ele></trkpt><trkpt lat="46.65494040213525" lon="7.912270319182426"><ele>1957.3099975585938</ele></trkpt><trkpt lat="46.654900402296335" lon="7.912240318953991"><ele>1957.1099853515625</ele></trkpt><trkpt lat="46.654820402152836" lon="7.912210319191217"><ele>1956.0199890136719</ele></trkpt><trkpt lat="46.65475040208548" lon="7.9122003191150725"><ele>1955.4099731445312</ele></trkpt><trkpt lat="46.65473040193319" lon="7.9121903190389276"><ele>1955.5799865722656</ele></trkpt><trkpt lat="46.65468040201813" lon="7.912120318971574"><ele>1956.6399841308594</ele></trkpt><trkpt lat="46.6546604023315" lon="7.912090319208801"><ele>1957.22998046875</ele></trkpt><trkpt lat="46.65463040256873" lon="7.912040319293737"><ele>1958.0099792480469</ele></trkpt><trkpt lat="46.65461040241644" lon="7.9120203191414475"><ele>1958.2599792480469</ele></trkpt><trkpt lat="46.654580402653664" lon="7.911990319378674"><ele>1958.5099792480469</ele></trkpt><trkpt lat="46.654560402501374" lon="7.911970319226384"><ele>1958.8399963378906</ele></trkpt><trkpt lat="46.65451040305197" lon="7.911910319700837"><ele>1960.0199890136719</ele></trkpt><trkpt lat="46.65449040289968" lon="7.911880319472402"><ele>1960.3399963378906</ele></trkpt><trkpt lat="46.65448040282354" lon="7.911850319709629"><ele>1960.6199951171875</ele></trkpt><trkpt lat="46.654470403213054" lon="7.911800319794565"><ele>1960.8999938964844</ele></trkpt><trkpt lat="46.65446040313691" lon="7.9117903197184205"><ele>1960.8299865722656</ele></trkpt><trkpt lat="46.654410402756184" lon="7.911750319413841"><ele>1959.9299926757812</ele></trkpt><trkpt lat="46.654370402917266" lon="7.9116903194226325"><ele>1959.5799865722656</ele></trkpt><trkpt lat="46.65434040268883" lon="7.911670319270343"><ele>1959.1699829101562</ele></trkpt><trkpt lat="46.654310402460396" lon="7.911650319583714"><ele>1958.75</ele></trkpt><trkpt lat="46.654290402308106" lon="7.911650319118053"><ele>1958.47998046875</ele></trkpt><trkpt lat="46.65425040246919" lon="7.911660319194198"><ele>1958.2999877929688</ele></trkpt><trkpt lat="46.65421040263027" lon="7.911650319118053"><ele>1958.4099731445312</ele></trkpt><trkpt lat="46.654100402724" lon="7.911740319337696"><ele>1959.2599792480469</ele></trkpt><trkpt lat="46.65409040264785" lon="7.911750319413841"><ele>1959.1699829101562</ele></trkpt><trkpt lat="46.65406040241942" lon="7.911800319328904"><ele>1957.0199890136719</ele></trkpt><trkpt lat="46.65403040172532" lon="7.911840318702161"><ele>1955.469970703125</ele></trkpt><trkpt lat="46.65401040157303" lon="7.911860318854451"><ele>1954.8299865722656</ele></trkpt><trkpt lat="46.653950401581824" lon="7.91188031854108"><ele>1953.6299743652344</ele></trkpt><trkpt lat="46.653930401429534" lon="7.91188031854108"><ele>1953.3799743652344</ele></trkpt><trkpt lat="46.6539004012011" lon="7.91188031854108"><ele>1953.1499938964844</ele></trkpt><trkpt lat="46.653890401124954" lon="7.91188031854108"><ele>1952.7899780273438</ele></trkpt><trkpt lat="46.653850401286036" lon="7.911920318379998"><ele>1951.3299865722656</ele></trkpt><trkpt lat="46.65384040074423" lon="7.911930317990482"><ele>1950.7599792480469</ele></trkpt><trkpt lat="46.65382040059194" lon="7.911950318142772"><ele>1950.0899963378906</ele></trkpt><trkpt lat="46.653790400829166" lon="7.911960317753255"><ele>1949.4299926757812</ele></trkpt><trkpt lat="46.65376040060073" lon="7.91199031798169"><ele>1949.0199890136719</ele></trkpt><trkpt lat="46.65372040029615" lon="7.912070317659527"><ele>1947.719970703125</ele></trkpt><trkpt lat="46.65369040006772" lon="7.9121203175745904"><ele>1947.1999816894531</ele></trkpt><trkpt lat="46.65364040015265" lon="7.912160317413509"><ele>1947.2999877929688</ele></trkpt><trkpt lat="46.65363040007651" lon="7.912170317489654"><ele>1947.1299743652344</ele></trkpt><trkpt lat="46.653600400313735" lon="7.912180317565799"><ele>1947.0899963378906</ele></trkpt><trkpt lat="46.6535704000853" lon="7.912200317718089"><ele>1946.7699890136719</ele></trkpt><trkpt lat="46.653560400009155" lon="7.912220317404717"><ele>1946.0</ele></trkpt><trkpt lat="46.65353039978072" lon="7.912280316930264"><ele>1944.4499816894531</ele></trkpt><trkpt lat="46.653500399552286" lon="7.912330316845328"><ele>1943.5499877929688</ele></trkpt><trkpt lat="46.65347039932385" lon="7.912360317073762"><ele>1943.1799926757812</ele></trkpt><trkpt lat="46.65344039956108" lon="7.912370317149907"><ele>1943.1699829101562</ele></trkpt><trkpt lat="46.65343039948493" lon="7.912390316836536"><ele>1943.1599731445312</ele></trkpt><trkpt lat="46.6534003992565" lon="7.912420317064971"><ele>1943.1699829101562</ele></trkpt><trkpt lat="46.65336039941758" lon="7.912470316980034"><ele>1942.72998046875</ele></trkpt><trkpt lat="46.65334039926529" lon="7.912490316666663"><ele>1942.75</ele></trkpt><trkpt lat="46.653290399350226" lon="7.912560316734016"><ele>1941.969970703125</ele></trkpt><trkpt lat="46.65326039912179" lon="7.912600316572934"><ele>1941.2599792480469</ele></trkpt><trkpt lat="46.65322039881721" lon="7.912620316725224"><ele>1940.969970703125</ele></trkpt><trkpt lat="46.65319039905444" lon="7.912630316801369"><ele>1940.9299926757812</ele></trkpt><trkpt lat="46.65315039874986" lon="7.912630316801369"><ele>1941.1299743652344</ele></trkpt><trkpt lat="46.653080399148166" lon="7.912620316725224"><ele>1940.9299926757812</ele></trkpt><trkpt lat="46.65305039891973" lon="7.912620316259563"><ele>1940.2899780273438</ele></trkpt><trkpt lat="46.65303039876744" lon="7.912630316335708"><ele>1940.0199890136719</ele></trkpt><trkpt lat="46.65303039876744" lon="7.912630316335708"><ele>1939.969970703125</ele></trkpt><trkpt lat="46.65301039861515" lon="7.912610316649079"><ele>1940.25</ele></trkpt><trkpt lat="46.65301039908081" lon="7.912610316649079"><ele>1940.75</ele></trkpt><trkpt lat="46.65297039877623" lon="7.912570316810161"><ele>1941.0999755859375</ele></trkpt><trkpt lat="46.65290039917454" lon="7.912480316590518"><ele>1941.2999877929688</ele></trkpt><trkpt lat="46.65288039902225" lon="7.912450316827744"><ele>1941.1999816894531</ele></trkpt><trkpt lat="46.65282039903104" lon="7.912360316608101"><ele>1942.1999816894531</ele></trkpt><trkpt lat="46.65273039927706" lon="7.912260317243636"><ele>1943.7999877929688</ele></trkpt><trkpt lat="46.65273039927706" lon="7.912250317167491"><ele>1943.3399963378906</ele></trkpt><trkpt lat="46.65272039966658" lon="7.912240317091346"><ele>1943.489990234375</ele></trkpt><trkpt lat="46.65268039982766" lon="7.9121803171001375"><ele>1944.5999755859375</ele></trkpt><trkpt lat="46.65264039998874" lon="7.912100317422301"><ele>1945.5</ele></trkpt><trkpt lat="46.65260040014982" lon="7.9120103172026575"><ele>1946.3999938964844</ele></trkpt><trkpt lat="46.652500400319695" lon="7.911880317609757"><ele>1947.5999755859375</ele></trkpt><trkpt lat="46.652350400574505" lon="7.911640318110585"><ele>1950.0</ele></trkpt><trkpt lat="46.6523004011251" lon="7.911580318119377"><ele>1951.1999816894531</ele></trkpt><trkpt lat="46.652220401447266" lon="7.911470318213105"><ele>1952.7999877929688</ele></trkpt><trkpt lat="46.65210040193051" lon="7.9112903187051415"><ele>1955.9399719238281</ele></trkpt><trkpt lat="46.65206040209159" lon="7.9112403192557395"><ele>1956.719970703125</ele></trkpt><trkpt lat="46.65205040201545" lon="7.91122031910345"><ele>1957.0999755859375</ele></trkpt><trkpt lat="46.65203040232882" lon="7.911190319340676"><ele>1957.5199890136719</ele></trkpt><trkpt lat="46.65197040280327" lon="7.911090319510549"><ele>1959.3999938964844</ele></trkpt><trkpt lat="46.651870402973145" lon="7.910970319993794"><ele>1961.7099914550781</ele></trkpt><trkpt lat="46.65177040360868" lon="7.910880320239812"><ele>1964.5999755859375</ele></trkpt><trkpt lat="46.651740403845906" lon="7.910850320477039"><ele>1964.9499816894531</ele></trkpt><trkpt lat="46.65170040400699" lon="7.91081032063812"><ele>1966.1499938964844</ele></trkpt><trkpt lat="46.65170040400699" lon="7.910800320561975"><ele>1966.0999755859375</ele></trkpt><trkpt lat="46.65170040400699" lon="7.910730320494622"><ele>1966.5999755859375</ele></trkpt><trkpt lat="46.65170040400699" lon="7.910730320494622"><ele>1966.6499938964844</ele></trkpt><trkpt lat="46.65173040423542" lon="7.910720320884138"><ele>1967.2699890136719</ele></trkpt><trkpt lat="46.65173040423542" lon="7.910720320884138"><ele>1967.2899780273438</ele></trkpt><trkpt lat="46.65180040476844" lon="7.910720320884138"><ele>1969.0</ele></trkpt><trkpt lat="46.651860404759645" lon="7.9107203213498"><ele>1970.0999755859375</ele></trkpt><trkpt lat="46.651860404759645" lon="7.910710321273655"><ele>1970.0699768066406</ele></trkpt><trkpt lat="46.651840404607356" lon="7.91070032119751"><ele>1970.4199829101562</ele></trkpt><trkpt lat="46.65182040492073" lon="7.91070032119751"><ele>1970.7999877929688</ele></trkpt><trkpt lat="46.65164040541276" lon="7.910620321519673"><ele>1973.1999816894531</ele></trkpt><trkpt lat="46.65162040526047" lon="7.910590321756899"><ele>1973.6799926757812</ele></trkpt><trkpt lat="46.651580405421555" lon="7.910560321994126"><ele>1974.1199951171875</ele></trkpt><trkpt lat="46.651580405421555" lon="7.9105603215284646"><ele>1974.0</ele></trkpt><trkpt lat="46.65153040550649" lon="7.910530321765691"><ele>1974.7599792480469</ele></trkpt><trkpt lat="46.65152040589601" lon="7.910520321689546"><ele>1974.7999877929688</ele></trkpt><trkpt lat="46.65151040581986" lon="7.9105003220029175"><ele>1974.989990234375</ele></trkpt><trkpt lat="46.651470405980945" lon="7.910460322163999"><ele>1975.2999877929688</ele></trkpt><trkpt lat="46.651450405828655" lon="7.910400322172791"><ele>1975.6199951171875</ele></trkpt><trkpt lat="46.65142040606588" lon="7.910290322266519"><ele>1976.7999877929688</ele></trkpt><trkpt lat="46.651410405989736" lon="7.910260322038084"><ele>1976.3799743652344</ele></trkpt><trkpt lat="46.65139040630311" lon="7.910240322351456"><ele>1977.0</ele></trkpt><trkpt lat="46.65138040622696" lon="7.910200322046876"><ele>1976.8999938964844</ele></trkpt><trkpt lat="46.65135040599853" lon="7.910130322445184"><ele>1977.25</ele></trkpt><trkpt lat="46.6513304063119" lon="7.910090322140604"><ele>1977.5999755859375</ele></trkpt><trkpt lat="46.651320406235754" lon="7.910080322530121"><ele>1977.6999816894531</ele></trkpt></trkseg></trk></gpx>