<?xml version="1.0" encoding="utf-8"?><gpx version="1.1" creator="MySchweizMobil - https://map.schweizmobil.ch/" xmlns:xsi="http://www.w3.org/2001/XMLSchema-instance" xmlns="http://www.topografix.com/GPX/1/1" xsi:schemaLocation="http://www.topografix.com/GPX/1/1 http://www.topografix.com/GPX/1/1/gpx.xsd"><metadata><name>Harderkulm Loop</name><bounds minlat="46.68879012251273" minlon="7.8372601037845016" maxlat="46.69940019119531" maxlon="7.86541009740904" /></metadata><trk><name>Harderkulm Loop</name><trkseg><trkpt lat="46.69089012313634" lon="7.86541009740904"><ele>568.5899963378906</ele></trkpt><trkpt lat="46.69087012344971" lon="7.865300097502768"><ele>568.5199890136719</ele></trkpt><trkpt lat="46.69087012344971" lon="7.8652700977399945"><ele>568.5099792480469</ele></trkpt><trkpt lat="46.69085012329742" lon="7.86522009735927"><ele>568.5</ele></trkpt><trkpt lat="46.69085012329742" lon="7.865210097748786"><ele>568.5</ele></trkpt><trkpt lat="46.69091012328863" lon="7.865160097833723"><ele>569.0</ele></trkpt><trkpt lat="46.69095012405887" lon="7.8652800978161395"><ele>571.3099975585938</ele></trkpt><trkpt lat="46.6909701237455" lon="7.865270098205656"><ele>571.5999755859375</ele></trkpt><trkpt lat="46.69098012428731" lon="7.8652100982144475"><ele>572.5299987792969</ele></trkpt><trkpt lat="46.69097012421116" lon="7.865110098384321"><ele>573.97998046875</ele></trkpt><trkpt lat="46.69094012444839" lon="7.865000098478049"><ele>575.0899963378906</ele></trkpt><trkpt lat="46.69094012491405" lon="7.864890099037439"><ele>576.75</ele></trkpt><trkpt lat="46.69096012506634" lon="7.864880098961294"><ele>578.3099975585938</ele></trkpt><trkpt lat="46.69100012583658" lon="7.86491009965539"><ele>580.6199951171875</ele></trkpt><trkpt lat="46.69106012582779" lon="7.8650200995616615"><ele>580.5599975585938</ele></trkpt><trkpt lat="46.691130126360804" lon="7.865090099629015"><ele>582.6899719238281</ele></trkpt><trkpt lat="46.69117012619972" lon="7.8651200998574495"><ele>583.2099914550781</ele></trkpt><trkpt lat="46.69120012642816" lon="7.8651300999335945"><ele>583.6099853515625</ele></trkpt><trkpt lat="46.69120012642816" lon="7.865100100170821"><ele>583.9399719238281</ele></trkpt><trkpt lat="46.69120012689382" lon="7.865020100027323"><ele>585.0999755859375</ele></trkpt><trkpt lat="46.691170126665384" lon="7.864950100425631"><ele>585.969970703125</ele></trkpt><trkpt lat="46.69109012745321" lon="7.864760100841522"><ele>588.75</ele></trkpt><trkpt lat="46.69108012737706" lon="7.864720101002604"><ele>589.1999816894531</ele></trkpt><trkpt lat="46.69108012737706" lon="7.864690100774169"><ele>589.6799926757812</ele></trkpt><trkpt lat="46.69110012752935" lon="7.864690100774169"><ele>589.969970703125</ele></trkpt><trkpt lat="46.69120012782514" lon="7.864780101459473"><ele>591.9099731445312</ele></trkpt><trkpt lat="46.691270128358155" lon="7.864820101298392"><ele>593.0899963378906</ele></trkpt><trkpt lat="46.69141012895852" lon="7.86477010184899"><ele>595.8299865722656</ele></trkpt><trkpt lat="46.69148012902588" lon="7.864770102314651"><ele>597.5799865722656</ele></trkpt><trkpt lat="46.69148012902588" lon="7.864750102162361"><ele>597.8299865722656</ele></trkpt><trkpt lat="46.691450129728764" lon="7.864690102636814"><ele>599.4599914550781</ele></trkpt><trkpt lat="46.691390129737556" lon="7.864650102332234"><ele>600.0399780273438</ele></trkpt><trkpt lat="46.69131013005972" lon="7.864630102645606"><ele>601.489990234375</ele></trkpt><trkpt lat="46.69129012990743" lon="7.864600102882832"><ele>602.0999755859375</ele></trkpt><trkpt lat="46.69129013037309" lon="7.864560103043914"><ele>602.6599731445312</ele></trkpt><trkpt lat="46.69133013021201" lon="7.8645101031288505"><ele>603.2099914550781</ele></trkpt><trkpt lat="46.69140013074502" lon="7.8645001030527055"><ele>604.6699829101562</ele></trkpt><trkpt lat="46.69144013058394" lon="7.864510103594512"><ele>605.3199768066406</ele></trkpt><trkpt lat="46.69149013096467" lon="7.864510103594512"><ele>605.969970703125</ele></trkpt><trkpt lat="46.69143013097346" lon="7.86442010384053"><ele>607.1599731445312</ele></trkpt><trkpt lat="46.691380131524056" lon="7.864340103697032"><ele>608.2999877929688</ele></trkpt><trkpt lat="46.691270131617785" lon="7.864260104019195"><ele>610.2699890136719</ele></trkpt><trkpt lat="46.6911801318638" lon="7.864190104417503"><ele>611.7899780273438</ele></trkpt><trkpt lat="46.691140132024884" lon="7.864130104426295"><ele>612.6899719238281</ele></trkpt><trkpt lat="46.69107013242319" lon="7.863990104757249"><ele>614.1299743652344</ele></trkpt><trkpt lat="46.691010132897645" lon="7.863840105012059"><ele>616.0799865722656</ele></trkpt><trkpt lat="46.69099013321102" lon="7.8637301051057875"><ele>617.3799743652344</ele></trkpt><trkpt lat="46.69098013360053" lon="7.863560105673969"><ele>619.1099853515625</ele></trkpt><trkpt lat="46.690980134066194" lon="7.863300106022507"><ele>621.5799865722656</ele></trkpt><trkpt lat="46.690990134608" lon="7.863010106608272"><ele>624.489990234375</ele></trkpt><trkpt lat="46.69099013507366" lon="7.862790106795728"><ele>627.6599731445312</ele></trkpt><trkpt lat="46.69101013569161" lon="7.862680107355118"><ele>630.0299987792969</ele></trkpt><trkpt lat="46.69101013569161" lon="7.862650107126683"><ele>630.6199951171875</ele></trkpt><trkpt lat="46.69102013576776" lon="7.8626201073639095"><ele>630.75</ele></trkpt><trkpt lat="46.69104013592005" lon="7.86260010721162"><ele>630.47998046875</ele></trkpt><trkpt lat="46.691120136063546" lon="7.862660107202828"><ele>630.5299987792969</ele></trkpt><trkpt lat="46.69115013582632" lon="7.862680107355118"><ele>630.969970703125</ele></trkpt><trkpt lat="46.691220136359334" lon="7.862740107346326"><ele>631.9399719238281</ele></trkpt><trkpt lat="46.69140013679862" lon="7.862900108098984"><ele>635.1699829101562</ele></trkpt><trkpt lat="46.69140013679862" lon="7.862870107870549"><ele>635.1499938964844</ele></trkpt><trkpt lat="46.69140013679862" lon="7.862860108260065"><ele>635.1399841308594</ele></trkpt><trkpt lat="46.69136013742536" lon="7.86268010828644"><ele>637.239990234375</ele></trkpt><trkpt lat="46.69134013727307" lon="7.862630108371377"><ele>637.7899780273438</ele></trkpt><trkpt lat="46.69133013766259" lon="7.86255010869354"><ele>638.7699890136719</ele></trkpt><trkpt lat="46.69133013766259" lon="7.862510108854622"><ele>638.8899841308594</ele></trkpt><trkpt lat="46.69133013766259" lon="7.862490108702332"><ele>639.0999755859375</ele></trkpt><trkpt lat="46.691360137891024" lon="7.862490108702332"><ele>639.5899963378906</ele></trkpt><trkpt lat="46.6913901376538" lon="7.862520108930767"><ele>640.0799865722656</ele></trkpt><trkpt lat="46.69152013817802" lon="7.862690109293908"><ele>642.5299987792969</ele></trkpt><trkpt lat="46.69154013833031" lon="7.862700109370053"><ele>642.8299865722656</ele></trkpt><trkpt lat="46.6915601384826" lon="7.862700109370053"><ele>643.219970703125</ele></trkpt><trkpt lat="46.6915601384826" lon="7.862690109293908"><ele>643.6399841308594</ele></trkpt><trkpt lat="46.691570138558745" lon="7.862670109607279"><ele>644.2799987792969</ele></trkpt><trkpt lat="46.69156013894826" lon="7.8625701097771525"><ele>645.1699829101562</ele></trkpt><trkpt lat="46.69155013887212" lon="7.862470109947026"><ele>646.219970703125</ele></trkpt><trkpt lat="46.69156013894826" lon="7.862390109803528"><ele>646.7099914550781</ele></trkpt><trkpt lat="46.69157013902441" lon="7.862340109888464"><ele>646.5999755859375</ele></trkpt><trkpt lat="46.69158013910055" lon="7.862340109888464"><ele>647.4399719238281</ele></trkpt><trkpt lat="46.69160013925284" lon="7.862350109964609"><ele>648.0799865722656</ele></trkpt><trkpt lat="46.69162013940513" lon="7.862420110031962"><ele>648.7099914550781</ele></trkpt><trkpt lat="46.69164013955742" lon="7.862480110488832"><ele>649.1499938964844</ele></trkpt><trkpt lat="46.691710140090436" lon="7.862610110547394"><ele>650.8399963378906</ele></trkpt><trkpt lat="46.691730140242726" lon="7.862670110538602"><ele>651.4099731445312</ele></trkpt><trkpt lat="46.691750139929354" lon="7.862670110538602"><ele>651.6199951171875</ele></trkpt><trkpt lat="46.6917601400055" lon="7.862650110851973"><ele>652.0899963378906</ele></trkpt><trkpt lat="46.69176014047116" lon="7.862570110708475"><ele>652.9199829101562</ele></trkpt><trkpt lat="46.69178014062345" lon="7.86243011103943"><ele>654.3499755859375</ele></trkpt><trkpt lat="46.691790140699595" lon="7.8623801111243665"><ele>654.469970703125</ele></trkpt><trkpt lat="46.691810140851885" lon="7.8623801111243665"><ele>655.219970703125</ele></trkpt><trkpt lat="46.69184014108032" lon="7.862420111428946"><ele>656.5499877929688</ele></trkpt><trkpt lat="46.69190014153719" lon="7.862540111877024"><ele>659.3799743652344</ele></trkpt><trkpt lat="46.69192014168948" lon="7.8625901117920876"><ele>660.0799865722656</ele></trkpt><trkpt lat="46.69196014245972" lon="7.862480112351477"><ele>662.8099975585938</ele></trkpt><trkpt lat="46.6920001427643" lon="7.862430112902075"><ele>664.5199890136719</ele></trkpt><trkpt lat="46.692030142992735" lon="7.86240011267364"><ele>665.5599975585938</ele></trkpt><trkpt lat="46.692070143297315" lon="7.8624001131393015"><ele>666.969970703125</ele></trkpt><trkpt lat="46.692110143601894" lon="7.862400113604963"><ele>668.969970703125</ele></trkpt><trkpt lat="46.69214014383033" lon="7.862400113604963"><ele>669.6799926757812</ele></trkpt><trkpt lat="46.69216014398262" lon="7.862380113452673"><ele>670.0199890136719</ele></trkpt><trkpt lat="46.69216014398262" lon="7.862290113698691"><ele>671.4399719238281</ele></trkpt><trkpt lat="46.692150144372135" lon="7.862210114020854"><ele>672.3399963378906</ele></trkpt><trkpt lat="46.69209014531225" lon="7.861920114606619"><ele>676.1999816894531</ele></trkpt><trkpt lat="46.69205014547333" lon="7.861790115013719"><ele>677.7699890136719</ele></trkpt><trkpt lat="46.69204014586285" lon="7.861690115183592"><ele>679.1199951171875</ele></trkpt><trkpt lat="46.69204014586285" lon="7.861620115116239"><ele>679.6499938964844</ele></trkpt><trkpt lat="46.69207014609128" lon="7.861530115362257"><ele>680.6099853515625</ele></trkpt><trkpt lat="46.69210014631972" lon="7.86141011537984"><ele>681.97998046875</ele></trkpt><trkpt lat="46.6921501471661" lon="7.861260116100311"><ele>685.5099792480469</ele></trkpt><trkpt lat="46.69219014747068" lon="7.861080116592348"><ele>689.0699768066406</ele></trkpt><trkpt lat="46.69222014816478" lon="7.861050116829574"><ele>690.6699829101562</ele></trkpt><trkpt lat="46.69224014831707" lon="7.861070116981864"><ele>691.7599792480469</ele></trkpt><trkpt lat="46.692270148545504" lon="7.861140117049217"><ele>692.9299926757812</ele></trkpt><trkpt lat="46.69233014853671" lon="7.8613101174123585"><ele>694.0499877929688</ele></trkpt><trkpt lat="46.69236014876515" lon="7.861410117242485"><ele>694.7599792480469</ele></trkpt><trkpt lat="46.69239014899358" lon="7.861470117699355"><ele>696.0599975585938</ele></trkpt><trkpt lat="46.69241014914587" lon="7.8614801177755"><ele>697.22998046875</ele></trkpt><trkpt lat="46.69243014976382" lon="7.861410118173808"><ele>698.2099914550781</ele></trkpt><trkpt lat="46.69244014983997" lon="7.861380117945373"><ele>699.1899719238281</ele></trkpt><trkpt lat="46.69246014999226" lon="7.861380118411034"><ele>700.6099853515625</ele></trkpt><trkpt lat="46.69249015022069" lon="7.8614601185545325"><ele>701.2599792480469</ele></trkpt><trkpt lat="46.69252015044913" lon="7.861550118774176"><ele>702.3199768066406</ele></trkpt><trkpt lat="46.69255015067756" lon="7.861610118765384"><ele>703.1699829101562</ele></trkpt><trkpt lat="46.69255015067756" lon="7.8615701189264655"><ele>703.5</ele></trkpt><trkpt lat="46.69255015114322" lon="7.861420119181275"><ele>705.0299987792969</ele></trkpt><trkpt lat="46.69255015114322" lon="7.861310119275004"><ele>705.8099975585938</ele></trkpt><trkpt lat="46.692530151456594" lon="7.861220119521022"><ele>706.5999755859375</ele></trkpt><trkpt lat="46.692510151304305" lon="7.861140119377524"><ele>707.3899841308594</ele></trkpt><trkpt lat="46.692490151617676" lon="7.861050119623542"><ele>708.0999755859375</ele></trkpt><trkpt lat="46.692490151617676" lon="7.860980119556189"><ele>708.6099853515625</ele></trkpt><trkpt lat="46.69250015169382" lon="7.860930119641125"><ele>708.9599914550781</ele></trkpt><trkpt lat="46.69252015184611" lon="7.860900119878352"><ele>709.3099975585938</ele></trkpt><trkpt lat="46.692550152074546" lon="7.860880119726062"><ele>709.6299743652344</ele></trkpt><trkpt lat="46.69258015183732" lon="7.860880119726062"><ele>709.9199829101562</ele></trkpt><trkpt lat="46.692610152065754" lon="7.860900119878352"><ele>710.1999816894531</ele></trkpt><trkpt lat="46.692630152218044" lon="7.8609301201067865"><ele>710.4299926757812</ele></trkpt><trkpt lat="46.69264015229419" lon="7.860990120097995"><ele>710.7999877929688</ele></trkpt><trkpt lat="46.69264015229419" lon="7.861180120147765"><ele>712.1199951171875</ele></trkpt><trkpt lat="46.692650152370334" lon="7.861230120062828"><ele>712.4499816894531</ele></trkpt><trkpt lat="46.69269015267491" lon="7.861350120510906"><ele>713.3599853515625</ele></trkpt><trkpt lat="46.69273015297949" lon="7.861470120493323"><ele>714.3799743652344</ele></trkpt><trkpt lat="46.69278015289456" lon="7.8616001210175455"><ele>715.7699890136719</ele></trkpt><trkpt lat="46.692820153199136" lon="7.861670121084899"><ele>716.4099731445312</ele></trkpt><trkpt lat="46.692860153503716" lon="7.861720120999962"><ele>716.989990234375</ele></trkpt><trkpt lat="46.69287015404552" lon="7.861550121568143"><ele>720.9499816894531</ele></trkpt><trkpt lat="46.69288015458733" lon="7.86139012221247"><ele>723.8099975585938</ele></trkpt><trkpt lat="46.69292015582323" lon="7.861120122950524"><ele>728.8599853515625</ele></trkpt><trkpt lat="46.69294015597552" lon="7.861060122959316"><ele>729.9499816894531</ele></trkpt><trkpt lat="46.692970156203955" lon="7.861030123196542"><ele>730.6799926757812</ele></trkpt><trkpt lat="46.69300015643239" lon="7.861040123272687"><ele>732.2699890136719</ele></trkpt><trkpt lat="46.693090157117695" lon="7.861270124092698"><ele>736.2099914550781</ele></trkpt><trkpt lat="46.69314015749842" lon="7.861380124464631"><ele>738.2799987792969</ele></trkpt><trkpt lat="46.693170157726854" lon="7.861400124616921"><ele>739.4099731445312</ele></trkpt><trkpt lat="46.69322015857324" lon="7.861390125006437"><ele>742.1799926757812</ele></trkpt><trkpt lat="46.69328015949577" lon="7.861260125879198"><ele>746.8999938964844</ele></trkpt><trkpt lat="46.69336015963927" lon="7.861100126057863"><ele>748.8699951171875</ele></trkpt><trkpt lat="46.693410160019994" lon="7.861040126066655"><ele>749.739990234375</ele></trkpt><trkpt lat="46.693430160172284" lon="7.861040126532316"><ele>751.2699890136719</ele></trkpt><trkpt lat="46.693450160790235" lon="7.861120126675814"><ele>753.8799743652344</ele></trkpt><trkpt lat="46.693470161408186" lon="7.861230127047747"><ele>756.6399841308594</ele></trkpt><trkpt lat="46.69352016178891" lon="7.861330127809197"><ele>759.0899963378906</ele></trkpt><trkpt lat="46.69362016255036" lon="7.8614701284095645"><ele>763.25</ele></trkpt><trkpt lat="46.69368016347289" lon="7.861590128857642"><ele>766.2999877929688</ele></trkpt><trkpt lat="46.69370016362518" lon="7.861600128933787"><ele>767.0799865722656</ele></trkpt><trkpt lat="46.693710163701326" lon="7.861560129094869"><ele>768.3099975585938</ele></trkpt><trkpt lat="46.69371016416699" lon="7.8614401295781136"><ele>770.3199768066406</ele></trkpt><trkpt lat="46.6937001645565" lon="7.861310129519552"><ele>772.22998046875</ele></trkpt><trkpt lat="46.69371016463265" lon="7.861250129994005"><ele>773.6099853515625</ele></trkpt><trkpt lat="46.6937301652506" lon="7.861230130307376"><ele>775.1699829101562</ele></trkpt><trkpt lat="46.69375016540289" lon="7.861250130459666"><ele>776.5799865722656</ele></trkpt><trkpt lat="46.693820165935904" lon="7.861400131136179"><ele>780.2999877929688</ele></trkpt><trkpt lat="46.69389016693458" lon="7.861530131660402"><ele>783.6199951171875</ele></trkpt><trkpt lat="46.693900167010725" lon="7.861670131795108"><ele>785.1999816894531</ele></trkpt><trkpt lat="46.693900167476386" lon="7.861790131777525"><ele>785.8799743652344</ele></trkpt><trkpt lat="46.693880167324096" lon="7.861870131921023"><ele>786.7699890136719</ele></trkpt><trkpt lat="46.69384016748518" lon="7.861940131988376"><ele>787.7699890136719</ele></trkpt><trkpt lat="46.69376016780734" lon="7.862020132597536"><ele>789.6199951171875</ele></trkpt><trkpt lat="46.693660168442875" lon="7.862060132902116"><ele>791.1399841308594</ele></trkpt><trkpt lat="46.69361016852781" lon="7.862080132588744"><ele>791.3099975585938</ele></trkpt><trkpt lat="46.69356016861275" lon="7.862100132741034"><ele>792.0</ele></trkpt><trkpt lat="46.69350016862154" lon="7.862200133036822"><ele>792.0</ele></trkpt><trkpt lat="46.69350016862154" lon="7.862270133104175"><ele>792.22998046875</ele></trkpt><trkpt lat="46.693530168849975" lon="7.8623501332476735"><ele>793.5699768066406</ele></trkpt><trkpt lat="46.693570169154555" lon="7.86247013323009"><ele>795.0399780273438</ele></trkpt><trkpt lat="46.693590169306844" lon="7.86251013353467"><ele>795.4399719238281</ele></trkpt><trkpt lat="46.693650170229375" lon="7.862680133897811"><ele>799.5099792480469</ele></trkpt><trkpt lat="46.693650170229375" lon="7.862700134050101"><ele>799.8499755859375</ele></trkpt><trkpt lat="46.693650170229375" lon="7.862790134269744"><ele>801.1099853515625</ele></trkpt><trkpt lat="46.693690170999616" lon="7.862930134870112"><ele>803.7999877929688</ele></trkpt><trkpt lat="46.693750170990825" lon="7.86301013501361"><ele>804.489990234375</ele></trkpt><trkpt lat="46.69392017181963" lon="7.863100135233253"><ele>807.8799743652344</ele></trkpt><trkpt lat="46.69399017188698" lon="7.863130135461688"><ele>808.9199829101562</ele></trkpt><trkpt lat="46.69405017234385" lon="7.863200135994703"><ele>810.739990234375</ele></trkpt><trkpt lat="46.69409017264843" lon="7.8632201361469924"><ele>812.1299743652344</ele></trkpt><trkpt lat="46.69413017248735" lon="7.863240136299282"><ele>812.3499755859375</ele></trkpt><trkpt lat="46.69409017264843" lon="7.863130136393011"><ele>813.3399963378906</ele></trkpt><trkpt lat="46.694100173190236" lon="7.863060136325657"><ele>814.3799743652344</ele></trkpt><trkpt lat="46.69412017380819" lon="7.862950136885047"><ele>817.8999938964844</ele></trkpt><trkpt lat="46.694110174197704" lon="7.8628901373595"><ele>820.2099914550781</ele></trkpt><trkpt lat="46.69416017504409" lon="7.862730138003826"><ele>823.5099792480469</ele></trkpt><trkpt lat="46.694170175120234" lon="7.862710137851536"><ele>824.0899963378906</ele></trkpt><trkpt lat="46.69418017519638" lon="7.862680138088763"><ele>824.5799865722656</ele></trkpt><trkpt lat="46.694210175424814" lon="7.862640138249844"><ele>825.7799987792969</ele></trkpt><trkpt lat="46.69426017580554" lon="7.862620138563216"><ele>828.2699890136719</ele></trkpt><trkpt lat="46.69428017595783" lon="7.862610138487071"><ele>828.5199890136719</ele></trkpt><trkpt lat="46.694310176186264" lon="7.862510139122605"><ele>830.1399841308594</ele></trkpt><trkpt lat="46.69436017656699" lon="7.862430139444768"><ele>832.4199829101562</ele></trkpt><trkpt lat="46.69439017679542" lon="7.862400139681995"><ele>833.6899719238281</ele></trkpt><trkpt lat="46.69442017702386" lon="7.86241013975814"><ele>835.0499877929688</ele></trkpt><trkpt lat="46.6944601777941" lon="7.862480139825493"><ele>836.9399719238281</ele></trkpt><trkpt lat="46.69452017825097" lon="7.862580140586942"><ele>840.219970703125</ele></trkpt><trkpt lat="46.69456017855555" lon="7.862620140891522"><ele>841.9299926757812</ele></trkpt><trkpt lat="46.69462017901242" lon="7.862710141111165"><ele>844.75</ele></trkpt><trkpt lat="46.69465017924085" lon="7.8627401413396"><ele>845.8399963378906</ele></trkpt><trkpt lat="46.69468017946929" lon="7.86276014149189"><ele>847.0099792480469</ele></trkpt><trkpt lat="46.69468017993495" lon="7.862710141576827"><ele>847.5899963378906</ele></trkpt><trkpt lat="46.694690180011094" lon="7.862510141916573"><ele>849.7799987792969</ele></trkpt><trkpt lat="46.69476018054411" lon="7.8625901425257325"><ele>852.5199890136719</ele></trkpt><trkpt lat="46.6949001820758" lon="7.862690143287182"><ele>858.6899719238281</ele></trkpt><trkpt lat="46.69495018245652" lon="7.862710143905133"><ele>860.6199951171875</ele></trkpt><trkpt lat="46.69516018405557" lon="7.862800145056099"><ele>868.6899719238281</ele></trkpt><trkpt lat="46.695220184512436" lon="7.8628301452845335"><ele>870.6299743652344</ele></trkpt><trkpt lat="46.69527018489316" lon="7.862850145902485"><ele>873.2099914550781</ele></trkpt><trkpt lat="46.695300185121596" lon="7.86286014597863"><ele>874.0599975585938</ele></trkpt><trkpt lat="46.695360185578465" lon="7.862900146283209"><ele>876.6799926757812</ele></trkpt><trkpt lat="46.69541018595919" lon="7.862920146435499"><ele>878.2699890136719</ele></trkpt><trkpt lat="46.695420186035335" lon="7.862920146435499"><ele>878.72998046875</ele></trkpt><trkpt lat="46.69553018687293" lon="7.862990146968514"><ele>882.469970703125</ele></trkpt><trkpt lat="46.6955901873298" lon="7.863050147425383"><ele>884.3099975585938</ele></trkpt><trkpt lat="46.695640187710524" lon="7.863090147729963"><ele>886.6899719238281</ele></trkpt><trkpt lat="46.69566018786281" lon="7.863150148186833"><ele>887.8899841308594</ele></trkpt><trkpt lat="46.6956801880151" lon="7.863220148254186"><ele>889.47998046875</ele></trkpt><trkpt lat="46.69569018855691" lon="7.863340148702264"><ele>890.9099731445312</ele></trkpt><trkpt lat="46.6957101887092" lon="7.863400148693472"><ele>892.1399841308594</ele></trkpt><trkpt lat="46.695720189251006" lon="7.86348014883697"><ele>893.5299987792969</ele></trkpt><trkpt lat="46.69573018932715" lon="7.86354014929384"><ele>894.6899719238281</ele></trkpt><trkpt lat="46.69572018971667" lon="7.863590149208903"><ele>895.6899719238281</ele></trkpt><trkpt lat="46.69569018995389" lon="7.863640149589628"><ele>897.1799926757812</ele></trkpt><trkpt lat="46.69568018987775" lon="7.863720149733126"><ele>898.5099792480469</ele></trkpt><trkpt lat="46.695710191037506" lon="7.863840150181204"><ele>902.3699951171875</ele></trkpt><trkpt lat="46.695750191342086" lon="7.863870150409639"><ele>903.75</ele></trkpt><trkpt lat="46.69580019172281" lon="7.863860150799155"><ele>905.7799987792969</ele></trkpt><trkpt lat="46.69586019217968" lon="7.863880151417106"><ele>908.1999816894531</ele></trkpt><trkpt lat="46.69590019155294" lon="7.86372015113011"><ele>906.4499816894531</ele></trkpt><trkpt lat="46.695920191239566" lon="7.863600150682032"><ele>905.3099975585938</ele></trkpt><trkpt lat="46.69591019116342" lon="7.863520150538534"><ele>904.1899719238281</ele></trkpt><trkpt lat="46.69591019116342" lon="7.86349015077576"><ele>903.97998046875</ele></trkpt><trkpt lat="46.695940191391855" lon="7.863540150690824"><ele>905.5999755859375</ele></trkpt><trkpt lat="46.69595019193366" lon="7.863620150834322"><ele>906.8199768066406</ele></trkpt><trkpt lat="46.69596019200981" lon="7.86370015097782"><ele>907.8499755859375</ele></trkpt><trkpt lat="46.69600019278005" lon="7.863950151950121"><ele>912.5599975585938</ele></trkpt><trkpt lat="46.696020193398" lon="7.864060152322054"><ele>914.1199951171875</ele></trkpt><trkpt lat="46.696050193626434" lon="7.864140152465552"><ele>915.5499877929688</ele></trkpt><trkpt lat="46.69607019377872" lon="7.8641901523806155"><ele>916.3399963378906</ele></trkpt><trkpt lat="46.69612019415945" lon="7.864290153142065"><ele>918.6799926757812</ele></trkpt><trkpt lat="46.69619019469246" lon="7.864380153361708"><ele>920.5799865722656</ele></trkpt><trkpt lat="46.69623019453138" lon="7.864410153590143"><ele>921.7799987792969</ele></trkpt><trkpt lat="46.69626019522548" lon="7.864460153505206"><ele>922.9199829101562</ele></trkpt><trkpt lat="46.69628019537777" lon="7.864520153962076"><ele>924.0099792480469</ele></trkpt><trkpt lat="46.69632019568235" lon="7.864570153877139"><ele>925.1899719238281</ele></trkpt><trkpt lat="46.696440196596086" lon="7.864730154629797"><ele>929.6899719238281</ele></trkpt><trkpt lat="46.69665019772947" lon="7.864920155610889"><ele>935.5099792480469</ele></trkpt><trkpt lat="46.696750198025256" lon="7.865010155830532"><ele>938.2599792480469</ele></trkpt><trkpt lat="46.696850198786706" lon="7.865080156363547"><ele>941.0099792480469</ele></trkpt><trkpt lat="46.696870198938996" lon="7.865090156439692"><ele>941.6199951171875</ele></trkpt><trkpt lat="46.696870198473334" lon="7.865090156439692"><ele>941.1099853515625</ele></trkpt><trkpt lat="46.696870198938996" lon="7.865090156439692"><ele>941.6199951171875</ele></trkpt><trkpt lat="46.69688019901514" lon="7.865070156753063"><ele>941.97998046875</ele></trkpt><trkpt lat="46.69686019932851" lon="7.8649601568467915"><ele>944.2999877929688</ele></trkpt><trkpt lat="46.69685019971803" lon="7.864930157084018"><ele>945.1899719238281</ele></trkpt><trkpt lat="46.69685019971803" lon="7.8649001573212445"><ele>946.1999816894531</ele></trkpt><trkpt lat="46.69687019987032" lon="7.864870157558471"><ele>946.739990234375</ele></trkpt><trkpt lat="46.69687019987032" lon="7.864840157330036"><ele>947.1099853515625</ele></trkpt><trkpt lat="46.69687019987032" lon="7.864810157567263"><ele>947.8099975585938</ele></trkpt><trkpt lat="46.696860200259835" lon="7.864740157965571"><ele>949.3099975585938</ele></trkpt><trkpt lat="46.69685020064935" lon="7.864640158135444"><ele>951.2999877929688</ele></trkpt><trkpt lat="46.69685020158067" lon="7.864500158466399"><ele>954.6199951171875</ele></trkpt><trkpt lat="46.69686020212248" lon="7.86435015918687"><ele>957.3599853515625</ele></trkpt><trkpt lat="46.696870202664286" lon="7.8642301596701145"><ele>959.8399963378906</ele></trkpt><trkpt lat="46.69690020335838" lon="7.864060160238296"><ele>963.9299926757812</ele></trkpt><trkpt lat="46.69697020482272" lon="7.863740161061287"><ele>971.2099914550781</ele></trkpt><trkpt lat="46.69701020559296" lon="7.863560162018985"><ele>975.1799926757812</ele></trkpt><trkpt lat="46.697040206287056" lon="7.863420162349939"><ele>978.5399780273438</ele></trkpt><trkpt lat="46.6970802070573" lon="7.863230163231492"><ele>983.2899780273438</ele></trkpt><trkpt lat="46.69710020767525" lon="7.86312016332522"><ele>985.7699890136719</ele></trkpt><trkpt lat="46.69714020891115" lon="7.862840164452791"><ele>991.5199890136719</ele></trkpt><trkpt lat="46.69714020937681" lon="7.862730165012181"><ele>993.8799743652344</ele></trkpt><trkpt lat="46.69714020984247" lon="7.862650164868683"><ele>995.5799865722656</ele></trkpt><trkpt lat="46.69713021023199" lon="7.86245016567409"><ele>999.3499755859375</ele></trkpt><trkpt lat="46.69712021108717" lon="7.862290166318417"><ele>1002.72998046875</ele></trkpt><trkpt lat="46.6971002118662" lon="7.862180166412145"><ele>1005.6299743652344</ele></trkpt><trkpt lat="46.697090212255716" lon="7.862120166886598"><ele>1007.1999816894531</ele></trkpt><trkpt lat="46.69708021264523" lon="7.861990167293698"><ele>1009.5699768066406</ele></trkpt><trkpt lat="46.69708021264523" lon="7.861910167615861"><ele>1011.0799865722656</ele></trkpt><trkpt lat="46.69711021333933" lon="7.861760167870671"><ele>1012.9299926757812</ele></trkpt><trkpt lat="46.697180214803666" lon="7.861380169168115"><ele>1020.6899719238281</ele></trkpt><trkpt lat="46.69722021557391" lon="7.861210169736296"><ele>1024.2699890136719</ele></trkpt><trkpt lat="46.69724021619186" lon="7.861080170143396"><ele>1026.7099914550781</ele></trkpt><trkpt lat="46.697250216268" lon="7.861020170152187"><ele>1027.1799926757812</ele></trkpt><trkpt lat="46.69726021634415" lon="7.8609301703982055"><ele>1028.4599914550781</ele></trkpt><trkpt lat="46.69724021665752" lon="7.860880170483142"><ele>1029.239990234375</ele></trkpt><trkpt lat="46.6972002168186" lon="7.860810170415789"><ele>1030.9099731445312</ele></trkpt><trkpt lat="46.697140217758715" lon="7.860650171060115"><ele>1035.1599731445312</ele></trkpt><trkpt lat="46.6971102184616" lon="7.860480171628296"><ele>1038.8399963378906</ele></trkpt><trkpt lat="46.697090219240636" lon="7.860300172585994"><ele>1042.9499816894531</ele></trkpt><trkpt lat="46.69708022009581" lon="7.860130173154175"><ele>1048.0099792480469</ele></trkpt><trkpt lat="46.69709022110328" lon="7.859990173950791"><ele>1051.219970703125</ele></trkpt><trkpt lat="46.69709022110328" lon="7.859910173807293"><ele>1052.8499755859375</ele></trkpt><trkpt lat="46.6970802214928" lon="7.859840174205601"><ele>1053.6599731445312</ele></trkpt><trkpt lat="46.69704022165388" lon="7.8597401743754745"><ele>1054.739990234375</ele></trkpt><trkpt lat="46.69702022243291" lon="7.859610174782574"><ele>1057.8199768066406</ele></trkpt><trkpt lat="46.6969902231358" lon="7.8594401753507555"><ele>1061.4199829101562</ele></trkpt><trkpt lat="46.69698022399098" lon="7.859260175842792"><ele>1065.4099731445312</ele></trkpt><trkpt lat="46.69698022399098" lon="7.85921017639339"><ele>1066.719970703125</ele></trkpt><trkpt lat="46.69698022445664" lon="7.8590701767243445"><ele>1069.2599792480469</ele></trkpt><trkpt lat="46.69696022477001" lon="7.858980176970363"><ele>1070.8199768066406</ele></trkpt><trkpt lat="46.69694022508338" lon="7.858950177207589"><ele>1071.8899841308594</ele></trkpt><trkpt lat="46.69687022548169" lon="7.858870177529752"><ele>1074.5399780273438</ele></trkpt><trkpt lat="46.6968102264218" lon="7.858790177851915"><ele>1077.2899780273438</ele></trkpt><trkpt lat="46.696750226430595" lon="7.85867017833516"><ele>1079.2899780273438</ele></trkpt><trkpt lat="46.69667022721842" lon="7.858460178598762"><ele>1082.8699951171875</ele></trkpt><trkpt lat="46.69660022808239" lon="7.858290179166943"><ele>1085.5199890136719</ele></trkpt><trkpt lat="46.69645022926852" lon="7.858030180446804"><ele>1092.5</ele></trkpt><trkpt lat="46.696390230208635" lon="7.85787018109113"><ele>1096.5499877929688</ele></trkpt><trkpt lat="46.69635023036972" lon="7.857740181032568"><ele>1098.72998046875</ele></trkpt><trkpt lat="46.69631023099646" lon="7.857610181905329"><ele>1102.0899963378906</ele></trkpt><trkpt lat="46.69628023169935" lon="7.857550181914121"><ele>1103.7899780273438</ele></trkpt><trkpt lat="46.6962702316232" lon="7.857480182312429"><ele>1104.8799743652344</ele></trkpt><trkpt lat="46.69628023216501" lon="7.857330182567239"><ele>1106.239990234375</ele></trkpt><trkpt lat="46.69628023263067" lon="7.857230182737112"><ele>1108.5999755859375</ele></trkpt><trkpt lat="46.69628023309633" lon="7.857170183211565"><ele>1110.2799987792969</ele></trkpt><trkpt lat="46.69623023318127" lon="7.857080183457583"><ele>1111.9199829101562</ele></trkpt><trkpt lat="46.696200233418494" lon="7.85703018354252"><ele>1113.0899963378906</ele></trkpt><trkpt lat="46.69619023334235" lon="7.857000183314085"><ele>1113.4599914550781</ele></trkpt><trkpt lat="46.696220233570784" lon="7.857010183855891"><ele>1114.239990234375</ele></trkpt><trkpt lat="46.696320234332234" lon="7.857090183999389"><ele>1117.4299926757812</ele></trkpt><trkpt lat="46.69639023486525" lon="7.857160184532404"><ele>1119.6999816894531</ele></trkpt><trkpt lat="46.69644023524597" lon="7.857250184752047"><ele>1122.1199951171875</ele></trkpt><trkpt lat="46.69650023570284" lon="7.857320185285062"><ele>1124.6699829101562</ele></trkpt><trkpt lat="46.69657023623586" lon="7.857410185504705"><ele>1126.2799987792969</ele></trkpt><trkpt lat="46.69662023615092" lon="7.857470185495913"><ele>1127.2999877929688</ele></trkpt><trkpt lat="46.69668023660779" lon="7.857510185800493"><ele>1129.1799926757812</ele></trkpt><trkpt lat="46.69680023752153" lon="7.857610186561942"><ele>1133.219970703125</ele></trkpt><trkpt lat="46.69690023828298" lon="7.857680187094957"><ele>1136.3599853515625</ele></trkpt><trkpt lat="46.69701023912057" lon="7.857760187704116"><ele>1140.0599975585938</ele></trkpt><trkpt lat="46.697120239492506" lon="7.857810188084841"><ele>1142.7899780273438</ele></trkpt><trkpt lat="46.69723023986444" lon="7.857840188778937"><ele>1145.6999816894531</ele></trkpt><trkpt lat="46.69733024062589" lon="7.857840188778937"><ele>1147.7699890136719</ele></trkpt><trkpt lat="46.69746024115011" lon="7.8578301896341145"><ele>1150.9399719238281</ele></trkpt><trkpt lat="46.69752024160698" lon="7.857820190023631"><ele>1153.8499755859375</ele></trkpt><trkpt lat="46.697530241683125" lon="7.857800189871341"><ele>1154.2599792480469</ele></trkpt><trkpt lat="46.69752024207264" lon="7.8577701901085675"><ele>1155.2899780273438</ele></trkpt><trkpt lat="46.69747024215758" lon="7.857740190345794"><ele>1156.6199951171875</ele></trkpt><trkpt lat="46.69740024255589" lon="7.857690190430731"><ele>1158.1099853515625</ele></trkpt><trkpt lat="46.697330242954195" lon="7.857620190829039"><ele>1159.7799987792969</ele></trkpt><trkpt lat="46.69727024342865" lon="7.857560191303492"><ele>1161.5799865722656</ele></trkpt><trkpt lat="46.697220243513584" lon="7.857490191236138"><ele>1162.97998046875</ele></trkpt><trkpt lat="46.69719024375081" lon="7.857440191321075"><ele>1163.8499755859375</ele></trkpt><trkpt lat="46.69715024391189" lon="7.85732019180432"><ele>1165.8199768066406</ele></trkpt><trkpt lat="46.69708024477586" lon="7.8571001924574375"><ele>1169.8599853515625</ele></trkpt><trkpt lat="46.697020245715976" lon="7.8568901931867"><ele>1173.6699829101562</ele></trkpt><trkpt lat="46.69692024728283" lon="7.856520194094628"><ele>1180.8799743652344</ele></trkpt><trkpt lat="46.69689024752006" lon="7.856410194654018"><ele>1182.7999877929688</ele></trkpt><trkpt lat="46.69687024783343" lon="7.856280195061117"><ele>1185.2899780273438</ele></trkpt><trkpt lat="46.69687024829909" lon="7.856150195002556"><ele>1187.7099914550781</ele></trkpt><trkpt lat="46.6968802488409" lon="7.856060195714235"><ele>1189.3499755859375</ele></trkpt><trkpt lat="46.69690024899319" lon="7.856010195799172"><ele>1189.9599914550781</ele></trkpt><trkpt lat="46.69692024914548" lon="7.8559001958929"><ele>1191.4099731445312</ele></trkpt><trkpt lat="46.69694024929777" lon="7.8557901959866285"><ele>1192.5799865722656</ele></trkpt><trkpt lat="46.69694024976343" lon="7.855670196004212"><ele>1193.8399963378906</ele></trkpt><trkpt lat="46.696930250152946" lon="7.85547019680962"><ele>1196.75</ele></trkpt><trkpt lat="46.69691025093198" lon="7.855250196997076"><ele>1198.6599731445312</ele></trkpt><trkpt lat="46.69685025140643" lon="7.854970197658986"><ele>1202.4399719238281</ele></trkpt><trkpt lat="46.6967802522704" lon="7.854730198159814"><ele>1206.3199768066406</ele></trkpt><trkpt lat="46.69674025289714" lon="7.854560198727995"><ele>1208.8299865722656</ele></trkpt><trkpt lat="46.696730252821" lon="7.854460198897868"><ele>1209.8399963378906</ele></trkpt><trkpt lat="46.696740253362805" lon="7.8542701988480985"><ele>1212.219970703125</ele></trkpt><trkpt lat="46.69674025429413" lon="7.854050199501216"><ele>1215.5699768066406</ele></trkpt><trkpt lat="46.69675025483593" lon="7.853790199849755"><ele>1218.0</ele></trkpt><trkpt lat="46.696750255301595" lon="7.853580200113356"><ele>1220.239990234375</ele></trkpt><trkpt lat="46.696710255462676" lon="7.853410200681537"><ele>1222.3899841308594</ele></trkpt><trkpt lat="46.696640255860984" lon="7.8532302007079124"><ele>1223.8399963378906</ele></trkpt><trkpt lat="46.69658025633544" lon="7.853070201352239"><ele>1226.1599731445312</ele></trkpt><trkpt lat="46.696550256572664" lon="7.852930201217532"><ele>1227.0199890136719</ele></trkpt><trkpt lat="46.69654025649652" lon="7.852830201387405"><ele>1227.6699829101562</ele></trkpt><trkpt lat="46.696530256886035" lon="7.852720201481134"><ele>1228.4499816894531</ele></trkpt><trkpt lat="46.696530256886035" lon="7.852630201727152"><ele>1229.72998046875</ele></trkpt><trkpt lat="46.69648025697097" lon="7.8524002018384635"><ele>1230.6299743652344</ele></trkpt><trkpt lat="46.69643025798723" lon="7.852120202500373"><ele>1233.5399780273438</ele></trkpt><trkpt lat="46.69639025814831" lon="7.851870202459395"><ele>1235.22998046875</ele></trkpt><trkpt lat="46.69637025799602" lon="7.851620202418417"><ele>1234.9599914550781</ele></trkpt><trkpt lat="46.696330258157104" lon="7.85131020238623"><ele>1234.2999877929688</ele></trkpt><trkpt lat="46.696310258004814" lon="7.851040202192962"><ele>1234.1399841308594</ele></trkpt><trkpt lat="46.696270257700235" lon="7.850720202550292"><ele>1234.0</ele></trkpt><trkpt lat="46.696250258013606" lon="7.850520202424377"><ele>1234.2099914550781</ele></trkpt><trkpt lat="46.69624025793746" lon="7.850270202383399"><ele>1233.5199890136719</ele></trkpt><trkpt lat="46.69624025793746" lon="7.850150202400982"><ele>1233.9499816894531</ele></trkpt><trkpt lat="46.69622025778517" lon="7.850030202418566"><ele>1234.239990234375</ele></trkpt><trkpt lat="46.69621025817469" lon="7.850020202342421"><ele>1234.3599853515625</ele></trkpt><trkpt lat="46.69620025809854" lon="7.849970202427357"><ele>1234.469970703125</ele></trkpt><trkpt lat="46.69624025840312" lon="7.850010202731937"><ele>1235.8499755859375</ele></trkpt><trkpt lat="46.69628025824204" lon="7.850030202884227"><ele>1236.7899780273438</ele></trkpt><trkpt lat="46.6963602588512" lon="7.850040202960372"><ele>1238.5599975585938</ele></trkpt><trkpt lat="46.696410259231925" lon="7.850070203654468"><ele>1240.8899841308594</ele></trkpt><trkpt lat="46.69650025991723" lon="7.850110203959048"><ele>1243.6399841308594</ele></trkpt><trkpt lat="46.69661026028916" lon="7.8501602043397725"><ele>1246.5999755859375</ele></trkpt><trkpt lat="46.69667026074603" lon="7.850180204492062"><ele>1248.0599975585938</ele></trkpt><trkpt lat="46.69672026112676" lon="7.850200204644352"><ele>1249.7799987792969</ele></trkpt><trkpt lat="46.69675026135519" lon="7.850240204948932"><ele>1251.7699890136719</ele></trkpt><trkpt lat="46.69675026182085" lon="7.850270205643028"><ele>1253.489990234375</ele></trkpt><trkpt lat="46.69674026221037" lon="7.8503102054819465"><ele>1255.0599975585938</ele></trkpt><trkpt lat="46.69670026283711" lon="7.850360205862671"><ele>1257.4399719238281</ele></trkpt><trkpt lat="46.69665026292205" lon="7.850410206243396"><ele>1259.0999755859375</ele></trkpt><trkpt lat="46.69663026323542" lon="7.8504602066241205"><ele>1260.2599792480469</ele></trkpt><trkpt lat="46.69663026370108" lon="7.850530206691474"><ele>1261.8999938964844</ele></trkpt><trkpt lat="46.69665026385337" lon="7.850580207072198"><ele>1263.9399719238281</ele></trkpt><trkpt lat="46.69665026385337" lon="7.850620207376778"><ele>1264.3199768066406</ele></trkpt><trkpt lat="46.69663026370108" lon="7.850660207215697"><ele>1263.4099731445312</ele></trkpt><trkpt lat="46.69669026462361" lon="7.850640207529068"><ele>1267.3899841308594</ele></trkpt><trkpt lat="46.69673026492819" lon="7.850630207918584"><ele>1269.489990234375</ele></trkpt><trkpt lat="46.69680026592687" lon="7.850690208841115"><ele>1274.5</ele></trkpt><trkpt lat="46.69682026654482" lon="7.850730209145695"><ele>1276.5799865722656</ele></trkpt><trkpt lat="46.69684026669711" lon="7.850790209136903"><ele>1278.239990234375</ele></trkpt><trkpt lat="46.696850266773254" lon="7.850880209356546"><ele>1279.0699768066406</ele></trkpt><trkpt lat="46.69686026731506" lon="7.850930209737271"><ele>1280.0</ele></trkpt><trkpt lat="46.69688026746735" lon="7.850920209661126"><ele>1281.2999877929688</ele></trkpt><trkpt lat="46.69692026777193" lon="7.850820210296661"><ele>1283.7999877929688</ele></trkpt><trkpt lat="46.696930268313736" lon="7.850790210533887"><ele>1284.5</ele></trkpt><trkpt lat="46.69694026838988" lon="7.850790210533887"><ele>1284.8499755859375</ele></trkpt><trkpt lat="46.696950268466026" lon="7.850810210686177"><ele>1285.8299865722656</ele></trkpt><trkpt lat="46.696970268618315" lon="7.85086021060124"><ele>1287.2899780273438</ele></trkpt><trkpt lat="46.69700026931241" lon="7.850980211049318"><ele>1289.7099914550781</ele></trkpt><trkpt lat="46.69701026938856" lon="7.851120211649686"><ele>1291.3599853515625</ele></trkpt><trkpt lat="46.69701026985422" lon="7.851200211793184"><ele>1292.1599731445312</ele></trkpt><trkpt lat="46.69701026985422" lon="7.851240211632103"><ele>1292.7799987792969</ele></trkpt><trkpt lat="46.69702026993036" lon="7.851250211708248"><ele>1293.5799865722656</ele></trkpt><trkpt lat="46.6970502701588" lon="7.851200212258846"><ele>1295.22998046875</ele></trkpt><trkpt lat="46.69708027038723" lon="7.851150212343782"><ele>1296.1699829101562</ele></trkpt><trkpt lat="46.69709027046338" lon="7.8511102120392025"><ele>1296.3799743652344</ele></trkpt><trkpt lat="46.69710027053952" lon="7.851100212428719"><ele>1296.5599975585938</ele></trkpt><trkpt lat="46.69711027061567" lon="7.851110212504864"><ele>1297.1599731445312</ele></trkpt><trkpt lat="46.69710027100518" lon="7.851160212419927"><ele>1297.8999938964844</ele></trkpt><trkpt lat="46.69709027092904" lon="7.85123021248728"><ele>1298.7799987792969</ele></trkpt><trkpt lat="46.697080271318555" lon="7.85129021294415"><ele>1300.5999755859375</ele></trkpt><trkpt lat="46.697160271927714" lon="7.8512602131813765"><ele>1302.9399719238281</ele></trkpt><trkpt lat="46.69717027200386" lon="7.851270213257521"><ele>1303.3499755859375</ele></trkpt><trkpt lat="46.69717027200386" lon="7.851280213333666"><ele>1303.6099853515625</ele></trkpt><trkpt lat="46.69715027231723" lon="7.851310213562101"><ele>1304.4599914550781</ele></trkpt><trkpt lat="46.697140272241086" lon="7.851330213714391"><ele>1305.0699768066406</ele></trkpt><trkpt lat="46.6971302726306" lon="7.851370213553309"><ele>1305.7999877929688</ele></trkpt><trkpt lat="46.69712027255446" lon="7.851420213934034"><ele>1306.8999938964844</ele></trkpt><trkpt lat="46.69715027278289" lon="7.851390214171261"><ele>1307.9599914550781</ele></trkpt><trkpt lat="46.69718027301133" lon="7.851390214171261"><ele>1309.1399841308594</ele></trkpt><trkpt lat="46.69717027293518" lon="7.85143021447584"><ele>1309.3299865722656</ele></trkpt><trkpt lat="46.6971602733247" lon="7.851460214238614"><ele>1309.489990234375</ele></trkpt><trkpt lat="46.69718027347699" lon="7.851460214238614"><ele>1310.489990234375</ele></trkpt><trkpt lat="46.69720027362928" lon="7.85143021447584"><ele>1311.5799865722656</ele></trkpt><trkpt lat="46.69722027378157" lon="7.851410214789212"><ele>1311.97998046875</ele></trkpt><trkpt lat="46.697210274171084" lon="7.85149021493271"><ele>1313.5199890136719</ele></trkpt><trkpt lat="46.69722027424723" lon="7.851500215008855"><ele>1313.8899841308594</ele></trkpt><trkpt lat="46.69724027439952" lon="7.851470215246081"><ele>1314.6099853515625</ele></trkpt><trkpt lat="46.697250274475664" lon="7.8514502150937915"><ele>1315.1599731445312</ele></trkpt><trkpt lat="46.697250274475664" lon="7.851520215161145"><ele>1316.0799865722656</ele></trkpt><trkpt lat="46.697250274475664" lon="7.8515602154657245"><ele>1316.8799743652344</ele></trkpt><trkpt lat="46.697270274627954" lon="7.851570215541869"><ele>1317.469970703125</ele></trkpt><trkpt lat="46.697290274780244" lon="7.851550215855241"><ele>1318.6599731445312</ele></trkpt><trkpt lat="46.69730027532205" lon="7.851520216092467"><ele>1319.4099731445312</ele></trkpt><trkpt lat="46.697310275398195" lon="7.851510216016322"><ele>1319.5699768066406</ele></trkpt><trkpt lat="46.69733027508482" lon="7.851520216092467"><ele>1319.8199768066406</ele></trkpt><trkpt lat="46.69734027562663" lon="7.851550216320902"><ele>1321.0</ele></trkpt><trkpt lat="46.697350275702775" lon="7.851580216083676"><ele>1321.7899780273438</ele></trkpt><trkpt lat="46.697310275863856" lon="7.8516302164644"><ele>1321.7999877929688</ele></trkpt><trkpt lat="46.697290275711566" lon="7.851660216227174"><ele>1321.8199768066406</ele></trkpt><trkpt lat="46.697290275711566" lon="7.851670216303319"><ele>1321.8099975585938</ele></trkpt><trkpt lat="46.697330275550485" lon="7.851810216438025"><ele>1321.8499755859375</ele></trkpt><trkpt lat="46.697350275702775" lon="7.851840216200799"><ele>1321.8499755859375</ele></trkpt><trkpt lat="46.697370275855064" lon="7.851900216192007"><ele>1321.8099975585938</ele></trkpt><trkpt lat="46.697350275702775" lon="7.851840216200799"><ele>1321.8499755859375</ele></trkpt><trkpt lat="46.697330275550485" lon="7.851810216438025"><ele>1321.8499755859375</ele></trkpt><trkpt lat="46.697290275711566" lon="7.851670216303319"><ele>1321.8099975585938</ele></trkpt><trkpt lat="46.697290275711566" lon="7.851660216227174"><ele>1321.8199768066406</ele></trkpt><trkpt lat="46.697310275863856" lon="7.8516302164644"><ele>1321.7999877929688</ele></trkpt><trkpt lat="46.697350275702775" lon="7.851580216083676"><ele>1321.7899780273438</ele></trkpt><trkpt lat="46.69734027562663" lon="7.851550216320902"><ele>1321.0</ele></trkpt><trkpt lat="46.69733027508482" lon="7.851520216092467"><ele>1319.8199768066406</ele></trkpt><trkpt lat="46.697310275398195" lon="7.851510216016322"><ele>1319.5699768066406</ele></trkpt><trkpt lat="46.69730027532205" lon="7.851520216092467"><ele>1319.4099731445312</ele></trkpt><trkpt lat="46.697290274780244" lon="7.851550215855241"><ele>1318.6599731445312</ele></trkpt><trkpt lat="46.697270274627954" lon="7.851570215541869"><ele>1317.469970703125</ele></trkpt><trkpt lat="46.697250274475664" lon="7.8515602154657245"><ele>1316.8799743652344</ele></trkpt><trkpt lat="46.697250274475664" lon="7.851520215161145"><ele>1316.0799865722656</ele></trkpt><trkpt lat="46.697250274475664" lon="7.8514502150937915"><ele>1315.1599731445312</ele></trkpt><trkpt lat="46.69724027439952" lon="7.851470215246081"><ele>1314.6099853515625</ele></trkpt><trkpt lat="46.69722027424723" lon="7.851500215008855"><ele>1313.8899841308594</ele></trkpt><trkpt lat="46.697210274171084" lon="7.85149021493271"><ele>1313.5199890136719</ele></trkpt><trkpt lat="46.69722027378157" lon="7.851410214789212"><ele>1311.97998046875</ele></trkpt><trkpt lat="46.69720027362928" lon="7.85143021447584"><ele>1311.5799865722656</ele></trkpt><trkpt lat="46.69718027347699" lon="7.851460214238614"><ele>1310.489990234375</ele></trkpt><trkpt lat="46.6971602733247" lon="7.851460214238614"><ele>1309.489990234375</ele></trkpt><trkpt lat="46.69717027293518" lon="7.85143021447584"><ele>1309.3299865722656</ele></trkpt><trkpt lat="46.69718027301133" lon="7.851390214171261"><ele>1309.1399841308594</ele></trkpt><trkpt lat="46.69715027278289" lon="7.851390214171261"><ele>1307.9599914550781</ele></trkpt><trkpt lat="46.69712027255446" lon="7.851420213934034"><ele>1306.8999938964844</ele></trkpt><trkpt lat="46.6971302726306" lon="7.851370213553309"><ele>1305.7999877929688</ele></trkpt><trkpt lat="46.697140272241086" lon="7.851330213714391"><ele>1305.0699768066406</ele></trkpt><trkpt lat="46.69715027231723" lon="7.851310213562101"><ele>1304.4599914550781</ele></trkpt><trkpt lat="46.69717027200386" lon="7.851280213333666"><ele>1303.6099853515625</ele></trkpt><trkpt lat="46.69717027200386" lon="7.851270213257521"><ele>1303.3499755859375</ele></trkpt><trkpt lat="46.697160271927714" lon="7.8512602131813765"><ele>1302.9399719238281</ele></trkpt><trkpt lat="46.697080271318555" lon="7.85129021294415"><ele>1300.5999755859375</ele></trkpt><trkpt lat="46.69709027092904" lon="7.85123021248728"><ele>1298.7799987792969</ele></trkpt><trkpt lat="46.69710027100518" lon="7.851160212419927"><ele>1297.8999938964844</ele></trkpt><trkpt lat="46.69711027061567" lon="7.851110212504864"><ele>1297.1599731445312</ele></trkpt><trkpt lat="46.69710027053952" lon="7.851100212428719"><ele>1296.5599975585938</ele></trkpt><trkpt lat="46.69709027046338" lon="7.8511102120392025"><ele>1296.3799743652344</ele></trkpt><trkpt lat="46.69708027038723" lon="7.851150212343782"><ele>1296.1699829101562</ele></trkpt><trkpt lat="46.6970502701588" lon="7.851200212258846"><ele>1295.22998046875</ele></trkpt><trkpt lat="46.69702026993036" lon="7.851250211708248"><ele>1293.5799865722656</ele></trkpt><trkpt lat="46.69701026985422" lon="7.851240211632103"><ele>1292.7799987792969</ele></trkpt><trkpt lat="46.69701026985422" lon="7.851200211793184"><ele>1292.1599731445312</ele></trkpt><trkpt lat="46.69701026938856" lon="7.851120211649686"><ele>1291.3599853515625</ele></trkpt><trkpt lat="46.69700026931241" lon="7.850980211049318"><ele>1289.7099914550781</ele></trkpt><trkpt lat="46.696970268618315" lon="7.85086021060124"><ele>1287.2899780273438</ele></trkpt><trkpt lat="46.696950268466026" lon="7.850810210686177"><ele>1285.8299865722656</ele></trkpt><trkpt lat="46.69694026838988" lon="7.850790210533887"><ele>1284.8499755859375</ele></trkpt><trkpt lat="46.696930268313736" lon="7.850790210533887"><ele>1284.5</ele></trkpt><trkpt lat="46.69692026777193" lon="7.850820210296661"><ele>1283.7999877929688</ele></trkpt><trkpt lat="46.69688026746735" lon="7.850920209661126"><ele>1281.2999877929688</ele></trkpt><trkpt lat="46.69686026731506" lon="7.850930209737271"><ele>1280.0</ele></trkpt><trkpt lat="46.696850266773254" lon="7.850880209356546"><ele>1279.0699768066406</ele></trkpt><trkpt lat="46.69684026669711" lon="7.850790209136903"><ele>1278.239990234375</ele></trkpt><trkpt lat="46.69682026654482" lon="7.850730209145695"><ele>1276.5799865722656</ele></trkpt><trkpt lat="46.69680026592687" lon="7.850690208841115"><ele>1274.5</ele></trkpt><trkpt lat="46.69673026492819" lon="7.850630207918584"><ele>1269.489990234375</ele></trkpt><trkpt lat="46.69669026462361" lon="7.850640207529068"><ele>1267.3899841308594</ele></trkpt><trkpt lat="46.69663026370108" lon="7.850660207215697"><ele>1263.4099731445312</ele></trkpt><trkpt lat="46.69665026385337" lon="7.850620207376778"><ele>1264.3199768066406</ele></trkpt><trkpt lat="46.69665026385337" lon="7.850580207072198"><ele>1263.9399719238281</ele></trkpt><trkpt lat="46.69663026370108" lon="7.850530206691474"><ele>1261.8999938964844</ele></trkpt><trkpt lat="46.69663026323542" lon="7.8504602066241205"><ele>1260.2599792480469</ele></trkpt><trkpt lat="46.69665026292205" lon="7.850410206243396"><ele>1259.0999755859375</ele></trkpt><trkpt lat="46.69670026283711" lon="7.850360205862671"><ele>1257.4399719238281</ele></trkpt><trkpt lat="46.69674026221037" lon="7.8503102054819465"><ele>1255.0599975585938</ele></trkpt><trkpt lat="46.69675026182085" lon="7.850270205643028"><ele>1253.489990234375</ele></trkpt><trkpt lat="46.69675026135519" lon="7.850240204948932"><ele>1251.7699890136719</ele></trkpt><trkpt lat="46.69672026112676" lon="7.850200204644352"><ele>1249.7799987792969</ele></trkpt><trkpt lat="46.69667026074603" lon="7.850180204492062"><ele>1248.0599975585938</ele></trkpt><trkpt lat="46.69661026028916" lon="7.8501602043397725"><ele>1246.5999755859375</ele></trkpt><trkpt lat="46.69650025991723" lon="7.850110203959048"><ele>1243.6399841308594</ele></trkpt><trkpt lat="46.696410259231925" lon="7.850070203654468"><ele>1240.8899841308594</ele></trkpt><trkpt lat="46.6963602588512" lon="7.850040202960372"><ele>1238.5599975585938</ele></trkpt><trkpt lat="46.69628025824204" lon="7.850030202884227"><ele>1236.7899780273438</ele></trkpt><trkpt lat="46.69624025840312" lon="7.850010202731937"><ele>1235.8499755859375</ele></trkpt><trkpt lat="46.69620025809854" lon="7.849970202427357"><ele>1234.469970703125</ele></trkpt><trkpt lat="46.69617025787011" lon="7.849870202131569"><ele>1233.9499816894531</ele></trkpt><trkpt lat="46.6961902580224" lon="7.8497902024537325"><ele>1234.3999938964844</ele></trkpt><trkpt lat="46.696230257861316" lon="7.849760202225298"><ele>1234.2899780273438</ele></trkpt><trkpt lat="46.69637025753036" lon="7.849790201988071"><ele>1232.3799743652344</ele></trkpt><trkpt lat="46.69652025727555" lon="7.849790201988071"><ele>1230.6399841308594</ele></trkpt><trkpt lat="46.696700256783515" lon="7.849780201446265"><ele>1228.7699890136719</ele></trkpt><trkpt lat="46.696850256528705" lon="7.84975020121783"><ele>1226.7799987792969</ele></trkpt><trkpt lat="46.69701025588438" lon="7.849690200760961"><ele>1223.7899780273438</ele></trkpt><trkpt lat="46.697130255401134" lon="7.849680200219154"><ele>1221.8199768066406</ele></trkpt><trkpt lat="46.69728025468066" lon="7.849740199744701"><ele>1217.969970703125</ele></trkpt><trkpt lat="46.697410254273564" lon="7.849820199422538"><ele>1215.4599914550781</ele></trkpt><trkpt lat="46.697520254179835" lon="7.849860199261457"><ele>1214.4499816894531</ele></trkpt><trkpt lat="46.697540253866464" lon="7.849870199337602"><ele>1213.4499816894531</ele></trkpt><trkpt lat="46.69759025378153" lon="7.849880198948085"><ele>1213.5999755859375</ele></trkpt><trkpt lat="46.697610253468156" lon="7.84987019887194"><ele>1213.1099853515625</ele></trkpt><trkpt lat="46.69760025339201" lon="7.8498501987196505"><ele>1212.1699829101562</ele></trkpt><trkpt lat="46.697550253011286" lon="7.849800198804587"><ele>1210.3399963378906</ele></trkpt><trkpt lat="46.69747025240213" lon="7.849690197966993"><ele>1207.3899841308594</ele></trkpt><trkpt lat="46.69745025224984" lon="7.849660198204219"><ele>1206.6299743652344</ele></trkpt><trkpt lat="46.69736025156453" lon="7.849470197688788"><ele>1203.1199951171875</ele></trkpt><trkpt lat="46.69731025118381" lon="7.84935019724071"><ele>1200.4399719238281</ele></trkpt><trkpt lat="46.69723025057465" lon="7.849220196716487"><ele>1197.1199951171875</ele></trkpt><trkpt lat="46.697200250346214" lon="7.849110196344554"><ele>1195.9299926757812</ele></trkpt><trkpt lat="46.697200250346214" lon="7.84908019611612"><ele>1195.719970703125</ele></trkpt><trkpt lat="46.69719025027007" lon="7.849000195972621"><ele>1195.1399841308594</ele></trkpt><trkpt lat="46.69715024949983" lon="7.8488901956006885"><ele>1192.7999877929688</ele></trkpt><trkpt lat="46.69709024904296" lon="7.848840195685625"><ele>1190.6399841308594</ele></trkpt><trkpt lat="46.69697024812922" lon="7.848760194610804"><ele>1185.2099914550781</ele></trkpt><trkpt lat="46.69687024690211" lon="7.84865019377321"><ele>1180.1799926757812</ele></trkpt><trkpt lat="46.69678024575114" lon="7.848500193096697"><ele>1174.9199829101562</ele></trkpt><trkpt lat="46.69670024514198" lon="7.848400192335248"><ele>1171.0099792480469</ele></trkpt><trkpt lat="46.696560244075954" lon="7.8482201914303005"><ele>1166.1099853515625</ele></trkpt><trkpt lat="46.69639024324715" lon="7.848090190906078"><ele>1162.1199951171875</ele></trkpt><trkpt lat="46.696240241639316" lon="7.848000189289451"><ele>1152.7799987792969</ele></trkpt><trkpt lat="46.696140240412205" lon="7.847900188528001"><ele>1147.8599853515625</ele></trkpt><trkpt lat="46.696060239803046" lon="7.847780188079923"><ele>1144.8299865722656</ele></trkpt><trkpt lat="46.69597023911774" lon="7.8476601876318455"><ele>1142.0</ele></trkpt><trkpt lat="46.69586023874581" lon="7.8475501872599125"><ele>1139.6699829101562</ele></trkpt><trkpt lat="46.6955102365464" lon="7.847240185830742"><ele>1129.0999755859375</ele></trkpt><trkpt lat="46.69545023608953" lon="7.847150185145438"><ele>1126.75</ele></trkpt><trkpt lat="46.69535023532808" lon="7.846950185019523"><ele>1123.47998046875</ele></trkpt><trkpt lat="46.69525023503229" lon="7.846730184275657"><ele>1120.719970703125</ele></trkpt><trkpt lat="46.69521023472771" lon="7.846530184149742"><ele>1118.5999755859375</ele></trkpt><trkpt lat="46.69519023410976" lon="7.846410183701664"><ele>1117.4399719238281</ele></trkpt><trkpt lat="46.695180234033614" lon="7.846240183804184"><ele>1116.0699768066406</ele></trkpt><trkpt lat="46.69517023395747" lon="7.846120183356106"><ele>1114.6999816894531</ele></trkpt><trkpt lat="46.69517023349181" lon="7.846020183060318"><ele>1112.7099914550781</ele></trkpt><trkpt lat="46.69515023287386" lon="7.845910182688385"><ele>1110.4599914550781</ele></trkpt><trkpt lat="46.69513023272157" lon="7.845820182468742"><ele>1108.5799865722656</ele></trkpt><trkpt lat="46.69514023233205" lon="7.845800182316452"><ele>1107.6399841308594</ele></trkpt><trkpt lat="46.695170232094824" lon="7.845810182392597"><ele>1106.7999877929688</ele></trkpt><trkpt lat="46.69522023200989" lon="7.845820182003081"><ele>1105.0799865722656</ele></trkpt><trkpt lat="46.695280231535435" lon="7.845850181765854"><ele>1102.8299865722656</ele></trkpt><trkpt lat="46.695350230671465" lon="7.84595018113032"><ele>1099.2599792480469</ele></trkpt><trkpt lat="46.69543022988364" lon="7.846080180257559"><ele>1096.1099853515625</ele></trkpt><trkpt lat="46.69548022933304" lon="7.846230180002749"><ele>1093.1599731445312</ele></trkpt><trkpt lat="46.69554022885859" lon="7.846360179595649"><ele>1090.1999816894531</ele></trkpt><trkpt lat="46.6956502282992" lon="7.846520178951323"><ele>1086.5099792480469</ele></trkpt><trkpt lat="46.69576022773981" lon="7.84658017847687"><ele>1083.8899841308594</ele></trkpt><trkpt lat="46.69585022702813" lon="7.846600178163499"><ele>1081.5899963378906</ele></trkpt><trkpt lat="46.6959502263926" lon="7.846590177621692"><ele>1079.219970703125</ele></trkpt><trkpt lat="46.69606022583321" lon="7.8465701774694026"><ele>1076.4599914550781</ele></trkpt><trkpt lat="46.69615022558719" lon="7.846590177156031"><ele>1074.6299743652344</ele></trkpt><trkpt lat="46.69620022550225" lon="7.846650176681578"><ele>1073.1599731445312</ele></trkpt><trkpt lat="46.69622022565454" lon="7.846680176910013"><ele>1073.469970703125</ele></trkpt><trkpt lat="46.696230225265026" lon="7.846660176757723"><ele>1071.8599853515625</ele></trkpt><trkpt lat="46.696230224799365" lon="7.846640176605433"><ele>1071.0899963378906</ele></trkpt><trkpt lat="46.69622022472322" lon="7.846620176453143"><ele>1070.5099792480469</ele></trkpt><trkpt lat="46.696190224494785" lon="7.846560175996274"><ele>1068.7599792480469</ele></trkpt><trkpt lat="46.69612022396177" lon="7.846430175472051"><ele>1065.6399841308594</ele></trkpt><trkpt lat="46.696010223124176" lon="7.846300174947828"><ele>1061.2799987792969</ele></trkpt><trkpt lat="46.69595022266731" lon="7.8462401744909585"><ele>1058.6599731445312</ele></trkpt><trkpt lat="46.69588022166863" lon="7.84614017419517"><ele>1055.6499938964844</ele></trkpt><trkpt lat="46.695850221440196" lon="7.846050173975527"><ele>1053.72998046875</ele></trkpt><trkpt lat="46.69584022089839" lon="7.845920173451304"><ele>1051.1099853515625</ele></trkpt><trkpt lat="46.69584022043273" lon="7.8458101730793715"><ele>1049.6199951171875</ele></trkpt><trkpt lat="46.695830220356584" lon="7.845730172935873"><ele>1048.3399963378906</ele></trkpt><trkpt lat="46.69580021966249" lon="7.8455901723355055"><ele>1045.7599792480469</ele></trkpt><trkpt lat="46.695750219747424" lon="7.84545017266646"><ele>1045.9099731445312</ele></trkpt><trkpt lat="46.695750219747424" lon="7.8454101723618805"><ele>1044.5</ele></trkpt><trkpt lat="46.69576021935791" lon="7.845400172285736"><ele>1044.1299743652344</ele></trkpt><trkpt lat="46.695780219044536" lon="7.845420171972364"><ele>1042.9099731445312</ele></trkpt><trkpt lat="46.69581021880731" lon="7.845460171811283"><ele>1040.9399719238281</ele></trkpt><trkpt lat="46.69586021825671" lon="7.84552017133683"><ele>1037.72998046875</ele></trkpt><trkpt lat="46.695890218019485" lon="7.845580171328038"><ele>1037.5499877929688</ele></trkpt><trkpt lat="46.69594021793455" lon="7.8456101710908115"><ele>1035.8099975585938</ele></trkpt><trkpt lat="46.69597021769732" lon="7.84563017077744"><ele>1034.9599914550781</ele></trkpt><trkpt lat="46.69599021738395" lon="7.84565017092973"><ele>1034.47998046875</ele></trkpt><trkpt lat="46.696000217460096" lon="7.845690170768648"><ele>1033.3199768066406</ele></trkpt><trkpt lat="46.69601021707058" lon="7.845770170446485"><ele>1031.5099792480469</ele></trkpt><trkpt lat="46.69604021683335" lon="7.845820169895887"><ele>1030.3199768066406</ele></trkpt><trkpt lat="46.69607021659613" lon="7.845860169734806"><ele>1029.3399963378906</ele></trkpt><trkpt lat="46.69616021588445" lon="7.845910169649869"><ele>1026.0099792480469</ele></trkpt><trkpt lat="46.6962802154012" lon="7.8459801687859"><ele>1023.0299987792969</ele></trkpt><trkpt lat="46.6966602136381" lon="7.846020167693496"><ele>1014.0899963378906</ele></trkpt><trkpt lat="46.696680213324726" lon="7.8460201672278345"><ele>1013.3099975585938</ele></trkpt><trkpt lat="46.696680213324726" lon="7.846000167541206"><ele>1013.0299987792969</ele></trkpt><trkpt lat="46.696660213172436" lon="7.845970167312771"><ele>1012.0099792480469</ele></trkpt><trkpt lat="46.69655021233484" lon="7.845880166627467"><ele>1008.75</ele></trkpt><trkpt lat="46.69638021150604" lon="7.845730165950954"><ele>1003.5299987792969</ele></trkpt><trkpt lat="46.69637021096423" lon="7.845680165570229"><ele>1002.1399841308594</ele></trkpt><trkpt lat="46.696380210574716" lon="7.845660165417939"><ele>1000.8499755859375</ele></trkpt><trkpt lat="46.69643021048978" lon="7.845680165570229"><ele>1000.5399780273438</ele></trkpt><trkpt lat="46.69649021094665" lon="7.845720165409148"><ele>1000.8999938964844</ele></trkpt><trkpt lat="46.696650211233646" lon="7.845820165704936"><ele>1003.25</ele></trkpt><trkpt lat="46.69670021114871" lon="7.845830165781081"><ele>1002.3999938964844</ele></trkpt><trkpt lat="46.696760210674256" lon="7.845840165391564"><ele>1000.719970703125</ele></trkpt><trkpt lat="46.69677020935342" lon="7.845800164621323"><ele>994.239990234375</ele></trkpt><trkpt lat="46.696770208887756" lon="7.845780164003372"><ele>991.7599792480469</ele></trkpt><trkpt lat="46.69675020920113" lon="7.845730164088309"><ele>992.4399719238281</ele></trkpt><trkpt lat="46.69669020920992" lon="7.845680164173245"><ele>993.2699890136719</ele></trkpt><trkpt lat="46.69663020921871" lon="7.845640164334327"><ele>993.7699890136719</ele></trkpt><trkpt lat="46.69661020906642" lon="7.845620164182037"><ele>993.239990234375</ele></trkpt><trkpt lat="46.69661020860076" lon="7.845590163953602"><ele>991.0899963378906</ele></trkpt><trkpt lat="46.69664020836353" lon="7.8455701638013124"><ele>989.1399841308594</ele></trkpt><trkpt lat="46.696690207812935" lon="7.845570163335651"><ele>987.2099914550781</ele></trkpt><trkpt lat="46.69672020804137" lon="7.845570163335651"><ele>986.72998046875</ele></trkpt><trkpt lat="46.69672020757571" lon="7.845560163259506"><ele>986.1199951171875</ele></trkpt><trkpt lat="46.696710207499564" lon="7.845540163107216"><ele>985.7099914550781</ele></trkpt><trkpt lat="46.69664020696655" lon="7.845470162574202"><ele>982.7699890136719</ele></trkpt><trkpt lat="46.696610206738114" lon="7.845430162269622"><ele>981.8199768066406</ele></trkpt><trkpt lat="46.696590206585824" lon="7.845400162506849"><ele>981.1399841308594</ele></trkpt><trkpt lat="46.69660020666197" lon="7.845370162278414"><ele>979.5299987792969</ele></trkpt><trkpt lat="46.69662020588294" lon="7.845350161660463"><ele>977.6599731445312</ele></trkpt><trkpt lat="46.69666020618752" lon="7.845390161965042"><ele>978.7599792480469</ele></trkpt><trkpt lat="46.696700206026435" lon="7.845410162117332"><ele>978.239990234375</ele></trkpt><trkpt lat="46.69678020570427" lon="7.845410161651671"><ele>976.2599792480469</ele></trkpt><trkpt lat="46.696850205305964" lon="7.845420161262155"><ele>973.6099853515625</ele></trkpt><trkpt lat="46.696920204907656" lon="7.845430160872638"><ele>971.3599853515625</ele></trkpt><trkpt lat="46.69700020411983" lon="7.845530160237104"><ele>968.2899780273438</ele></trkpt><trkpt lat="46.69706020364538" lon="7.845610159914941"><ele>966.1599731445312</ele></trkpt><trkpt lat="46.697140203323215" lon="7.845640159677714"><ele>963.9599914550781</ele></trkpt><trkpt lat="46.697360202204436" lon="7.845620158594102"><ele>958.0799865722656</ele></trkpt><trkpt lat="46.6974602015689" lon="7.84562015812844"><ele>955.2799987792969</ele></trkpt><trkpt lat="46.69769020052627" lon="7.845650157425553"><ele>949.8599853515625</ele></trkpt><trkpt lat="46.69785019988194" lon="7.8457101569511"><ele>945.6699829101562</ele></trkpt><trkpt lat="46.69804019853473" lon="7.845800155773759"><ele>939.6899719238281</ele></trkpt><trkpt lat="46.69817019812763" lon="7.845860155299306"><ele>937.0</ele></trkpt><trkpt lat="46.69826019741595" lon="7.845930154900998"><ele>934.2999877929688</ele></trkpt><trkpt lat="46.69836019678041" lon="7.845960154663771"><ele>932.5699768066406</ele></trkpt><trkpt lat="46.698470196221024" lon="7.8460001540370286"><ele>928.7599792480469</ele></trkpt><trkpt lat="46.698540195822716" lon="7.846040153875947"><ele>926.9299926757812</ele></trkpt><trkpt lat="46.69861019542441" lon="7.8460801537148654"><ele>925.3199768066406</ele></trkpt><trkpt lat="46.698690195102245" lon="7.846120153088123"><ele>923.2899780273438</ele></trkpt><trkpt lat="46.69877019478008" lon="7.846140152774751"><ele>921.1599731445312</ele></trkpt><trkpt lat="46.69883019430563" lon="7.846160152927041"><ele>919.9199829101562</ele></trkpt><trkpt lat="46.69889019429684" lon="7.846210152376443"><ele>918.469970703125</ele></trkpt><trkpt lat="46.69901019381359" lon="7.846230152063072"><ele>915.739990234375</ele></trkpt><trkpt lat="46.699060193262994" lon="7.846240151673555"><ele>913.5299987792969</ele></trkpt><trkpt lat="46.699150193016976" lon="7.846310151275247"><ele>911.7999877929688</ele></trkpt><trkpt lat="46.69927019253373" lon="7.846380150876939"><ele>909.6599731445312</ele></trkpt><trkpt lat="46.69933019205928" lon="7.846380150876939"><ele>906.8799743652344</ele></trkpt><trkpt lat="46.699390191584826" lon="7.846370150335133"><ele>905.3399963378906</ele></trkpt><trkpt lat="46.69940019119531" lon="7.846350150182843"><ele>904.4099731445312</ele></trkpt><trkpt lat="46.69938019104302" lon="7.846310150343925"><ele>903.6499938964844</ele></trkpt><trkpt lat="46.699350190814584" lon="7.84628015011549"><ele>902.489990234375</ele></trkpt><trkpt lat="46.69932018965483" lon="7.846170148812234"><ele>894.989990234375</ele></trkpt><trkpt lat="46.69931018911302" lon="7.846130148507655"><ele>894.3699951171875</ele></trkpt><trkpt lat="46.69933018926531" lon="7.846080148592591"><ele>894.3299865722656</ele></trkpt><trkpt lat="46.699340189341456" lon="7.846090148668736"><ele>894.4399719238281</ele></trkpt><trkpt lat="46.69933018926531" lon="7.846080148592591"><ele>894.3299865722656</ele></trkpt><trkpt lat="46.69924018904567" lon="7.845990148372948"><ele>893.3799743652344</ele></trkpt><trkpt lat="46.69910018891096" lon="7.845840148162097"><ele>891.9499816894531</ele></trkpt><trkpt lat="46.69881018809974" lon="7.845440147910267"><ele>888.739990234375</ele></trkpt><trkpt lat="46.69870018772781" lon="7.845310147386044"><ele>887.6099853515625</ele></trkpt><trkpt lat="46.698630187660456" lon="7.845240147318691"><ele>887.0</ele></trkpt><trkpt lat="46.69849018752575" lon="7.8451101472601295"><ele>885.3299865722656</ele></trkpt><trkpt lat="46.698480187449604" lon="7.84507014695555"><ele>884.6099853515625</ele></trkpt><trkpt lat="46.69846018683165" lon="7.8450001468881965"><ele>882.9399719238281</ele></trkpt><trkpt lat="46.698380186222494" lon="7.844870146363974"><ele>879.3199768066406</ele></trkpt><trkpt lat="46.69827018585056" lon="7.844730145763606"><ele>876.4099731445312</ele></trkpt><trkpt lat="46.698060183785856" lon="7.84445014456287"><ele>867.2699890136719</ele></trkpt><trkpt lat="46.69792018271983" lon="7.844270143657923"><ele>862.0699768066406</ele></trkpt><trkpt lat="46.69782018195838" lon="7.84410014282912"><ele>857.7799987792969</ele></trkpt><trkpt lat="46.69776018150151" lon="7.843970142304897"><ele>854.989990234375</ele></trkpt><trkpt lat="46.69767018035054" lon="7.843760141637176"><ele>849.7999877929688</ele></trkpt><trkpt lat="46.69754017936066" lon="7.843530140817165"><ele>844.7799987792969</ele></trkpt><trkpt lat="46.6974601787515" lon="7.843440140597522"><ele>842.2899780273438</ele></trkpt><trkpt lat="46.697410178370774" lon="7.8434001402929425"><ele>841.1199951171875</ele></trkpt><trkpt lat="46.697370178066194" lon="7.843350139912218"><ele>839.6399841308594</ele></trkpt><trkpt lat="46.697230177465826" lon="7.84323013946414"><ele>834.9399719238281</ele></trkpt><trkpt lat="46.69707017624751" lon="7.8430301384069026"><ele>828.7899780273438</ele></trkpt><trkpt lat="46.69699017563835" lon="7.84292013803497"><ele>825.8699951171875</ele></trkpt><trkpt lat="46.6969701750204" lon="7.8428601375781"><ele>824.5599975585938</ele></trkpt><trkpt lat="46.69698017509654" lon="7.84284013742581"><ele>823.8199768066406</ele></trkpt><trkpt lat="46.69708017446101" lon="7.842870137188584"><ele>821.6599731445312</ele></trkpt><trkpt lat="46.69724017381668" lon="7.842890136409551"><ele>817.1599731445312</ele></trkpt><trkpt lat="46.69750017253682" lon="7.842930135317147"><ele>810.9099731445312</ele></trkpt><trkpt lat="46.69770017173141" lon="7.842950134538114"><ele>806.4399719238281</ele></trkpt><trkpt lat="46.69780017109588" lon="7.842960134148598"><ele>804.0099792480469</ele></trkpt><trkpt lat="46.697860170621425" lon="7.842970134224743"><ele>801.9399719238281</ele></trkpt><trkpt lat="46.697820170316845" lon="7.842870133928955"><ele>800.3199768066406</ele></trkpt><trkpt lat="46.697700169403106" lon="7.842710133176297"><ele>797.0299987792969</ele></trkpt><trkpt lat="46.69763016933575" lon="7.842600132804364"><ele>795.0699768066406</ele></trkpt><trkpt lat="46.69748016865924" lon="7.842430132441223"><ele>791.3099975585938</ele></trkpt><trkpt lat="46.697450167965144" lon="7.8423401322215796"><ele>789.739990234375</ele></trkpt><trkpt lat="46.697390167973936" lon="7.842210131697357"><ele>787.8299865722656</ele></trkpt><trkpt lat="46.697310167364776" lon="7.842060131486505"><ele>785.1199951171875</ele></trkpt><trkpt lat="46.69714016653597" lon="7.841880130581558"><ele>780.97998046875</ele></trkpt><trkpt lat="46.69701016554609" lon="7.84176013013348"><ele>778.1299743652344</ele></trkpt><trkpt lat="46.69693016540259" lon="7.841670129913837"><ele>776.3599853515625</ele></trkpt><trkpt lat="46.69686016486958" lon="7.841580129694194"><ele>774.47998046875</ele></trkpt><trkpt lat="46.696770164649934" lon="7.841450129169971"><ele>772.6299743652344</ele></trkpt><trkpt lat="46.69670016411692" lon="7.841340129263699"><ele>770.4399719238281</ele></trkpt><trkpt lat="46.69666016381234" lon="7.8412701287306845"><ele>769.0999755859375</ele></trkpt><trkpt lat="46.69648016337305" lon="7.841150128282607"><ele>765.1199951171875</ele></trkpt><trkpt lat="46.696340162772685" lon="7.841070128139108"><ele>763.219970703125</ele></trkpt><trkpt lat="46.69621016224846" lon="7.840960127301514"><ele>759.75</ele></trkpt><trkpt lat="46.696050161495805" lon="7.840790126938373"><ele>756.2999877929688</ele></trkpt><trkpt lat="46.69589016074315" lon="7.84066012641415"><ele>752.97998046875</ele></trkpt><trkpt lat="46.695780160371214" lon="7.840540125966072"><ele>750.6999816894531</ele></trkpt><trkpt lat="46.69567015953362" lon="7.840430125594139"><ele>748.2799987792969</ele></trkpt><trkpt lat="46.69551015924662" lon="7.84033012483269"><ele>744.9499816894531</ele></trkpt><trkpt lat="46.69532015826553" lon="7.840230124536902"><ele>740.489990234375</ele></trkpt><trkpt lat="46.69516015751287" lon="7.840170123614371"><ele>737.0999755859375</ele></trkpt><trkpt lat="46.6949601569213" lon="7.840140123385936"><ele>733.5799865722656</ele></trkpt><trkpt lat="46.69490015646443" lon="7.84013012284413"><ele>732.1999816894531</ele></trkpt><trkpt lat="46.69482015632093" lon="7.84013012284413"><ele>730.6799926757812</ele></trkpt><trkpt lat="46.694750155787915" lon="7.840120122767985"><ele>729.2599792480469</ele></trkpt><trkpt lat="46.69472015555948" lon="7.840100122615695"><ele>728.47998046875</ele></trkpt><trkpt lat="46.69461015518755" lon="7.839970122091472"><ele>725.989990234375</ele></trkpt><trkpt lat="46.69457015488297" lon="7.839930121786892"><ele>724.969970703125</ele></trkpt><trkpt lat="46.69451015489176" lon="7.8399101216346025"><ele>723.739990234375</ele></trkpt><trkpt lat="46.69441015413031" lon="7.839900121092796"><ele>721.5199890136719</ele></trkpt><trkpt lat="46.69425015384331" lon="7.839890121016651"><ele>718.6399841308594</ele></trkpt><trkpt lat="46.694130153395236" lon="7.83989012055099"><ele>716.5999755859375</ele></trkpt><trkpt lat="46.69401015294716" lon="7.839880120009184"><ele>714.3099975585938</ele></trkpt><trkpt lat="46.693920152727515" lon="7.839880120009184"><ele>712.7899780273438</ele></trkpt><trkpt lat="46.693880152422935" lon="7.839870119933039"><ele>712.4399719238281</ele></trkpt><trkpt lat="46.69381015235558" lon="7.839820119552314"><ele>710.7799987792969</ele></trkpt><trkpt lat="46.69368015183136" lon="7.839680119417608"><ele>708.3699951171875</ele></trkpt><trkpt lat="46.69364015152678" lon="7.839650119189173"><ele>707.3199768066406</ele></trkpt><trkpt lat="46.69358015106991" lon="7.839640119113028"><ele>706.4399719238281</ele></trkpt><trkpt lat="46.693510151002556" lon="7.839650118723512"><ele>704.3999938964844</ele></trkpt><trkpt lat="46.693470150697976" lon="7.839640118647367"><ele>703.989990234375</ele></trkpt><trkpt lat="46.6933501502499" lon="7.839570118114352"><ele>701.5899963378906</ele></trkpt><trkpt lat="46.693260150030255" lon="7.8395301178097725"><ele>699.3199768066406</ele></trkpt><trkpt lat="46.69317014934495" lon="7.839500117581338"><ele>697.6899719238281</ele></trkpt><trkpt lat="46.69311014935374" lon="7.839480117429048"><ele>696.4199829101562</ele></trkpt><trkpt lat="46.69306014897302" lon="7.8394801169633865"><ele>695.3099975585938</ele></trkpt><trkpt lat="46.69304014882073" lon="7.839470116887242"><ele>694.7099914550781</ele></trkpt><trkpt lat="46.69304014882073" lon="7.839450117200613"><ele>694.47998046875</ele></trkpt><trkpt lat="46.69304014882073" lon="7.839440117124468"><ele>694.3199768066406</ele></trkpt><trkpt lat="46.69306014850736" lon="7.839410116896033"><ele>693.6699829101562</ele></trkpt><trkpt lat="46.69316014833748" lon="7.83934011682868"><ele>691.8999938964844</ele></trkpt><trkpt lat="46.69328014785424" lon="7.839260116219521"><ele>689.9499816894531</ele></trkpt><trkpt lat="46.69334014784545" lon="7.839250116143376"><ele>689.1999816894531</ele></trkpt><trkpt lat="46.69339014776051" lon="7.839250116143376"><ele>688.2999877929688</ele></trkpt><trkpt lat="46.693510146811604" lon="7.839270115364343"><ele>684.6499938964844</ele></trkpt><trkpt lat="46.69357014680281" lon="7.839260115288198"><ele>683.8999938964844</ele></trkpt><trkpt lat="46.69361014664173" lon="7.839240115601569"><ele>684.0399780273438</ele></trkpt><trkpt lat="46.693640146870166" lon="7.8392201154492795"><ele>683.7799987792969</ele></trkpt><trkpt lat="46.69368014624342" lon="7.839190115220845"><ele>682.1099853515625</ele></trkpt><trkpt lat="46.69374014623463" lon="7.839170115068555"><ele>681.8899841308594</ele></trkpt><trkpt lat="46.69382014591247" lon="7.83916011499241"><ele>680.4599914550781</ele></trkpt><trkpt lat="46.69389014551416" lon="7.839130114763975"><ele>679.1899719238281</ele></trkpt><trkpt lat="46.69400014542043" lon="7.839060114230961"><ele>677.25</ele></trkpt><trkpt lat="46.69410014525056" lon="7.839020113926381"><ele>675.6499938964844</ele></trkpt><trkpt lat="46.694180144928396" lon="7.838950113859028"><ele>674.0299987792969</ele></trkpt><trkpt lat="46.69419014453888" lon="7.838920113630593"><ele>673.47998046875</ele></trkpt><trkpt lat="46.69417014438659" lon="7.838900113478303"><ele>672.969970703125</ele></trkpt><trkpt lat="46.694140144158155" lon="7.838880113326013"><ele>672.1899719238281</ele></trkpt><trkpt lat="46.69402014371008" lon="7.838850113097578"><ele>669.4499816894531</ele></trkpt><trkpt lat="46.693930143490434" lon="7.8388101127929986"><ele>667.9099731445312</ele></trkpt><trkpt lat="46.69380014296621" lon="7.838740112259984"><ele>665.4499816894531</ele></trkpt><trkpt lat="46.69369014259428" lon="7.838670112192631"><ele>663.0899963378906</ele></trkpt><trkpt lat="46.69361014245078" lon="7.838620111811906"><ele>661.8099975585938</ele></trkpt><trkpt lat="46.69355014199391" lon="7.838590111583471"><ele>660.6399841308594</ele></trkpt><trkpt lat="46.69349014153704" lon="7.838600111659616"><ele>659.5</ele></trkpt><trkpt lat="46.69345014169812" lon="7.838570111431181"><ele>658.969970703125</ele></trkpt><trkpt lat="46.693350141402334" lon="7.838500111363828"><ele>657.9299926757812</ele></trkpt><trkpt lat="46.69314014073461" lon="7.838300110772252"><ele>653.5999755859375</ele></trkpt><trkpt lat="46.69308014027774" lon="7.8382401103153825"><ele>652.4099731445312</ele></trkpt><trkpt lat="46.69303014036268" lon="7.8382301102392375"><ele>651.5999755859375</ele></trkpt><trkpt lat="46.692960139829665" lon="7.8382401103153825"><ele>650.6299743652344</ele></trkpt><trkpt lat="46.69283013930544" lon="7.838290109764785"><ele>648.239990234375</ele></trkpt><trkpt lat="46.692810139618814" lon="7.83828010968864"><ele>647.8199768066406</ele></trkpt><trkpt lat="46.69280013907701" lon="7.83826010953635"><ele>647.3399963378906</ele></trkpt><trkpt lat="46.69280013907701" lon="7.838230109307915"><ele>646.9199829101562</ele></trkpt><trkpt lat="46.69280013907701" lon="7.8382001095451415"><ele>646.3399963378906</ele></trkpt><trkpt lat="46.692820138763636" lon="7.838170109316707"><ele>645.6999816894531</ele></trkpt><trkpt lat="46.6928701386787" lon="7.838110109325498"><ele>644.5899963378906</ele></trkpt><trkpt lat="46.69293013866991" lon="7.838060108944774"><ele>644.0299987792969</ele></trkpt><trkpt lat="46.69302013842389" lon="7.838000108953565"><ele>642.8999938964844</ele></trkpt><trkpt lat="46.69308013794944" lon="7.8379801088012755"><ele>641.2999877929688</ele></trkpt><trkpt lat="46.69315013755113" lon="7.837960108183324"><ele>639.5399780273438</ele></trkpt><trkpt lat="46.69330013729632" lon="7.837960107717663"><ele>636.6499938964844</ele></trkpt><trkpt lat="46.693360136821866" lon="7.837950107641518"><ele>635.5699768066406</ele></trkpt><trkpt lat="46.69343013688922" lon="7.837910107336938"><ele>634.3299865722656</ele></trkpt><trkpt lat="46.69350013649091" lon="7.83785010734573"><ele>632.72998046875</ele></trkpt><trkpt lat="46.69354013632983" lon="7.837780107278377"><ele>631.5999755859375</ele></trkpt><trkpt lat="46.69358013570309" lon="7.837700107134879"><ele>630.6099853515625</ele></trkpt><trkpt lat="46.693620135542005" lon="7.837660106830299"><ele>629.8599853515625</ele></trkpt><trkpt lat="46.693680135533214" lon="7.837620106525719"><ele>628.3699951171875</ele></trkpt><trkpt lat="46.69374013505876" lon="7.837560106534511"><ele>626.969970703125</ele></trkpt><trkpt lat="46.693770134821534" lon="7.837530106306076"><ele>626.219970703125</ele></trkpt><trkpt lat="46.69378013489768" lon="7.837490106001496"><ele>625.3299865722656</ele></trkpt><trkpt lat="46.69378013489768" lon="7.8374601057730615"><ele>624.4599914550781</ele></trkpt><trkpt lat="46.69376013474539" lon="7.837420105934143"><ele>623.8299865722656</ele></trkpt><trkpt lat="46.69370013428852" lon="7.837390105705708"><ele>622.5999755859375</ele></trkpt><trkpt lat="46.69356013368815" lon="7.837380105163902"><ele>619.9299926757812</ele></trkpt><trkpt lat="46.693360133096576" lon="7.837410104461014"><ele>616.1799926757812</ele></trkpt><trkpt lat="46.69333013286814" lon="7.837410104461014"><ele>615.5799865722656</ele></trkpt><trkpt lat="46.69328013295308" lon="7.837400104384869"><ele>615.0599975585938</ele></trkpt><trkpt lat="46.69323013257235" lon="7.837360104545951"><ele>614.1699829101562</ele></trkpt><trkpt lat="46.69312013220042" lon="7.837330103851855"><ele>612.0199890136719</ele></trkpt><trkpt lat="46.69308013189584" lon="7.837300104089081"><ele>611.0599975585938</ele></trkpt><trkpt lat="46.69306013174355" lon="7.8372601037845016"><ele>611.0099792480469</ele></trkpt><trkpt lat="46.69308013189584" lon="7.837300104089081"><ele>611.0599975585938</ele></trkpt><trkpt lat="46.692940131761134" lon="7.837400103919208"><ele>610.5999755859375</ele></trkpt><trkpt lat="46.69285013200715" lon="7.837450103834271"><ele>610.2099914550781</ele></trkpt><trkpt lat="46.69279013155028" lon="7.837480103597045"><ele>610.0099792480469</ele></trkpt><trkpt lat="46.692710131872445" lon="7.837530103512108"><ele>609.6399841308594</ele></trkpt><trkpt lat="46.692580131813884" lon="7.837630103807896"><ele>609.6599731445312</ele></trkpt><trkpt lat="46.69244013167918" lon="7.837740103714168"><ele>609.5999755859375</ele></trkpt><trkpt lat="46.692290131468326" lon="7.837880103383213"><ele>609.1599731445312</ele></trkpt><trkpt lat="46.692140131257474" lon="7.838030103594065"><ele>608.3899841308594</ele></trkpt><trkpt lat="46.69209013134241" lon="7.838100103195757"><ele>608.1799926757812</ele></trkpt><trkpt lat="46.692060131113976" lon="7.83817010326311"><ele>607.969970703125</ele></trkpt><trkpt lat="46.69202013127506" lon="7.8383001033216715"><ele>607.5799865722656</ele></trkpt><trkpt lat="46.691970131359994" lon="7.838390103075653"><ele>607.1699829101562</ele></trkpt><trkpt lat="46.69192013097927" lon="7.838460103143007"><ele>606.7799987792969</ele></trkpt><trkpt lat="46.69185013091192" lon="7.83853010321036"><ele>606.3199768066406</ele></trkpt><trkpt lat="46.69176013069227" lon="7.838610102888197"><ele>605.5499877929688</ele></trkpt><trkpt lat="46.69171013077721" lon="7.83866010280326"><ele>605.1599731445312</ele></trkpt><trkpt lat="46.69169013062492" lon="7.838670102879405"><ele>605.0</ele></trkpt><trkpt lat="46.69164013070986" lon="7.838740102946758"><ele>604.5699768066406</ele></trkpt><trkpt lat="46.69158013071865" lon="7.838820102624595"><ele>604.2599792480469</ele></trkpt><trkpt lat="46.69158013071865" lon="7.83887010300532"><ele>604.1099853515625</ele></trkpt><trkpt lat="46.6915701306425" lon="7.838940103072673"><ele>604.719970703125</ele></trkpt><trkpt lat="46.69154013041407" lon="7.839030102826655"><ele>604.1799926757812</ele></trkpt><trkpt lat="46.691510130651295" lon="7.839100102894008"><ele>603.6699829101562</ele></trkpt><trkpt lat="46.69138013012707" lon="7.8393301027826965"><ele>602.8399963378906</ele></trkpt><trkpt lat="46.691340130288154" lon="7.839410102460533"><ele>602.6699829101562</ele></trkpt><trkpt lat="46.691300129983574" lon="7.839520102366805"><ele>602.3999938964844</ele></trkpt><trkpt lat="46.69120013015345" lon="7.8398501025512815"><ele>601.719970703125</ele></trkpt><trkpt lat="46.69115012977272" lon="7.839980102609843"><ele>601.4399719238281</ele></trkpt><trkpt lat="46.691070130094886" lon="7.840120102278888"><ele>600.8299865722656</ele></trkpt><trkpt lat="46.69093012949452" lon="7.840310102328658"><ele>600.0799865722656</ele></trkpt><trkpt lat="46.69078012974933" lon="7.8405301021412015"><ele>599.0899963378906</ele></trkpt><trkpt lat="46.69063012953848" lon="7.840780101716518"><ele>598.1699829101562</ele></trkpt><trkpt lat="46.69053012924269" lon="7.84093010192737"><ele>597.6599731445312</ele></trkpt><trkpt lat="46.69049012893811" lon="7.841030101757497"><ele>597.3699951171875</ele></trkpt><trkpt lat="46.690460129175335" lon="7.841190101578832"><ele>596.8799743652344</ele></trkpt><trkpt lat="46.690420128870755" lon="7.841410101391375"><ele>596.3799743652344</ele></trkpt><trkpt lat="46.69039012910798" lon="7.841480101458728"><ele>596.0999755859375</ele></trkpt><trkpt lat="46.69036012887955" lon="7.8415601016022265"><ele>595.7899780273438</ele></trkpt><trkpt lat="46.69032012857497" lon="7.841680101584643"><ele>595.5999755859375</ele></trkpt><trkpt lat="46.690270128659904" lon="7.8419101014733315"><ele>595.5299987792969</ele></trkpt><trkpt lat="46.690230128820986" lon="7.842020101379603"><ele>595.3299865722656</ele></trkpt><trkpt lat="46.69015012867749" lon="7.842190101277083"><ele>594.4599914550781</ele></trkpt><trkpt lat="46.69003012822941" lon="7.8424201011657715"><ele>593.2999877929688</ele></trkpt><trkpt lat="46.68992012832314" lon="7.842610101215541"><ele>593.2999877929688</ele></trkpt><trkpt lat="46.68984012817964" lon="7.8427601009607315"><ele>592.7699890136719</ele></trkpt><trkpt lat="46.68974012834951" lon="7.842890101019293"><ele>592.3299865722656</ele></trkpt><trkpt lat="46.68968012789264" lon="7.843000100925565"><ele>592.1599731445312</ele></trkpt><trkpt lat="46.68961012782529" lon="7.843130100984126"><ele>591.75</ele></trkpt><trkpt lat="46.68955012783408" lon="7.8432701006531715"><ele>591.3399963378906</ele></trkpt><trkpt lat="46.68949012784287" lon="7.843420100864023"><ele>590.97998046875</ele></trkpt><trkpt lat="46.68942012777552" lon="7.843560100533068"><ele>590.719970703125</ele></trkpt><trkpt lat="46.68935012770817" lon="7.843670100905001"><ele>590.7699890136719</ele></trkpt><trkpt lat="46.6893001277931" lon="7.8437301008962095"><ele>591.0699768066406</ele></trkpt><trkpt lat="46.689260127954185" lon="7.843770100735128"><ele>591.3799743652344</ele></trkpt><trkpt lat="46.68919012788683" lon="7.843870101030916"><ele>591.5499877929688</ele></trkpt><trkpt lat="46.68914012797177" lon="7.843980100937188"><ele>590.72998046875</ele></trkpt><trkpt lat="46.689110127743334" lon="7.844090100843459"><ele>590.4199829101562</ele></trkpt><trkpt lat="46.6890801275149" lon="7.84422010043636"><ele>589.2699890136719</ele></trkpt><trkpt lat="46.68900012690574" lon="7.844520100392401"><ele>587.2899780273438</ele></trkpt><trkpt lat="46.68896012706682" lon="7.844680100213736"><ele>586.3099975585938</ele></trkpt><trkpt lat="46.68892012676224" lon="7.844830099958926"><ele>585.8899841308594</ele></trkpt><trkpt lat="46.68890012660995" lon="7.84503009961918"><ele>584.75</ele></trkpt><trkpt lat="46.68888012645766" lon="7.845200099982321"><ele>584.5999755859375</ele></trkpt><trkpt lat="46.688890126533806" lon="7.8454400999471545"><ele>585.3199768066406</ele></trkpt><trkpt lat="46.68887012684718" lon="7.845670099835843"><ele>585.9599914550781</ele></trkpt><trkpt lat="46.68885012716055" lon="7.845880100037903"><ele>586.8499755859375</ele></trkpt><trkpt lat="46.68883012700826" lon="7.846050099935383"><ele>585.969970703125</ele></trkpt><trkpt lat="46.68882012646645" lon="7.846210099756718"><ele>584.8199768066406</ele></trkpt><trkpt lat="46.68884012661874" lon="7.846370100043714"><ele>584.489990234375</ele></trkpt><trkpt lat="46.688890126533806" lon="7.846560099627823"><ele>584.0499877929688</ele></trkpt><trkpt lat="46.68897012621164" lon="7.846800099592656"><ele>582.6099853515625</ele></trkpt><trkpt lat="46.68907012557611" lon="7.847040099091828"><ele>580.4099731445312</ele></trkpt><trkpt lat="46.68920012563467" lon="7.847280099056661"><ele>579.8999938964844</ele></trkpt><trkpt lat="46.68926012562588" lon="7.847390098962933"><ele>579.1599731445312</ele></trkpt><trkpt lat="46.68929012538865" lon="7.847470099106431"><ele>578.969970703125</ele></trkpt><trkpt lat="46.6893001254648" lon="7.847580099012703"><ele>578.8999938964844</ele></trkpt><trkpt lat="46.68929012538865" lon="7.847720098681748"><ele>578.0199890136719</ele></trkpt><trkpt lat="46.68925012508407" lon="7.847870098892599"><ele>577.22998046875</ele></trkpt><trkpt lat="46.68916012486443" lon="7.8480000984855"><ele>576.9499816894531</ele></trkpt><trkpt lat="46.6891401251778" lon="7.848050098400563"><ele>576.8199768066406</ele></trkpt><trkpt lat="46.68910012487322" lon="7.848140098620206"><ele>575.9599914550781</ele></trkpt><trkpt lat="46.68908012472093" lon="7.848260098602623"><ele>575.3299865722656</ele></trkpt><trkpt lat="46.689050124492496" lon="7.848400098271668"><ele>574.8199768066406</ele></trkpt><trkpt lat="46.689050124492496" lon="7.8485300983302295"><ele>574.2799987792969</ele></trkpt><trkpt lat="46.68906012456864" lon="7.84868009807542"><ele>574.1099853515625</ele></trkpt><trkpt lat="46.68908012425527" lon="7.848830098286271"><ele>574.3099975585938</ele></trkpt><trkpt lat="46.689090124331415" lon="7.848940098192543"><ele>574.0099792480469</ele></trkpt><trkpt lat="46.68910012440756" lon="7.849060098174959"><ele>573.9299926757812</ele></trkpt><trkpt lat="46.689090124331415" lon="7.849190098233521"><ele>573.8699951171875</ele></trkpt><trkpt lat="46.68908012425527" lon="7.849310098215938"><ele>573.4199829101562</ele></trkpt><trkpt lat="46.68906012410298" lon="7.849420098122209"><ele>573.0299987792969</ele></trkpt><trkpt lat="46.689070124179125" lon="7.849520097952336"><ele>572.8999938964844</ele></trkpt><trkpt lat="46.689070124179125" lon="7.849590098019689"><ele>572.9299926757812</ele></trkpt><trkpt lat="46.68908012425527" lon="7.849620098248124"><ele>572.9399719238281</ele></trkpt><trkpt lat="46.689070124179125" lon="7.849680098239332"><ele>572.9599914550781</ele></trkpt><trkpt lat="46.68906012410298" lon="7.849790098145604"><ele>572.9499816894531</ele></trkpt><trkpt lat="46.68901012418792" lon="7.849880097899586"><ele>573.239990234375</ele></trkpt><trkpt lat="46.68895012419671" lon="7.8500100979581475"><ele>573.3399963378906</ele></trkpt><trkpt lat="46.68893012404442" lon="7.850110098253936"><ele>573.1499938964844</ele></trkpt><trkpt lat="46.68891012435779" lon="7.850220098160207"><ele>572.7799987792969</ele></trkpt><trkpt lat="46.68890012381598" lon="7.850370097905397"><ele>571.6199951171875</ele></trkpt><trkpt lat="46.68887012358755" lon="7.850560097489506"><ele>570.2599792480469</ele></trkpt><trkpt lat="46.688820123672485" lon="7.850740097463131"><ele>569.7599792480469</ele></trkpt><trkpt lat="46.688820123672485" lon="7.850790097378194"><ele>569.5799865722656</ele></trkpt><trkpt lat="46.688820123672485" lon="7.8508800975978374"><ele>569.5599975585938</ele></trkpt><trkpt lat="46.68883012328297" lon="7.851020097732544"><ele>569.489990234375</ele></trkpt><trkpt lat="46.688880123663694" lon="7.851170097477734"><ele>569.3099975585938</ele></trkpt><trkpt lat="46.68890012335032" lon="7.851260097697377"><ele>569.219970703125</ele></trkpt><trkpt lat="46.68891012342647" lon="7.851370097603649"><ele>568.989990234375</ele></trkpt><trkpt lat="46.68892012350261" lon="7.8514900975860655"><ele>568.489990234375</ele></trkpt><trkpt lat="46.68892012303695" lon="7.851600097026676"><ele>567.7599792480469</ele></trkpt><trkpt lat="46.68892012303695" lon="7.851690097246319"><ele>567.0999755859375</ele></trkpt><trkpt lat="46.68892012303695" lon="7.851750097237527"><ele>566.8199768066406</ele></trkpt><trkpt lat="46.68890012288466" lon="7.851810097228736"><ele>566.5599975585938</ele></trkpt><trkpt lat="46.688870122656226" lon="7.851860097143799"><ele>566.3599853515625</ele></trkpt><trkpt lat="46.68890012288466" lon="7.851920097135007"><ele>566.3899841308594</ele></trkpt><trkpt lat="46.688950122799724" lon="7.852010096888989"><ele>566.4299926757812</ele></trkpt><trkpt lat="46.68904012301937" lon="7.852200096938759"><ele>566.2599792480469</ele></trkpt><trkpt lat="46.689160123001784" lon="7.852470097132027"><ele>565.8999938964844</ele></trkpt><trkpt lat="46.68926012283191" lon="7.852720096707344"><ele>565.5099792480469</ele></trkpt><trkpt lat="46.689080122392625" lon="7.8528700969181955"><ele>564.6899719238281</ele></trkpt><trkpt lat="46.68892012257129" lon="7.853000096511096"><ele>564.3399963378906</ele></trkpt><trkpt lat="46.68884012242779" lon="7.853070096578449"><ele>564.25</ele></trkpt><trkpt lat="46.6888201222755" lon="7.853080096654594"><ele>564.1899719238281</ele></trkpt><trkpt lat="46.68879012251273" lon="7.853100096806884"><ele>564.1399841308594</ele></trkpt><trkpt lat="46.688830122351646" lon="7.853230096865445"><ele>564.1799926757812</ele></trkpt><trkpt lat="46.688910122495145" lon="7.853500096593052"><ele>564.1299743652344</ele></trkpt><trkpt lat="46.68894012225792" lon="7.853590096812695"><ele>564.22998046875</ele></trkpt><trkpt lat="46.68894012225792" lon="7.853620096575469"><ele>564.22998046875</ele></trkpt><trkpt lat="46.68901012232527" lon="7.8538300967775285"><ele>564.0199890136719</ele></trkpt><trkpt lat="46.68914012238383" lon="7.854260096792132"><ele>564.25</ele></trkpt><trkpt lat="46.68918012222275" lon="7.854410096537322"><ele>564.0999755859375</ele></trkpt><trkpt lat="46.68920012237504" lon="7.854430096689612"><ele>564.0</ele></trkpt><trkpt lat="46.689210122451186" lon="7.85447009652853"><ele>564.0</ele></trkpt><trkpt lat="46.689230122603476" lon="7.854520096909255"><ele>564.0</ele></trkpt><trkpt lat="46.68924012221396" lon="7.854560096748173"><ele>564.0</ele></trkpt><trkpt lat="46.68924012221396" lon="7.854580096900463"><ele>564.1499938964844</ele></trkpt><trkpt lat="46.68924012221396" lon="7.854590096510947"><ele>563.8999938964844</ele></trkpt><trkpt lat="46.68924012221396" lon="7.854590096510947"><ele>563.8999938964844</ele></trkpt><trkpt lat="46.689250122290105" lon="7.85468009673059"><ele>564.0</ele></trkpt><trkpt lat="46.689270122442394" lon="7.854750096797943"><ele>564.0</ele></trkpt><trkpt lat="46.68928012251854" lon="7.854770096484572"><ele>564.0</ele></trkpt><trkpt lat="46.68931012228131" lon="7.854840096551925"><ele>564.0399780273438</ele></trkpt><trkpt lat="46.68931012228131" lon="7.854840096551925"><ele>564.0</ele></trkpt><trkpt lat="46.6893301224336" lon="7.854900096543133"><ele>564.0499877929688</ele></trkpt><trkpt lat="46.68937012227252" lon="7.8549700966104865"><ele>564.0</ele></trkpt><trkpt lat="46.689420122187585" lon="7.855100096669048"><ele>564.0</ele></trkpt><trkpt lat="46.689420122653246" lon="7.855100096669048"><ele>564.1599731445312</ele></trkpt><trkpt lat="46.68950012233108" lon="7.855290096718818"><ele>564.1399841308594</ele></trkpt><trkpt lat="46.68953012255952" lon="7.855370096862316"><ele>564.4099731445312</ele></trkpt><trkpt lat="46.689590122550726" lon="7.855530096683651"><ele>564.3999938964844</ele></trkpt><trkpt lat="46.689590122550726" lon="7.855560096912086"><ele>564.3999938964844</ele></trkpt><trkpt lat="46.6896201223135" lon="7.855690096504986"><ele>563.3999938964844</ele></trkpt><trkpt lat="46.68965012207627" lon="7.855780096724629"><ele>563.489990234375</ele></trkpt><trkpt lat="46.68966012215242" lon="7.855850096791983"><ele>563.3999938964844</ele></trkpt><trkpt lat="46.68967012222856" lon="7.855880096554756"><ele>563.7099914550781</ele></trkpt><trkpt lat="46.68968012230471" lon="7.855910096783191"><ele>564.0999755859375</ele></trkpt><trkpt lat="46.689700122457" lon="7.856150096748024"><ele>564.5</ele></trkpt><trkpt lat="46.68971012253314" lon="7.856240096967667"><ele>564.4099731445312</ele></trkpt><trkpt lat="46.689740122295916" lon="7.856470096856356"><ele>564.1999816894531</ele></trkpt><trkpt lat="46.689760122448206" lon="7.856630096677691"><ele>564.2999877929688</ele></trkpt><trkpt lat="46.689780122600496" lon="7.856890096794814"><ele>564.1999816894531</ele></trkpt><trkpt lat="46.689800122287124" lon="7.857080096844584"><ele>564.1999816894531</ele></trkpt><trkpt lat="46.689820122439414" lon="7.857210096903145"><ele>564.239990234375</ele></trkpt><trkpt lat="46.689840122591704" lon="7.85741009702906"><ele>564.5299987792969</ele></trkpt><trkpt lat="46.689840122591704" lon="7.85741009702906"><ele>564.3599853515625</ele></trkpt><trkpt lat="46.68985012266785" lon="7.857440096791834"><ele>564.3999938964844</ele></trkpt><trkpt lat="46.68986012227833" lon="7.857530097011477"><ele>564.4499816894531</ele></trkpt><trkpt lat="46.68993012281135" lon="7.858360096812248"><ele>565.3299865722656</ele></trkpt><trkpt lat="46.68993012281135" lon="7.858410097192973"><ele>565.3999938964844</ele></trkpt><trkpt lat="46.689950122497976" lon="7.858670096844435"><ele>565.1799926757812</ele></trkpt><trkpt lat="46.689970122650266" lon="7.858900096733123"><ele>564.7999877929688</ele></trkpt><trkpt lat="46.69000012241304" lon="7.859160096850246"><ele>564.6499938964844</ele></trkpt><trkpt lat="46.690010122489184" lon="7.859260096680373"><ele>564.5899963378906</ele></trkpt><trkpt lat="46.690030122641474" lon="7.859520096797496"><ele>564.5399780273438</ele></trkpt><trkpt lat="46.6900501223281" lon="7.859810096677393"><ele>564.3999938964844</ele></trkpt><trkpt lat="46.69010012270883" lon="7.860330096911639"><ele>564.6999816894531</ele></trkpt><trkpt lat="46.690140122547746" lon="7.860740096773952"><ele>564.6999816894531</ele></trkpt><trkpt lat="46.690180122386664" lon="7.861210097093135"><ele>564.7999877929688</ele></trkpt><trkpt lat="46.69019012246281" lon="7.8614300969056785"><ele>564.7799987792969</ele></trkpt><trkpt lat="46.690200122538954" lon="7.861590096727014"><ele>564.5999755859375</ele></trkpt><trkpt lat="46.690220122691244" lon="7.861810097005218"><ele>564.7999877929688</ele></trkpt><trkpt lat="46.69023012230173" lon="7.861860096920282"><ele>564.5999755859375</ele></trkpt><trkpt lat="46.69023012276739" lon="7.862030096817762"><ele>564.8099975585938</ele></trkpt><trkpt lat="46.69024012237787" lon="7.862030096817762"><ele>564.0999755859375</ele></trkpt><trkpt lat="46.69025012245402" lon="7.8622300969436765"><ele>563.8999938964844</ele></trkpt><trkpt lat="46.690290122292936" lon="7.862680096644908"><ele>564.1799926757812</ele></trkpt><trkpt lat="46.690330122597516" lon="7.863200096879154"><ele>564.5</ele></trkpt><trkpt lat="46.690350122284144" lon="7.863450096920133"><ele>564.5599975585938</ele></trkpt><trkpt lat="46.69036012236029" lon="7.863590097054839"><ele>564.5999755859375</ele></trkpt><trkpt lat="46.690370122436434" lon="7.863620096817613"><ele>564.5499877929688</ele></trkpt><trkpt lat="46.6904201223515" lon="7.863970097154379"><ele>564.5999755859375</ele></trkpt><trkpt lat="46.69044012250379" lon="7.864180096890777"><ele>564.5</ele></trkpt><trkpt lat="46.690480122342706" lon="7.864480096846819"><ele>564.5</ele></trkpt><trkpt lat="46.690480122342706" lon="7.864490096922964"><ele>564.6099853515625</ele></trkpt><trkpt lat="46.690520122647285" lon="7.864520097151399"><ele>565.0699768066406</ele></trkpt><trkpt lat="46.69055012287572" lon="7.864570097066462"><ele>565.6599731445312</ele></trkpt><trkpt lat="46.690580122638494" lon="7.864640097133815"><ele>566.2799987792969</ele></trkpt><trkpt lat="46.69062012294307" lon="7.864730097353458"><ele>566.8999938964844</ele></trkpt><trkpt lat="46.69065012317151" lon="7.86484009725973"><ele>567.6799926757812</ele></trkpt><trkpt lat="46.69065012317151" lon="7.864870097488165"><ele>567.9099731445312</ele></trkpt></trkseg></trk></gpx>