<?xml version="1.0" encoding="utf-8"?><gpx version="1.1" creator="MySchweizMobil - https://map.schweizmobil.ch/" xmlns:xsi="http://www.w3.org/2001/XMLSchema-instance" xmlns="http://www.topografix.com/GPX/1/1" xsi:schemaLocation="http://www.topografix.com/GPX/1/1 http://www.topografix.com/GPX/1/1/gpx.xsd"><metadata><name>Eigergletscher to Wengenalp</name><bounds minlat="46.570800374727696" minlon="7.938970306888223" maxlat="46.57596038421616" maxlon="7.9758003782480955" /></metadata><trk><name>Eigergletscher to Wengenalp</name><trkseg><trkpt lat="46.57470047241077" lon="7.975090380292386"><ele>2323.8399963378906</ele></trkpt><trkpt lat="46.57471047248691" lon="7.975040380377322"><ele>2323.72998046875</ele></trkpt><trkpt lat="46.57460047211498" lon="7.975000380538404"><ele>2323.0899963378906</ele></trkpt><trkpt lat="46.574570471886545" lon="7.975000380538404"><ele>2323.0399780273438</ele></trkpt><trkpt lat="46.57453047204763" lon="7.975010380148888"><ele>2322.5999755859375</ele></trkpt><trkpt lat="46.57449047174305" lon="7.9750303803011775"><ele>2322.0799865722656</ele></trkpt><trkpt lat="46.574460471980274" lon="7.975080380216241"><ele>2321.439971923828</ele></trkpt><trkpt lat="46.57443047175184" lon="7.975140380207449"><ele>2320.949981689453</ele></trkpt><trkpt lat="46.574420471675694" lon="7.975200379732996"><ele>2319.97998046875</ele></trkpt><trkpt lat="46.57433047052473" lon="7.97540037939325"><ele>2315.8199768066406</ele></trkpt><trkpt lat="46.574260469991714" lon="7.975520378910005"><ele>2313.1499938964844</ele></trkpt><trkpt lat="46.574200470000505" lon="7.975600378587842"><ele>2311.6799926757812</ele></trkpt><trkpt lat="46.574160469695926" lon="7.975670378189534"><ele>2310.5499877929688</ele></trkpt><trkpt lat="46.57408046955243" lon="7.9758003782480955"><ele>2309.6799926757812</ele></trkpt><trkpt lat="46.574080469086766" lon="7.975610377732664"><ele>2307.3999938964844</ele></trkpt><trkpt lat="46.57400046894327" lon="7.975620377808809"><ele>2306.47998046875</ele></trkpt><trkpt lat="46.57396046863869" lon="7.975640377495438"><ele>2305.8199768066406</ele></trkpt><trkpt lat="46.57393046841025" lon="7.975650377571583"><ele>2305.259979248047</ele></trkpt><trkpt lat="46.573890468571335" lon="7.975670377258211"><ele>2304.719970703125</ele></trkpt><trkpt lat="46.57376046851277" lon="7.975720377638936"><ele>2304.3199768066406</ele></trkpt><trkpt lat="46.57373046828434" lon="7.975740377325565"><ele>2304.8199768066406</ele></trkpt><trkpt lat="46.573700468521565" lon="7.975770377553999"><ele>2305.5699768066406</ele></trkpt><trkpt lat="46.57367046875879" lon="7.975790377706289"><ele>2306.189971923828</ele></trkpt><trkpt lat="46.5736504686065" lon="7.975800377782434"><ele>2306.3099975585938</ele></trkpt><trkpt lat="46.57366046868265" lon="7.975750377867371"><ele>2306.75</ele></trkpt><trkpt lat="46.57368046883494" lon="7.9757003779523075"><ele>2307.519989013672</ele></trkpt><trkpt lat="46.57369046891108" lon="7.975650378037244"><ele>2307.719970703125</ele></trkpt><trkpt lat="46.57371046906337" lon="7.975600378122181"><ele>2307.739990234375</ele></trkpt><trkpt lat="46.573720469139516" lon="7.9755303780548275"><ele>2307.4199829101562</ele></trkpt><trkpt lat="46.57373046875" lon="7.975480377674103"><ele>2307.0999755859375</ele></trkpt><trkpt lat="46.573740468826145" lon="7.975430377759039"><ele>2306.709991455078</ele></trkpt><trkpt lat="46.573740468826145" lon="7.975370377767831"><ele>2305.8799743652344</ele></trkpt><trkpt lat="46.57375046843663" lon="7.975280377548188"><ele>2304.8999938964844</ele></trkpt><trkpt lat="46.57376046851277" lon="7.97520037740469"><ele>2304.22998046875</ele></trkpt><trkpt lat="46.57377046812326" lon="7.975070377346128"><ele>2303.0699768066406</ele></trkpt><trkpt lat="46.57377046812326" lon="7.975000377278775"><ele>2302.8199768066406</ele></trkpt><trkpt lat="46.57378046773374" lon="7.974900376982987"><ele>2302.259979248047</ele></trkpt><trkpt lat="46.573790467809886" lon="7.974650376942009"><ele>2302.029998779297</ele></trkpt><trkpt lat="46.573790467809886" lon="7.974550377111882"><ele>2301.5399780273438</ele></trkpt><trkpt lat="46.573790467809886" lon="7.974480377044529"><ele>2301.0699768066406</ele></trkpt><trkpt lat="46.573790467344224" lon="7.9744003769010305"><ele>2300.189971923828</ele></trkpt><trkpt lat="46.57380046742037" lon="7.974310376681387"><ele>2298.969970703125</ele></trkpt><trkpt lat="46.57380046695471" lon="7.974230376072228"><ele>2297.6499938964844</ele></trkpt><trkpt lat="46.57381046609953" lon="7.974020375870168"><ele>2294.0499877929688</ele></trkpt><trkpt lat="46.57381046609953" lon="7.973940375261009"><ele>2292.529998779297</ele></trkpt><trkpt lat="46.573800465557724" lon="7.973860375117511"><ele>2290.9299926757812</ele></trkpt><trkpt lat="46.57379046548158" lon="7.973800375126302"><ele>2289.9099731445312</ele></trkpt><trkpt lat="46.57376046478748" lon="7.973640374373645"><ele>2287.1599731445312</ele></trkpt><trkpt lat="46.57375046471134" lon="7.973510374315083"><ele>2285.47998046875</ele></trkpt><trkpt lat="46.57375046424568" lon="7.97344037424773"><ele>2284.6699829101562</ele></trkpt><trkpt lat="46.57374046416953" lon="7.973390373867005"><ele>2283.5599975585938</ele></trkpt><trkpt lat="46.57372046401724" lon="7.973290373571217"><ele>2281.459991455078</ele></trkpt><trkpt lat="46.573710463475436" lon="7.973150373436511"><ele>2279.3299865722656</ele></trkpt><trkpt lat="46.57372046308592" lon="7.973060372751206"><ele>2276.8499755859375</ele></trkpt><trkpt lat="46.5737304626964" lon="7.973020372446626"><ele>2275.6499938964844</ele></trkpt><trkpt lat="46.57373046223074" lon="7.972950372379273"><ele>2273.75</ele></trkpt><trkpt lat="46.57373046176508" lon="7.97284037200734"><ele>2271.2899780273438</ele></trkpt><trkpt lat="46.573720461688936" lon="7.972760371863842"><ele>2269.8099975585938</ele></trkpt><trkpt lat="46.57373046129942" lon="7.972710371483117"><ele>2268.8599853515625</ele></trkpt><trkpt lat="46.573720461223274" lon="7.972660371568054"><ele>2267.8099975585938</ele></trkpt><trkpt lat="46.57371046068147" lon="7.97257037088275"><ele>2265.6499938964844</ele></trkpt><trkpt lat="46.57369046006352" lon="7.9724703705869615"><ele>2263.5999755859375</ele></trkpt><trkpt lat="46.57368045998737" lon="7.972380370367318"><ele>2261.989990234375</ele></trkpt><trkpt lat="46.573670459445566" lon="7.972290370147675"><ele>2260.1099853515625</ele></trkpt><trkpt lat="46.573650458827615" lon="7.972160369623452"><ele>2257.3299865722656</ele></trkpt><trkpt lat="46.57362045813352" lon="7.971970369108021"><ele>2253.6699829101562</ele></trkpt><trkpt lat="46.573590457905084" lon="7.97178036859259"><ele>2250.9299926757812</ele></trkpt><trkpt lat="46.57357045728713" lon="7.971650368068367"><ele>2248.3199768066406</ele></trkpt><trkpt lat="46.57355045666918" lon="7.971510367933661"><ele>2245.209991455078</ele></trkpt><trkpt lat="46.573540455661714" lon="7.971340367104858"><ele>2241.47998046875</ele></trkpt><trkpt lat="46.5735204545781" lon="7.971140366047621"><ele>2236.4099731445312</ele></trkpt><trkpt lat="46.57349045434967" lon="7.971020365599543"><ele>2233.0799865722656</ele></trkpt><trkpt lat="46.573450453113765" lon="7.970790364779532"><ele>2227.6499938964844</ele></trkpt><trkpt lat="46.573430452961475" lon="7.970740364864469"><ele>2226.2899780273438</ele></trkpt><trkpt lat="46.57342045241967" lon="7.970700364559889"><ele>2225.1199951171875</ele></trkpt><trkpt lat="46.57340045226738" lon="7.970670364331454"><ele>2224.0999755859375</ele></trkpt><trkpt lat="46.57340045226738" lon="7.970650364179164"><ele>2223.439971923828</ele></trkpt><trkpt lat="46.57338045164943" lon="7.970590363722295"><ele>2221.5699768066406</ele></trkpt><trkpt lat="46.57338045164943" lon="7.970570363570005"><ele>2220.97998046875</ele></trkpt><trkpt lat="46.573340450879186" lon="7.970480363350362"><ele>2217.269989013672</ele></trkpt><trkpt lat="46.573320450261235" lon="7.970360362436622"><ele>2213.029998779297</ele></trkpt><trkpt lat="46.57331044971943" lon="7.970320362132043"><ele>2211.689971923828</ele></trkpt><trkpt lat="46.573320449795574" lon="7.970260362140834"><ele>2210.22998046875</ele></trkpt><trkpt lat="46.57331044971943" lon="7.9702403619885445"><ele>2209.9299926757812</ele></trkpt><trkpt lat="46.57331044925377" lon="7.970220361836255"><ele>2209.5399780273438</ele></trkpt><trkpt lat="46.57329044910148" lon="7.970140361692756"><ele>2207.5</ele></trkpt><trkpt lat="46.57328044902533" lon="7.9701203615404665"><ele>2207.0999755859375</ele></trkpt><trkpt lat="46.57325044833124" lon="7.969970360863954"><ele>2203.3499755859375</ele></trkpt><trkpt lat="46.573210447560996" lon="7.969850360415876"><ele>2200.6599731445312</ele></trkpt><trkpt lat="46.573170447256416" lon="7.969750360120088"><ele>2198.529998779297</ele></trkpt><trkpt lat="46.57314044702798" lon="7.969690359663218"><ele>2196.949981689453</ele></trkpt><trkpt lat="46.57310044625774" lon="7.969560359138995"><ele>2193.5</ele></trkpt><trkpt lat="46.57308044610545" lon="7.969510359223932"><ele>2192.3699951171875</ele></trkpt><trkpt lat="46.5730604454875" lon="7.969430358614773"><ele>2190.3699951171875</ele></trkpt><trkpt lat="46.57298044441268" lon="7.969160357955843"><ele>2184.97998046875</ele></trkpt><trkpt lat="46.57296044426039" lon="7.96909035788849"><ele>2183.519989013672</ele></trkpt><trkpt lat="46.572930444031954" lon="7.96903035743162"><ele>2181.97998046875</ele></trkpt><trkpt lat="46.57288044365123" lon="7.968920357059687"><ele>2179.6599731445312</ele></trkpt><trkpt lat="46.57284044334665" lon="7.968870356678963"><ele>2178.5499877929688</ele></trkpt><trkpt lat="46.572830443270504" lon="7.968850356992334"><ele>2178.0699768066406</ele></trkpt><trkpt lat="46.572790442965925" lon="7.968760356772691"><ele>2176.8599853515625</ele></trkpt><trkpt lat="46.572750442661345" lon="7.968690356705338"><ele>2176.259979248047</ele></trkpt><trkpt lat="46.572690442204475" lon="7.968540356028825"><ele>2174.2899780273438</ele></trkpt><trkpt lat="46.572670442052186" lon="7.968490356113762"><ele>2173.72998046875</ele></trkpt><trkpt lat="46.57266044197604" lon="7.968440355733037"><ele>2172.769989013672</ele></trkpt><trkpt lat="46.57264044182375" lon="7.968390355817974"><ele>2171.7999877929688</ele></trkpt><trkpt lat="46.572590440977365" lon="7.968240355141461"><ele>2168.439971923828</ele></trkpt><trkpt lat="46.57254044013098" lon="7.968020354397595"><ele>2163.22998046875</ele></trkpt><trkpt lat="46.572460438124835" lon="7.967580352444202"><ele>2152.3999938964844</ele></trkpt><trkpt lat="46.572420437354594" lon="7.967470352072269"><ele>2149.9099731445312</ele></trkpt><trkpt lat="46.57241043727845" lon="7.967460351996124"><ele>2149.449981689453</ele></trkpt><trkpt lat="46.57241043727845" lon="7.967450351919979"><ele>2149.2999877929688</ele></trkpt><trkpt lat="46.572420437354594" lon="7.967440352309495"><ele>2149.2899780273438</ele></trkpt><trkpt lat="46.57246043719351" lon="7.967460351996124"><ele>2148.3899841308594</ele></trkpt><trkpt lat="46.57247043726966" lon="7.967450351919979"><ele>2148.219970703125</ele></trkpt><trkpt lat="46.5724804373458" lon="7.967440351843834"><ele>2148.1599731445312</ele></trkpt><trkpt lat="46.57250043703243" lon="7.967300352174789"><ele>2148.5799865722656</ele></trkpt><trkpt lat="46.57250043703243" lon="7.967270351946354"><ele>2148.279998779297</ele></trkpt><trkpt lat="46.57250043703243" lon="7.967240351717919"><ele>2147.6399841308594</ele></trkpt><trkpt lat="46.572490436956286" lon="7.967210351489484"><ele>2146.7999877929688</ele></trkpt><trkpt lat="46.572490436956286" lon="7.967190351802856"><ele>2146.3799743652344</ele></trkpt><trkpt lat="46.57250043656677" lon="7.967170351650566"><ele>2145.8999938964844</ele></trkpt><trkpt lat="46.57250043656677" lon="7.967160351574421"><ele>2145.6099853515625</ele></trkpt><trkpt lat="46.57248043641448" lon="7.967140351422131"><ele>2144.5</ele></trkpt><trkpt lat="46.572470436338335" lon="7.967130351345986"><ele>2144.029998779297</ele></trkpt><trkpt lat="46.57246043626219" lon="7.967120351269841"><ele>2143.7999877929688</ele></trkpt><trkpt lat="46.57246043626219" lon="7.967100351117551"><ele>2143.4199829101562</ele></trkpt><trkpt lat="46.572470436338335" lon="7.967090351041406"><ele>2143.1099853515625</ele></trkpt><trkpt lat="46.57248043594882" lon="7.967090351041406"><ele>2142.739990234375</ele></trkpt><trkpt lat="46.57251043571159" lon="7.967050350736827"><ele>2141.6199951171875</ele></trkpt><trkpt lat="46.57253043539822" lon="7.967010350432247"><ele>2139.709991455078</ele></trkpt><trkpt lat="46.572540435474366" lon="7.967000350356102"><ele>2139.0399780273438</ele></trkpt><trkpt lat="46.572560435160995" lon="7.966980350203812"><ele>2138.5899963378906</ele></trkpt><trkpt lat="46.57257043523714" lon="7.966950350441039"><ele>2138.0</ele></trkpt><trkpt lat="46.57257043523714" lon="7.966940350364894"><ele>2137.439971923828</ele></trkpt><trkpt lat="46.57259043445811" lon="7.966900350060314"><ele>2135.709991455078</ele></trkpt><trkpt lat="46.5726104346104" lon="7.966870349831879"><ele>2134.8299865722656</ele></trkpt><trkpt lat="46.57262043422088" lon="7.966850349679589"><ele>2134.509979248047</ele></trkpt><trkpt lat="46.57262043422088" lon="7.966830349527299"><ele>2134.1499938964844</ele></trkpt><trkpt lat="46.572610434144735" lon="7.966750349383801"><ele>2133.5999755859375</ele></trkpt><trkpt lat="46.572610434144735" lon="7.966720349621028"><ele>2133.269989013672</ele></trkpt><trkpt lat="46.57260043406859" lon="7.966680349316448"><ele>2132.6599731445312</ele></trkpt><trkpt lat="46.572590433992445" lon="7.9666503495536745"><ele>2132.1099853515625</ele></trkpt><trkpt lat="46.572590433992445" lon="7.966630349401385"><ele>2131.8399963378906</ele></trkpt><trkpt lat="46.572590433992445" lon="7.96660034917295"><ele>2131.47998046875</ele></trkpt><trkpt lat="46.57260043360293" lon="7.96658034902066"><ele>2131.3599853515625</ele></trkpt><trkpt lat="46.57260043360293" lon="7.966560349334031"><ele>2130.969970703125</ele></trkpt><trkpt lat="46.572590433526784" lon="7.9665403491817415"><ele>2130.4299926757812</ele></trkpt><trkpt lat="46.57260043360293" lon="7.966490348801017"><ele>2129.6399841308594</ele></trkpt><trkpt lat="46.57262043328956" lon="7.966390348505229"><ele>2127.5799865722656</ele></trkpt><trkpt lat="46.57263043290004" lon="7.966360348276794"><ele>2127.029998779297</ele></trkpt><trkpt lat="46.57263043290004" lon="7.966340348590165"><ele>2126.3899841308594</ele></trkpt><trkpt lat="46.57263043290004" lon="7.966300348285586"><ele>2125.6399841308594</ele></trkpt><trkpt lat="46.572640432510525" lon="7.966280348133296"><ele>2125.189971923828</ele></trkpt><trkpt lat="46.57265043212101" lon="7.966190347913653"><ele>2123.6699829101562</ele></trkpt><trkpt lat="46.57265043212101" lon="7.966160347685218"><ele>2123.199981689453</ele></trkpt><trkpt lat="46.5726704322733" lon="7.9661103477701545"><ele>2122.6799926757812</ele></trkpt><trkpt lat="46.57268043188378" lon="7.966070347931236"><ele>2122.2999877929688</ele></trkpt><trkpt lat="46.57270043203607" lon="7.966040347702801"><ele>2121.7899780273438</ele></trkpt><trkpt lat="46.572710431646556" lon="7.966010347474366"><ele>2121.1199951171875</ele></trkpt><trkpt lat="46.57274043140933" lon="7.965990347322077"><ele>2120.1299743652344</ele></trkpt><trkpt lat="46.57279043132439" lon="7.965970347169787"><ele>2119.1499938964844</ele></trkpt><trkpt lat="46.57280043140054" lon="7.965950347017497"><ele>2118.759979248047</ele></trkpt><trkpt lat="46.57281043101102" lon="7.965940346941352"><ele>2118.3599853515625</ele></trkpt><trkpt lat="46.57281043101102" lon="7.965910347178578"><ele>2118.029998779297</ele></trkpt><trkpt lat="46.57281043101102" lon="7.965870346873999"><ele>2117.3099975585938</ele></trkpt><trkpt lat="46.572800430934876" lon="7.965840346645564"><ele>2116.72998046875</ele></trkpt><trkpt lat="46.57279043085873" lon="7.96581034688279"><ele>2115.8299865722656</ele></trkpt><trkpt lat="46.57279043039307" lon="7.9657803466543555"><ele>2115.269989013672</ele></trkpt><trkpt lat="46.57279043039307" lon="7.965750346425921"><ele>2114.8899841308594</ele></trkpt><trkpt lat="46.572800430469215" lon="7.965710346587002"><ele>2114.259979248047</ele></trkpt><trkpt lat="46.572800430003554" lon="7.965650346130133"><ele>2113.1599731445312</ele></trkpt><trkpt lat="46.57279042992741" lon="7.965600345749408"><ele>2111.459991455078</ele></trkpt><trkpt lat="46.5727804293856" lon="7.9655403457582"><ele>2109.8899841308594</ele></trkpt><trkpt lat="46.5727804293856" lon="7.96550034545362"><ele>2108.8999938964844</ele></trkpt><trkpt lat="46.5727804293856" lon="7.965470345225185"><ele>2108.219970703125</ele></trkpt><trkpt lat="46.57278042891994" lon="7.965450345538557"><ele>2107.769989013672</ele></trkpt><trkpt lat="46.57278042891994" lon="7.965420345310122"><ele>2107.199981689453</ele></trkpt><trkpt lat="46.572790428996086" lon="7.965400345157832"><ele>2106.97998046875</ele></trkpt><trkpt lat="46.572770428843796" lon="7.965360344853252"><ele>2105.3099975585938</ele></trkpt><trkpt lat="46.572750428225845" lon="7.965280344709754"><ele>2103.529998779297</ele></trkpt><trkpt lat="46.572750428225845" lon="7.965240344405174"><ele>2102.5799865722656</ele></trkpt><trkpt lat="46.572750428225845" lon="7.965220344718546"><ele>2102.3299865722656</ele></trkpt><trkpt lat="46.57276042783633" lon="7.965210344642401"><ele>2102.019989013672</ele></trkpt><trkpt lat="46.57276042783633" lon="7.965190344490111"><ele>2101.739990234375</ele></trkpt><trkpt lat="46.57276042783633" lon="7.965170344337821"><ele>2101.47998046875</ele></trkpt><trkpt lat="46.572750427760184" lon="7.965150344185531"><ele>2101.189971923828</ele></trkpt><trkpt lat="46.57274042768404" lon="7.965120344422758"><ele>2101.029998779297</ele></trkpt><trkpt lat="46.572730427607894" lon="7.965060343965888"><ele>2100.3999938964844</ele></trkpt><trkpt lat="46.57270042737946" lon="7.964950344059616"><ele>2099.269989013672</ele></trkpt><trkpt lat="46.572690427303314" lon="7.964910343755037"><ele>2098.6099853515625</ele></trkpt><trkpt lat="46.57268042722717" lon="7.964880343992263"><ele>2097.989990234375</ele></trkpt><trkpt lat="46.57268042722717" lon="7.964850343763828"><ele>2097.6699829101562</ele></trkpt><trkpt lat="46.57268042722717" lon="7.964830343611538"><ele>2097.519989013672</ele></trkpt><trkpt lat="46.57268042676151" lon="7.9648103434592485"><ele>2097.019989013672</ele></trkpt><trkpt lat="46.57267042668536" lon="7.964780343696475"><ele>2096.529998779297</ele></trkpt><trkpt lat="46.57266042660922" lon="7.96477034362033"><ele>2095.9199829101562</ele></trkpt><trkpt lat="46.57266042660922" lon="7.96475034346804"><ele>2095.6599731445312</ele></trkpt><trkpt lat="46.57267042668536" lon="7.96473034331575"><ele>2094.989990234375</ele></trkpt><trkpt lat="46.5726704262197" lon="7.9647103431634605"><ele>2094.3399963378906</ele></trkpt><trkpt lat="46.57265042606741" lon="7.964680342935026"><ele>2093.47998046875</ele></trkpt><trkpt lat="46.57264042599127" lon="7.964660342782736"><ele>2092.719970703125</ele></trkpt><trkpt lat="46.57264042599127" lon="7.964650342706591"><ele>2092.3799743652344</ele></trkpt><trkpt lat="46.57265042606741" lon="7.964640342630446"><ele>2092.219970703125</ele></trkpt><trkpt lat="46.57267042575404" lon="7.964630342554301"><ele>2091.3799743652344</ele></trkpt><trkpt lat="46.57267042575404" lon="7.964620342478156"><ele>2091.219970703125</ele></trkpt><trkpt lat="46.57265042560175" lon="7.9646003427915275"><ele>2090.8299865722656</ele></trkpt><trkpt lat="46.572620425373316" lon="7.964590342715383"><ele>2090.1399841308594</ele></trkpt><trkpt lat="46.57260042568669" lon="7.964590342249721"><ele>2089.759979248047</ele></trkpt><trkpt lat="46.57257042545825" lon="7.964590342249721"><ele>2088.72998046875</ele></trkpt><trkpt lat="46.57257042545825" lon="7.964590342249721"><ele>2088.5399780273438</ele></trkpt><trkpt lat="46.57257042499259" lon="7.964570342097431"><ele>2088.25</ele></trkpt><trkpt lat="46.572580425068736" lon="7.964540342334658"><ele>2087.6699829101562</ele></trkpt><trkpt lat="46.57259042514488" lon="7.964520342182368"><ele>2087.189971923828</ele></trkpt><trkpt lat="46.57264042459428" lon="7.964480341877788"><ele>2085.519989013672</ele></trkpt><trkpt lat="46.57264042459428" lon="7.9644503416493535"><ele>2085.1299743652344</ele></trkpt><trkpt lat="46.57261042436585" lon="7.964430341497064"><ele>2083.8699951171875</ele></trkpt><trkpt lat="46.57261042436585" lon="7.964400341268629"><ele>2082.8999938964844</ele></trkpt><trkpt lat="46.57260042382404" lon="7.964370341040194"><ele>2082.1499938964844</ele></trkpt><trkpt lat="46.5725904237479" lon="7.964320341125131"><ele>2081.3099975585938</ele></trkpt><trkpt lat="46.57260042382404" lon="7.964290340896696"><ele>2080.739990234375</ele></trkpt><trkpt lat="46.5725904237479" lon="7.964250341057777"><ele>2079.9099731445312</ele></trkpt><trkpt lat="46.57258042320609" lon="7.964200340677053"><ele>2079.1699829101562</ele></trkpt><trkpt lat="46.572570423129946" lon="7.964160340372473"><ele>2078.3699951171875</ele></trkpt><trkpt lat="46.5725604230538" lon="7.9641203405335546"><ele>2077.779998779297</ele></trkpt><trkpt lat="46.5725604230538" lon="7.96409034030512"><ele>2077.4299926757812</ele></trkpt><trkpt lat="46.572570423129946" lon="7.964070340618491"><ele>2077.0899963378906</ele></trkpt><trkpt lat="46.57260042289272" lon="7.964030340313911"><ele>2076.939971923828</ele></trkpt><trkpt lat="46.57264042273164" lon="7.963980340398848"><ele>2076.509979248047</ele></trkpt><trkpt lat="46.572680422570556" lon="7.9639203399419785"><ele>2074.8899841308594</ele></trkpt><trkpt lat="46.57271042233333" lon="7.9639103398658335"><ele>2074.2999877929688</ele></trkpt><trkpt lat="46.572720422409475" lon="7.963880339637399"><ele>2073.4199829101562</ele></trkpt><trkpt lat="46.572720421943814" lon="7.963860339485109"><ele>2072.939971923828</ele></trkpt><trkpt lat="46.572720421943814" lon="7.963830339722335"><ele>2071.989990234375</ele></trkpt><trkpt lat="46.5727304215543" lon="7.963730338960886"><ele>2069.3599853515625</ele></trkpt><trkpt lat="46.57274042116478" lon="7.963680339045823"><ele>2068.0899963378906</ele></trkpt><trkpt lat="46.57274042069912" lon="7.963580338284373"><ele>2065.3799743652344</ele></trkpt><trkpt lat="46.57274042023346" lon="7.963520338293165"><ele>2064.0499877929688</ele></trkpt><trkpt lat="46.57274042023346" lon="7.96347033791244"><ele>2062.5899963378906</ele></trkpt><trkpt lat="46.57273041969165" lon="7.9634403376840055"><ele>2061.5</ele></trkpt><trkpt lat="46.57273041969165" lon="7.963370337616652"><ele>2059.5</ele></trkpt><trkpt lat="46.57273041922599" lon="7.963310337159783"><ele>2058.279998779297</ele></trkpt><trkpt lat="46.572740418836474" lon="7.963270337320864"><ele>2057.2999877929688</ele></trkpt><trkpt lat="46.57273041876033" lon="7.963210336863995"><ele>2055.739990234375</ele></trkpt><trkpt lat="46.57274041837081" lon="7.96318033663556"><ele>2054.9299926757812</ele></trkpt><trkpt lat="46.57274041837081" lon="7.963140336796641"><ele>2053.9099731445312</ele></trkpt><trkpt lat="46.57273041829467" lon="7.9631203366443515"><ele>2053.0399780273438</ele></trkpt><trkpt lat="46.57274041790515" lon="7.963100336492062"><ele>2052.5</ele></trkpt><trkpt lat="46.57273041782901" lon="7.963060336187482"><ele>2051.22998046875</ele></trkpt><trkpt lat="46.57272041775286" lon="7.963030335959047"><ele>2050.3999938964844</ele></trkpt><trkpt lat="46.5727204172872" lon="7.963000335730612"><ele>2049.489990234375</ele></trkpt><trkpt lat="46.57274041697383" lon="7.962940335739404"><ele>2047.9599914550781</ele></trkpt><trkpt lat="46.57276041712612" lon="7.962930335663259"><ele>2047.4399719238281</ele></trkpt><trkpt lat="46.5727704167366" lon="7.962910335510969"><ele>2046.7899780273438</ele></trkpt><trkpt lat="46.57278041681275" lon="7.962900335434824"><ele>2046.4299926757812</ele></trkpt><trkpt lat="46.57281041657552" lon="7.962890335358679"><ele>2045.5699768066406</ele></trkpt><trkpt lat="46.57283041672781" lon="7.962880335282534"><ele>2045.22998046875</ele></trkpt><trkpt lat="46.57283041626215" lon="7.9628603351302445"><ele>2044.219970703125</ele></trkpt><trkpt lat="46.572820416186005" lon="7.96283033490181"><ele>2043.5399780273438</ele></trkpt><trkpt lat="46.572820416186005" lon="7.96281033474952"><ele>2042.7599792480469</ele></trkpt><trkpt lat="46.572820416186005" lon="7.962780334521085"><ele>2042.0699768066406</ele></trkpt><trkpt lat="46.57283041579649" lon="7.9627503347583115"><ele>2041.0499877929688</ele></trkpt><trkpt lat="46.57284041540697" lon="7.962720334529877"><ele>2040.1299743652344</ele></trkpt><trkpt lat="46.57284041540697" lon="7.962700334377587"><ele>2039.6099853515625</ele></trkpt><trkpt lat="46.57284041540697" lon="7.962670334149152"><ele>2038.9099731445312</ele></trkpt><trkpt lat="46.57280041510239" lon="7.962660334073007"><ele>2037.6299743652344</ele></trkpt><trkpt lat="46.57280041510239" lon="7.962630333844572"><ele>2037.0399780273438</ele></trkpt><trkpt lat="46.57282041478902" lon="7.962610333692282"><ele>2036.2699890136719</ele></trkpt><trkpt lat="46.572830414399505" lon="7.962530333548784"><ele>2034.489990234375</ele></trkpt><trkpt lat="46.572810414247215" lon="7.9624903332442045"><ele>2033.1399841308594</ele></trkpt><trkpt lat="46.57282041432336" lon="7.962450333405286"><ele>2032.5299987792969</ele></trkpt><trkpt lat="46.57283041393384" lon="7.962400333024561"><ele>2031.3899841308594</ele></trkpt><trkpt lat="46.57283041346818" lon="7.962350332643837"><ele>2029.7899780273438</ele></trkpt><trkpt lat="46.57283041346818" lon="7.962320332415402"><ele>2028.8099975585938</ele></trkpt><trkpt lat="46.57281041331589" lon="7.962290332186967"><ele>2027.719970703125</ele></trkpt><trkpt lat="46.57281041285023" lon="7.962260332424194"><ele>2026.8799743652344</ele></trkpt><trkpt lat="46.572800412774086" lon="7.962230332195759"><ele>2025.8099975585938</ele></trkpt><trkpt lat="46.57279041269794" lon="7.962200331967324"><ele>2025.3299865722656</ele></trkpt><trkpt lat="46.572800412774086" lon="7.962180331815034"><ele>2024.7599792480469</ele></trkpt><trkpt lat="46.572800412308425" lon="7.962150332052261"><ele>2024.2899780273438</ele></trkpt><trkpt lat="46.57281041238457" lon="7.962120331823826"><ele>2023.75</ele></trkpt><trkpt lat="46.572820412460715" lon="7.962090331595391"><ele>2023.0999755859375</ele></trkpt><trkpt lat="46.57280041184276" lon="7.962060331366956"><ele>2022.2599792480469</ele></trkpt><trkpt lat="46.57280041184276" lon="7.962010331451893"><ele>2021.5099792480469</ele></trkpt><trkpt lat="46.57280041184276" lon="7.961970331147313"><ele>2020.6799926757812</ele></trkpt><trkpt lat="46.57280041184276" lon="7.961930331308395"><ele>2020.1199951171875</ele></trkpt><trkpt lat="46.57282041152939" lon="7.961890331003815"><ele>2019.5899963378906</ele></trkpt><trkpt lat="46.57284041121602" lon="7.96186033077538"><ele>2018.7799987792969</ele></trkpt><trkpt lat="46.57284041121602" lon="7.961820330936462"><ele>2017.989990234375</ele></trkpt><trkpt lat="46.572830411139876" lon="7.961790330708027"><ele>2017.1899719238281</ele></trkpt><trkpt lat="46.57282041106373" lon="7.961760330479592"><ele>2016.4299926757812</ele></trkpt><trkpt lat="46.57284041075036" lon="7.961730330251157"><ele>2015.8599853515625</ele></trkpt><trkpt lat="46.572830410674214" lon="7.961690330412239"><ele>2015.1599731445312</ele></trkpt><trkpt lat="46.5728404102847" lon="7.961630329955369"><ele>2013.7099914550781</ele></trkpt><trkpt lat="46.57283041020855" lon="7.961600330192596"><ele>2012.97998046875</ele></trkpt><trkpt lat="46.5728404102847" lon="7.961570329964161"><ele>2012.5499877929688</ele></trkpt><trkpt lat="46.57284040981904" lon="7.961540329735726"><ele>2011.969970703125</ele></trkpt><trkpt lat="46.57284040981904" lon="7.961500329896808"><ele>2011.47998046875</ele></trkpt><trkpt lat="46.57283040974289" lon="7.961470329668373"><ele>2010.6599731445312</ele></trkpt><trkpt lat="46.57283040974289" lon="7.961440329439938"><ele>2010.1799926757812</ele></trkpt><trkpt lat="46.57283040974289" lon="7.96140032960102"><ele>2009.5399780273438</ele></trkpt><trkpt lat="46.57285040942952" lon="7.96136032929644"><ele>2009.1699829101562</ele></trkpt><trkpt lat="46.57285040942952" lon="7.961320329457521"><ele>2008.5999755859375</ele></trkpt><trkpt lat="46.57285040942952" lon="7.961290329229087"><ele>2008.3299865722656</ele></trkpt><trkpt lat="46.57287040911615" lon="7.961260329000652"><ele>2008.1599731445312</ele></trkpt><trkpt lat="46.572900409344584" lon="7.9612103290855885"><ele>2007.6399841308594</ele></trkpt><trkpt lat="46.57290040887892" lon="7.9612003290094435"><ele>2007.3899841308594</ele></trkpt><trkpt lat="46.57289040880278" lon="7.961170328781009"><ele>2006.25</ele></trkpt><trkpt lat="46.572890408337116" lon="7.9611003287136555"><ele>2004.4599914550781</ele></trkpt><trkpt lat="46.572910408489406" lon="7.961050328332931"><ele>2003.72998046875</ele></trkpt><trkpt lat="46.57292040809989" lon="7.961010328494012"><ele>2003.0199890136719</ele></trkpt><trkpt lat="46.572930408176035" lon="7.9609803282655776"><ele>2002.6399841308594</ele></trkpt><trkpt lat="46.57294040825218" lon="7.960960328113288"><ele>2002.3399963378906</ele></trkpt><trkpt lat="46.57295040786266" lon="7.960920328274369"><ele>2001.8799743652344</ele></trkpt><trkpt lat="46.57297040801495" lon="7.960850328207016"><ele>2001.489990234375</ele></trkpt><trkpt lat="46.57297040754929" lon="7.960820327978581"><ele>2000.7099914550781</ele></trkpt><trkpt lat="46.57297040754929" lon="7.960790327750146"><ele>2000.1499938964844</ele></trkpt><trkpt lat="46.57297040754929" lon="7.960760327987373"><ele>1999.739990234375</ele></trkpt><trkpt lat="46.57298040762544" lon="7.960740327835083"><ele>1999.2699890136719</ele></trkpt><trkpt lat="46.57299040723592" lon="7.960710327606648"><ele>1999.0799865722656</ele></trkpt><trkpt lat="46.57299040723592" lon="7.960660327691585"><ele>1998.22998046875</ele></trkpt><trkpt lat="46.57299040723592" lon="7.960620327387005"><ele>1997.5999755859375</ele></trkpt><trkpt lat="46.57299040723592" lon="7.960590327624232"><ele>1997.1199951171875</ele></trkpt><trkpt lat="46.573000406846404" lon="7.960550327319652"><ele>1996.3999938964844</ele></trkpt><trkpt lat="46.57300040638074" lon="7.960430326871574"><ele>1994.3899841308594</ele></trkpt><trkpt lat="46.573030405677855" lon="7.9601803263649344"><ele>1991.1799926757812</ele></trkpt><trkpt lat="46.573050405830145" lon="7.960010326467454"><ele>1990.25</ele></trkpt><trkpt lat="46.57306040544063" lon="7.95996032608673"><ele>1989.72998046875</ele></trkpt><trkpt lat="46.57307040551677" lon="7.959920326247811"><ele>1989.3999938964844</ele></trkpt><trkpt lat="46.57307040551677" lon="7.95979032618925"><ele>1989.6099853515625</ele></trkpt><trkpt lat="46.57308040559292" lon="7.959580326452851"><ele>1990.5399780273438</ele></trkpt><trkpt lat="46.57308040559292" lon="7.959490326233208"><ele>1990.6799926757812</ele></trkpt><trkpt lat="46.57307040551677" lon="7.959440326318145"><ele>1990.1499938964844</ele></trkpt><trkpt lat="46.57306040544063" lon="7.959360326174647"><ele>1989.4199829101562</ele></trkpt><trkpt lat="46.57306040544063" lon="7.959280326031148"><ele>1988.4299926757812</ele></trkpt><trkpt lat="46.57306040544063" lon="7.959250325802714"><ele>1988.0</ele></trkpt><trkpt lat="46.57307040505111" lon="7.959230325650424"><ele>1987.489990234375</ele></trkpt><trkpt lat="46.57307040505111" lon="7.959190325811505"><ele>1986.7599792480469</ele></trkpt><trkpt lat="46.57306040497497" lon="7.9591703256592155"><ele>1986.1999816894531</ele></trkpt><trkpt lat="46.57307040458545" lon="7.959110325202346"><ele>1984.75</ele></trkpt><trkpt lat="46.57307040458545" lon="7.959090325050056"><ele>1984.0999755859375</ele></trkpt><trkpt lat="46.57307040411979" lon="7.9590603252872825"><ele>1983.4299926757812</ele></trkpt><trkpt lat="46.573060404043645" lon="7.959020324982703"><ele>1982.4299926757812</ele></trkpt><trkpt lat="46.5730504039675" lon="7.9589403248392045"><ele>1981.0899963378906</ele></trkpt><trkpt lat="46.573000403586775" lon="7.958820324391127"><ele>1979.3299865722656</ele></trkpt><trkpt lat="46.57299040351063" lon="7.958760324399918"><ele>1978.6299743652344</ele></trkpt><trkpt lat="46.572960403282195" lon="7.958650324027985"><ele>1977.5</ele></trkpt><trkpt lat="46.572960402816534" lon="7.958570323884487"><ele>1976.8699951171875</ele></trkpt><trkpt lat="46.572960402816534" lon="7.958540324121714"><ele>1976.6199951171875</ele></trkpt><trkpt lat="46.57297040289268" lon="7.95847032405436"><ele>1976.8699951171875</ele></trkpt><trkpt lat="46.572960403282195" lon="7.958410324063152"><ele>1977.0199890136719</ele></trkpt><trkpt lat="46.572960403282195" lon="7.958370324224234"><ele>1977.0399780273438</ele></trkpt><trkpt lat="46.572960402816534" lon="7.958320323843509"><ele>1976.8499755859375</ele></trkpt><trkpt lat="46.57297040289268" lon="7.9582803240045905"><ele>1976.6499938964844</ele></trkpt><trkpt lat="46.57297040289268" lon="7.958210323937237"><ele>1976.3699951171875</ele></trkpt><trkpt lat="46.572960402816534" lon="7.958100324030966"><ele>1975.4099731445312</ele></trkpt><trkpt lat="46.57295040274039" lon="7.958040323574096"><ele>1974.5599975585938</ele></trkpt><trkpt lat="46.57294040219858" lon="7.957980323582888"><ele>1973.75</ele></trkpt><trkpt lat="46.57294040173292" lon="7.957830323372036"><ele>1971.22998046875</ele></trkpt><trkpt lat="46.57292040158063" lon="7.9577903230674565"><ele>1969.9599914550781</ele></trkpt><trkpt lat="46.57293040165678" lon="7.957760322839022"><ele>1969.2699890136719</ele></trkpt><trkpt lat="46.57292040158063" lon="7.957720322534442"><ele>1968.5899963378906</ele></trkpt><trkpt lat="46.57290040096268" lon="7.957650322467089"><ele>1967.6999816894531</ele></trkpt><trkpt lat="46.5728904013522" lon="7.95763032278046"><ele>1967.6099853515625</ele></trkpt><trkpt lat="46.57287040119991" lon="7.95761032262817"><ele>1967.0599975585938</ele></trkpt><trkpt lat="46.57288040081039" lon="7.957550322171301"><ele>1966.6299743652344</ele></trkpt><trkpt lat="46.572870400734246" lon="7.957500322256237"><ele>1966.0399780273438</ele></trkpt><trkpt lat="46.5728604006581" lon="7.957430322188884"><ele>1965.1499938964844</ele></trkpt><trkpt lat="46.57284040050581" lon="7.957390321884304"><ele>1964.7999877929688</ele></trkpt><trkpt lat="46.57279040059075" lon="7.957310322206467"><ele>1964.22998046875</ele></trkpt><trkpt lat="46.5727804005146" lon="7.957280321978033"><ele>1964.219970703125</ele></trkpt><trkpt lat="46.57277040043846" lon="7.957240322139114"><ele>1964.1899719238281</ele></trkpt><trkpt lat="46.57277040043846" lon="7.957210321910679"><ele>1964.0799865722656</ele></trkpt><trkpt lat="46.57276040036231" lon="7.957120321691036"><ele>1963.219970703125</ele></trkpt><trkpt lat="46.57275040028617" lon="7.957070321775973"><ele>1962.7899780273438</ele></trkpt><trkpt lat="46.57273040013388" lon="7.957030321471393"><ele>1962.4499816894531</ele></trkpt><trkpt lat="46.57272040005773" lon="7.9570103217847645"><ele>1962.1799926757812</ele></trkpt><trkpt lat="46.57272040005773" lon="7.95698032155633"><ele>1961.9499816894531</ele></trkpt><trkpt lat="46.57271039998159" lon="7.956950321327895"><ele>1961.2999877929688</ele></trkpt><trkpt lat="46.5726903998293" lon="7.9569003214128315"><ele>1960.1199951171875</ele></trkpt><trkpt lat="46.57267039967701" lon="7.956840320955962"><ele>1959.0699768066406</ele></trkpt><trkpt lat="46.57263039937243" lon="7.9568003211170435"><ele>1957.7599792480469</ele></trkpt><trkpt lat="46.57261039922014" lon="7.956740320660174"><ele>1956.9599914550781</ele></trkpt><trkpt lat="46.57258039852604" lon="7.956680320668966"><ele>1955.4599914550781</ele></trkpt><trkpt lat="46.5725703984499" lon="7.956620320212096"><ele>1953.97998046875</ele></trkpt><trkpt lat="46.57256039837375" lon="7.9565803203731775"><ele>1953.3399963378906</ele></trkpt><trkpt lat="46.57256039790809" lon="7.956530319992453"><ele>1952.3799743652344</ele></trkpt><trkpt lat="46.57256039790809" lon="7.956450319848955"><ele>1950.5599975585938</ele></trkpt><trkpt lat="46.57254039729014" lon="7.9563703197054565"><ele>1948.9099731445312</ele></trkpt><trkpt lat="46.57252039713785" lon="7.956350319553167"><ele>1948.1699829101562</ele></trkpt><trkpt lat="46.57250039698556" lon="7.956320319324732"><ele>1947.1999816894531</ele></trkpt><trkpt lat="46.572490396909416" lon="7.956280319020152"><ele>1946.1999816894531</ele></trkpt><trkpt lat="46.572470396757126" lon="7.956190318800509"><ele>1945.4199829101562</ele></trkpt><trkpt lat="46.572450396604836" lon="7.956140318885446"><ele>1944.989990234375</ele></trkpt><trkpt lat="46.57244039652869" lon="7.956090318970382"><ele>1944.6899719238281</ele></trkpt><trkpt lat="46.572430396452546" lon="7.956030318979174"><ele>1944.3099975585938</ele></trkpt><trkpt lat="46.5724203963764" lon="7.955980318598449"><ele>1943.7899780273438</ele></trkpt><trkpt lat="46.57240039622411" lon="7.955880318302661"><ele>1942.8899841308594</ele></trkpt><trkpt lat="46.572390396147966" lon="7.955830318387598"><ele>1942.489990234375</ele></trkpt><trkpt lat="46.57237039599568" lon="7.9557703183963895"><ele>1941.6799926757812</ele></trkpt><trkpt lat="46.57231039553881" lon="7.955670318100601"><ele>1939.3999938964844</ele></trkpt><trkpt lat="46.57231039553881" lon="7.955650317948312"><ele>1939.0799865722656</ele></trkpt><trkpt lat="46.57231039553881" lon="7.955610317643732"><ele>1938.6799926757812</ele></trkpt><trkpt lat="46.572310395073146" lon="7.9555603177286685"><ele>1938.0299987792969</ele></trkpt><trkpt lat="46.572290394920856" lon="7.955520317424089"><ele>1937.0</ele></trkpt><trkpt lat="46.572270394768566" lon="7.955490317195654"><ele>1936.1799926757812</ele></trkpt><trkpt lat="46.572250394616276" lon="7.955360317137092"><ele>1934.0799865722656</ele></trkpt><trkpt lat="46.57224039407447" lon="7.955310316756368"><ele>1933.1799926757812</ele></trkpt><trkpt lat="46.572230393998325" lon="7.955270316917449"><ele>1931.9399719238281</ele></trkpt><trkpt lat="46.57220039376989" lon="7.95519031630829"><ele>1929.8299865722656</ele></trkpt><trkpt lat="46.57218039315194" lon="7.9551303163170815"><ele>1928.2999877929688</ele></trkpt><trkpt lat="46.572170393075794" lon="7.955070315860212"><ele>1926.9199829101562</ele></trkpt><trkpt lat="46.572170393075794" lon="7.955050315707922"><ele>1926.5999755859375</ele></trkpt><trkpt lat="46.57219039276242" lon="7.9550203159451485"><ele>1925.719970703125</ele></trkpt><trkpt lat="46.57220039283857" lon="7.954980315640569"><ele>1925.1199951171875</ele></trkpt><trkpt lat="46.57218039268628" lon="7.954950315412134"><ele>1924.4499816894531</ele></trkpt><trkpt lat="46.57216039253399" lon="7.954890315420926"><ele>1923.3099975585938</ele></trkpt><trkpt lat="46.57215039152652" lon="7.954770314972848"><ele>1919.8099975585938</ele></trkpt><trkpt lat="46.572140391450375" lon="7.954700314439833"><ele>1918.239990234375</ele></trkpt><trkpt lat="46.57213039137423" lon="7.954680314287543"><ele>1917.5099792480469</ele></trkpt><trkpt lat="46.572100390680134" lon="7.954660314135253"><ele>1916.2799987792969</ele></trkpt><trkpt lat="46.57209039106965" lon="7.954640313982964"><ele>1915.9499816894531</ele></trkpt><trkpt lat="46.57209039060399" lon="7.954620314296335"><ele>1915.719970703125</ele></trkpt><trkpt lat="46.572100390680134" lon="7.9545903140679"><ele>1915.2799987792969</ele></trkpt><trkpt lat="46.57209039060399" lon="7.95457031391561"><ele>1915.0699768066406</ele></trkpt><trkpt lat="46.572020390536636" lon="7.954500313848257"><ele>1914.6199951171875</ele></trkpt><trkpt lat="46.572000390384346" lon="7.954430313780904"><ele>1914.1499938964844</ele></trkpt><trkpt lat="46.571980390232056" lon="7.954320313874632"><ele>1913.5099792480469</ele></trkpt><trkpt lat="46.57196039007977" lon="7.954240313731134"><ele>1912.1399841308594</ele></trkpt><trkpt lat="46.57194038992748" lon="7.954150313511491"><ele>1911.1099853515625</ele></trkpt><trkpt lat="46.57193038985133" lon="7.954120313283056"><ele>1910.5499877929688</ele></trkpt><trkpt lat="46.57191038969904" lon="7.954070312902331"><ele>1909.7599792480469</ele></trkpt><trkpt lat="46.57188038947061" lon="7.954030313063413"><ele>1909.5199890136719</ele></trkpt><trkpt lat="46.57186038931832" lon="7.9539903132244945"><ele>1909.0099792480469</ele></trkpt><trkpt lat="46.57180038932711" lon="7.953860312700272"><ele>1907.8499755859375</ele></trkpt><trkpt lat="46.57178038917482" lon="7.953760312870145"><ele>1907.1699829101562</ele></trkpt><trkpt lat="46.571750388946384" lon="7.953670312650502"><ele>1907.3799743652344</ele></trkpt><trkpt lat="46.5717403893359" lon="7.95358031289652"><ele>1907.5699768066406</ele></trkpt><trkpt lat="46.571730389259756" lon="7.953480312600732"><ele>1907.969970703125</ele></trkpt><trkpt lat="46.571730389259756" lon="7.95341031299904"><ele>1908.3599853515625</ele></trkpt><trkpt lat="46.571730389259756" lon="7.953350313007832"><ele>1908.3799743652344</ele></trkpt><trkpt lat="46.57170038949698" lon="7.9532503127120435"><ele>1908.3199768066406</ele></trkpt><trkpt lat="46.57170038949698" lon="7.95318031264469"><ele>1908.4099731445312</ele></trkpt><trkpt lat="46.57170038949698" lon="7.953130312729627"><ele>1908.3999938964844</ele></trkpt><trkpt lat="46.57169038942084" lon="7.9530803128145635"><ele>1908.219970703125</ele></trkpt><trkpt lat="46.57169038942084" lon="7.953060312662274"><ele>1907.969970703125</ele></trkpt><trkpt lat="46.57169038942084" lon="7.9530303128995"><ele>1907.72998046875</ele></trkpt><trkpt lat="46.571690388955176" lon="7.95299031259492"><ele>1907.1899719238281</ele></trkpt><trkpt lat="46.57168038887903" lon="7.9529703124426305"><ele>1906.8599853515625</ele></trkpt><trkpt lat="46.571670388802886" lon="7.952940312679857"><ele>1906.6199951171875</ele></trkpt><trkpt lat="46.571670388802886" lon="7.952910312451422"><ele>1906.22998046875</ele></trkpt><trkpt lat="46.571670388802886" lon="7.952860312536359"><ele>1905.739990234375</ele></trkpt><trkpt lat="46.57166038872674" lon="7.952840312384069"><ele>1905.3499755859375</ele></trkpt><trkpt lat="46.57166038872674" lon="7.952820312231779"><ele>1905.1499938964844</ele></trkpt><trkpt lat="46.57166038872674" lon="7.952790312469006"><ele>1904.8599853515625</ele></trkpt><trkpt lat="46.57168038794771" lon="7.952610311564058"><ele>1901.2799987792969</ele></trkpt><trkpt lat="46.57166038779542" lon="7.9525803118012846"><ele>1900.5999755859375</ele></trkpt><trkpt lat="46.571650387719274" lon="7.95257031172514"><ele>1900.3999938964844</ele></trkpt><trkpt lat="46.571650387719274" lon="7.95255031157285"><ele>1900.2899780273438</ele></trkpt><trkpt lat="46.571650387719274" lon="7.95251031126827"><ele>1899.8399963378906</ele></trkpt><trkpt lat="46.571650387719274" lon="7.9524803115054965"><ele>1899.22998046875</ele></trkpt><trkpt lat="46.57164038717747" lon="7.952440311200917"><ele>1898.6999816894531</ele></trkpt><trkpt lat="46.57164038717747" lon="7.952390311285853"><ele>1898.4499816894531</ele></trkpt><trkpt lat="46.57163038710132" lon="7.9523203112185"><ele>1897.9599914550781</ele></trkpt><trkpt lat="46.57162038702518" lon="7.95228031091392"><ele>1897.6099853515625</ele></trkpt><trkpt lat="46.57162038702518" lon="7.952250311151147"><ele>1897.5499877929688</ele></trkpt><trkpt lat="46.57162038702518" lon="7.9522003112360835"><ele>1897.7799987792969</ele></trkpt><trkpt lat="46.57161038694903" lon="7.952160310931504"><ele>1897.6099853515625</ele></trkpt><trkpt lat="46.57162038702518" lon="7.952060311101377"><ele>1897.3999938964844</ele></trkpt><trkpt lat="46.57164038717747" lon="7.951990311034024"><ele>1897.0299987792969</ele></trkpt><trkpt lat="46.57164038717747" lon="7.951960310805589"><ele>1896.72998046875</ele></trkpt><trkpt lat="46.57165038678795" lon="7.95194031111896"><ele>1896.3399963378906</ele></trkpt><trkpt lat="46.571640386711806" lon="7.951900310814381"><ele>1895.8299865722656</ele></trkpt><trkpt lat="46.57165038678795" lon="7.951880310662091"><ele>1895.6099853515625</ele></trkpt><trkpt lat="46.57165038678795" lon="7.951860310509801"><ele>1895.0</ele></trkpt><trkpt lat="46.57165038632229" lon="7.951780310366303"><ele>1892.8999938964844</ele></trkpt><trkpt lat="46.57166038593277" lon="7.951750310137868"><ele>1892.1999816894531</ele></trkpt><trkpt lat="46.5716803856194" lon="7.951700309757143"><ele>1890.4199829101562</ele></trkpt><trkpt lat="46.57169038569555" lon="7.95167030999437"><ele>1889.6399841308594</ele></trkpt><trkpt lat="46.571690385229886" lon="7.951640309765935"><ele>1888.8599853515625</ele></trkpt><trkpt lat="46.57170038530603" lon="7.951620309613645"><ele>1888.2999877929688</ele></trkpt><trkpt lat="46.57172038499266" lon="7.951600309461355"><ele>1887.6699829101562</ele></trkpt><trkpt lat="46.571710384916514" lon="7.951580309309065"><ele>1887.3799743652344</ele></trkpt><trkpt lat="46.571670385077596" lon="7.9515503090806305"><ele>1886.3999938964844</ele></trkpt><trkpt lat="46.571670385077596" lon="7.951540309004486"><ele>1886.0399780273438</ele></trkpt><trkpt lat="46.57168038468808" lon="7.951520309317857"><ele>1885.6499938964844</ele></trkpt><trkpt lat="46.57170038484037" lon="7.951500309165567"><ele>1884.7699890136719</ele></trkpt><trkpt lat="46.57170038437471" lon="7.951470308937132"><ele>1883.989990234375</ele></trkpt><trkpt lat="46.57170038437471" lon="7.951430308632553"><ele>1882.97998046875</ele></trkpt><trkpt lat="46.57170038390905" lon="7.951390308793634"><ele>1881.9599914550781</ele></trkpt><trkpt lat="46.5716903838329" lon="7.9513403084129095"><ele>1881.0399780273438</ele></trkpt><trkpt lat="46.57167038368061" lon="7.951290308032185"><ele>1879.8999938964844</ele></trkpt><trkpt lat="46.57166038360447" lon="7.951220307964832"><ele>1878.7699890136719</ele></trkpt><trkpt lat="46.57165038306266" lon="7.951160307973623"><ele>1877.7799987792969</ele></trkpt><trkpt lat="46.57165038306266" lon="7.951110307592899"><ele>1877.0499877929688</ele></trkpt><trkpt lat="46.571660382673144" lon="7.951040307525545"><ele>1875.6399841308594</ele></trkpt><trkpt lat="46.571660382673144" lon="7.951010307297111"><ele>1875.1599731445312</ele></trkpt><trkpt lat="46.571660382673144" lon="7.950970307458192"><ele>1874.2599792480469</ele></trkpt><trkpt lat="46.571650382597" lon="7.950960307382047"><ele>1873.6399841308594</ele></trkpt><trkpt lat="46.57163038244471" lon="7.950940307229757"><ele>1873.5</ele></trkpt><trkpt lat="46.57163038244471" lon="7.950920307077467"><ele>1873.0199890136719</ele></trkpt><trkpt lat="46.57163038197905" lon="7.950870306696743"><ele>1871.4499816894531</ele></trkpt><trkpt lat="46.57162038143724" lon="7.950820306781679"><ele>1870.0</ele></trkpt><trkpt lat="46.57162038143724" lon="7.9507803064771"><ele>1869.1699829101562</ele></trkpt><trkpt lat="46.5716103813611" lon="7.950750306248665"><ele>1868.75</ele></trkpt><trkpt lat="46.57159038120881" lon="7.950720306485891"><ele>1868.1399841308594</ele></trkpt><trkpt lat="46.57157038105652" lon="7.950670306105167"><ele>1867.25</ele></trkpt><trkpt lat="46.57156038098037" lon="7.950630306266248"><ele>1866.75</ele></trkpt><trkpt lat="46.57154038082808" lon="7.95055030612275"><ele>1866.0</ele></trkpt><trkpt lat="46.57152038067579" lon="7.950460305903107"><ele>1865.3299865722656</ele></trkpt><trkpt lat="46.57153038075194" lon="7.950370305683464"><ele>1864.8799743652344</ele></trkpt><trkpt lat="46.57149038044736" lon="7.950200305785984"><ele>1864.5999755859375</ele></trkpt><trkpt lat="46.57147038076073" lon="7.950120305642486"><ele>1864.9199829101562</ele></trkpt><trkpt lat="46.57143038045615" lon="7.950100305955857"><ele>1865.0599975585938</ele></trkpt><trkpt lat="46.5713703809306" lon="7.950080305803567"><ele>1865.5299987792969</ele></trkpt><trkpt lat="46.57135038077831" lon="7.950050306040794"><ele>1865.3599853515625</ele></trkpt><trkpt lat="46.57131038047373" lon="7.950050305575132"><ele>1863.9299926757812</ele></trkpt><trkpt lat="46.5712803802453" lon="7.950080305337906"><ele>1862.6999816894531</ele></trkpt><trkpt lat="46.57126037962735" lon="7.950170305091888"><ele>1860.5799865722656</ele></trkpt><trkpt lat="46.571240379009396" lon="7.950280304532498"><ele>1857.1999816894531</ele></trkpt><trkpt lat="46.571220378391445" lon="7.950370303820819"><ele>1853.6799926757812</ele></trkpt><trkpt lat="46.5712103783153" lon="7.950460304040462"><ele>1852.5399780273438</ele></trkpt><trkpt lat="46.571180378086865" lon="7.950590303633362"><ele>1851.0499877929688</ele></trkpt><trkpt lat="46.57115037739277" lon="7.950650303158909"><ele>1848.6699829101562</ele></trkpt><trkpt lat="46.571120377164334" lon="7.950730302836746"><ele>1847.75</ele></trkpt><trkpt lat="46.5710903769359" lon="7.950790302827954"><ele>1845.8599853515625</ele></trkpt><trkpt lat="46.57105037663132" lon="7.950840302277356"><ele>1843.6899719238281</ele></trkpt><trkpt lat="46.57103037601337" lon="7.95089030219242"><ele>1842.3199768066406</ele></trkpt><trkpt lat="46.57099037570879" lon="7.951010301709175"><ele>1840.4099731445312</ele></trkpt><trkpt lat="46.570980375632644" lon="7.951030301861465"><ele>1839.9299926757812</ele></trkpt><trkpt lat="46.570960375480354" lon="7.951030301861465"><ele>1839.3099975585938</ele></trkpt><trkpt lat="46.57095037540421" lon="7.95102030178532"><ele>1839.0499877929688</ele></trkpt><trkpt lat="46.57093037525192" lon="7.95100030163303"><ele>1838.5899963378906</ele></trkpt><trkpt lat="46.570900375023484" lon="7.950890301261097"><ele>1837.4199829101562</ele></trkpt><trkpt lat="46.570880374871194" lon="7.950800301507115"><ele>1836.5999755859375</ele></trkpt><trkpt lat="46.570880374871194" lon="7.950710301287472"><ele>1836.0799865722656</ele></trkpt><trkpt lat="46.570900375023484" lon="7.9506003013812006"><ele>1836.1799926757812</ele></trkpt><trkpt lat="46.570900375023484" lon="7.950520301237702"><ele>1836.0899963378906</ele></trkpt><trkpt lat="46.570880374871194" lon="7.950410301331431"><ele>1836.0499877929688</ele></trkpt><trkpt lat="46.57083037495613" lon="7.950300300959498"><ele>1835.9299926757812</ele></trkpt><trkpt lat="46.57081037480384" lon="7.950170300900936"><ele>1835.6799926757812</ele></trkpt><trkpt lat="46.570800374727696" lon="7.950010301079601"><ele>1835.6699829101562</ele></trkpt><trkpt lat="46.570800374727696" lon="7.949630300980061"><ele>1836.3399963378906</ele></trkpt><trkpt lat="46.57081037480384" lon="7.949570301454514"><ele>1836.6899719238281</ele></trkpt><trkpt lat="46.570840375032276" lon="7.949500301387161"><ele>1837.47998046875</ele></trkpt><trkpt lat="46.57085037510842" lon="7.949420301243663"><ele>1837.4299926757812</ele></trkpt><trkpt lat="46.57089037494734" lon="7.949260301422328"><ele>1837.4499816894531</ele></trkpt><trkpt lat="46.570920375175774" lon="7.949200301431119"><ele>1837.4299926757812</ele></trkpt><trkpt lat="46.57099037524313" lon="7.949130301363766"><ele>1838.3799743652344</ele></trkpt><trkpt lat="46.57108037546277" lon="7.949070301838219"><ele>1839.7999877929688</ele></trkpt><trkpt lat="46.57112037576735" lon="7.949050301685929"><ele>1840.2599792480469</ele></trkpt><trkpt lat="46.57114037591964" lon="7.949040302075446"><ele>1840.6499938964844</ele></trkpt><trkpt lat="46.57123037567362" lon="7.949090301524848"><ele>1839.219970703125</ele></trkpt><trkpt lat="46.571320375427604" lon="7.949050301220268"><ele>1837.6699829101562</ele></trkpt><trkpt lat="46.57138037495315" lon="7.94901030138135"><ele>1836.6399841308594</ele></trkpt><trkpt lat="46.57146037463099" lon="7.948930301237851"><ele>1835.469970703125</ele></trkpt><trkpt lat="46.57153037469834" lon="7.948860300704837"><ele>1834.6599731445312</ele></trkpt><trkpt lat="46.57160037430003" lon="7.94876030087471"><ele>1834.1899719238281</ele></trkpt><trkpt lat="46.571670374367386" lon="7.948670300655067"><ele>1834.0999755859375</ele></trkpt><trkpt lat="46.57174037443474" lon="7.948600300587714"><ele>1834.0199890136719</ele></trkpt><trkpt lat="46.57176037458703" lon="7.94857030082494"><ele>1834.1599731445312</ele></trkpt><trkpt lat="46.57178037473932" lon="7.94855030067265"><ele>1834.469970703125</ele></trkpt><trkpt lat="46.57181037450209" lon="7.948540301062167"><ele>1834.9499816894531</ele></trkpt><trkpt lat="46.57185037480667" lon="7.948550301138312"><ele>1835.1699829101562</ele></trkpt><trkpt lat="46.571880374569446" lon="7.94859030097723"><ele>1835.1999816894531</ele></trkpt><trkpt lat="46.571920374874026" lon="7.948670301120728"><ele>1834.8999938964844</ele></trkpt><trkpt lat="46.5719503746368" lon="7.94876030087471"><ele>1834.3399963378906</ele></trkpt><trkpt lat="46.57199037447572" lon="7.948870300780982"><ele>1833.25</ele></trkpt><trkpt lat="46.572030374314636" lon="7.9489803006872535"><ele>1832.0099792480469</ele></trkpt><trkpt lat="46.57208037376404" lon="7.949090300127864"><ele>1831.1899719238281</ele></trkpt><trkpt lat="46.572140373755246" lon="7.949180300347507"><ele>1830.7599792480469</ele></trkpt><trkpt lat="46.572290373034775" lon="7.949360299855471"><ele>1827.5299987792969</ele></trkpt><trkpt lat="46.57232037326321" lon="7.949410299770534"><ele>1826.5799865722656</ele></trkpt><trkpt lat="46.57242037309334" lon="7.949560299515724"><ele>1826.8099975585938</ele></trkpt><trkpt lat="46.572500373236835" lon="7.9497202998027205"><ele>1826.8299865722656</ele></trkpt><trkpt lat="46.57257037283853" lon="7.949840299785137"><ele>1826.5999755859375</ele></trkpt><trkpt lat="46.57268037321046" lon="7.950090299826115"><ele>1826.5799865722656</ele></trkpt><trkpt lat="46.57272037304938" lon="7.950050299521536"><ele>1826.2999877929688</ele></trkpt><trkpt lat="46.57275037281215" lon="7.950030299369246"><ele>1826.1999816894531</ele></trkpt><trkpt lat="46.572800372727215" lon="7.950000299606472"><ele>1826.0799865722656</ele></trkpt><trkpt lat="46.57288037287071" lon="7.949980299454182"><ele>1826.2099914550781</ele></trkpt><trkpt lat="46.5729803731665" lon="7.949950299691409"><ele>1826.25</ele></trkpt><trkpt lat="46.57315037259832" lon="7.949860299471766"><ele>1824.6299743652344</ele></trkpt><trkpt lat="46.57322037266567" lon="7.949820299167186"><ele>1824.7699890136719</ele></trkpt><trkpt lat="46.57329037273303" lon="7.949770299252123"><ele>1825.4199829101562</ele></trkpt><trkpt lat="46.57332037296146" lon="7.949730299413204"><ele>1826.1999816894531</ele></trkpt><trkpt lat="46.573350373189896" lon="7.949690299574286"><ele>1826.97998046875</ele></trkpt><trkpt lat="46.573370373342186" lon="7.949650299735367"><ele>1827.5899963378906</ele></trkpt><trkpt lat="46.57338037341833" lon="7.949600299820304"><ele>1828.1699829101562</ele></trkpt><trkpt lat="46.573390373494476" lon="7.949540299829096"><ele>1828.8199768066406</ele></trkpt><trkpt lat="46.573390373494476" lon="7.949480300303549"><ele>1829.3699951171875</ele></trkpt><trkpt lat="46.57338037388399" lon="7.9493903000839055"><ele>1830.0599975585938</ele></trkpt><trkpt lat="46.573320373892784" lon="7.949130300432444"><ele>1831.0699768066406</ele></trkpt><trkpt lat="46.573300374206156" lon="7.949010300450027"><ele>1832.8599853515625</ele></trkpt><trkpt lat="46.573300374206156" lon="7.948960300534964"><ele>1833.3599853515625</ele></trkpt><trkpt lat="46.5733103742823" lon="7.9489103006199"><ele>1833.8199768066406</ele></trkpt><trkpt lat="46.57333037443459" lon="7.948870300780982"><ele>1834.25</ele></trkpt><trkpt lat="46.573360374663025" lon="7.948840301018208"><ele>1834.6999816894531</ele></trkpt><trkpt lat="46.57339037489146" lon="7.948820300865918"><ele>1835.1199951171875</ele></trkpt><trkpt lat="46.573590375483036" lon="7.948710301425308"><ele>1838.0799865722656</ele></trkpt><trkpt lat="46.57366037555039" lon="7.948660301510245"><ele>1838.8899841308594</ele></trkpt><trkpt lat="46.57368037570268" lon="7.948630301747471"><ele>1839.239990234375</ele></trkpt><trkpt lat="46.57370037585497" lon="7.948600301519036"><ele>1839.5999755859375</ele></trkpt><trkpt lat="46.57372037600726" lon="7.948540301993489"><ele>1840.2099914550781</ele></trkpt><trkpt lat="46.573730376083404" lon="7.948460301849991"><ele>1840.9299926757812</ele></trkpt><trkpt lat="46.573750376235694" lon="7.948260302189738"><ele>1842.8799743652344</ele></trkpt><trkpt lat="46.573770376853645" lon="7.948040302377194"><ele>1844.8299865722656</ele></trkpt><trkpt lat="46.57384037738666" lon="7.947740302886814"><ele>1847.969970703125</ele></trkpt><trkpt lat="46.57386037753895" lon="7.947650303132832"><ele>1848.9199829101562</ele></trkpt><trkpt lat="46.573910377919674" lon="7.947500303387642"><ele>1850.3999938964844</ele></trkpt><trkpt lat="46.57397037837654" lon="7.947310303803533"><ele>1852.239990234375</ele></trkpt><trkpt lat="46.57400037860498" lon="7.947150303982198"><ele>1853.4499816894531</ele></trkpt><trkpt lat="46.57406037906185" lon="7.946820304263383"><ele>1855.4499816894531</ele></trkpt><trkpt lat="46.574100378900766" lon="7.946570304222405"><ele>1856.6699829101562</ele></trkpt><trkpt lat="46.57415037928149" lon="7.946380304172635"><ele>1857.25</ele></trkpt><trkpt lat="46.574220379348844" lon="7.946160304360092"><ele>1857.3599853515625</ele></trkpt><trkpt lat="46.574240379501134" lon="7.946120304521173"><ele>1857.6499938964844</ele></trkpt><trkpt lat="46.57426037918776" lon="7.946100304368883"><ele>1857.7899780273438</ele></trkpt><trkpt lat="46.57428037934005" lon="7.946090304292738"><ele>1857.8699951171875</ele></trkpt><trkpt lat="46.57431037956849" lon="7.9460903047584"><ele>1858.1199951171875</ele></trkpt><trkpt lat="46.57432037964463" lon="7.946170304436237"><ele>1858.8499755859375</ele></trkpt><trkpt lat="46.57434037979692" lon="7.946380305103958"><ele>1860.5899963378906</ele></trkpt><trkpt lat="46.57434037979692" lon="7.946460305247456"><ele>1861.239990234375</ele></trkpt><trkpt lat="46.57435038033873" lon="7.946530305314809"><ele>1861.8499755859375</ele></trkpt><trkpt lat="46.57437038049102" lon="7.9468503054231405"><ele>1864.1999816894531</ele></trkpt><trkpt lat="46.574360380880535" lon="7.947220305912197"><ele>1866.3999938964844</ele></trkpt><trkpt lat="46.574360381346196" lon="7.94729030597955"><ele>1866.8199768066406</ele></trkpt><trkpt lat="46.574360381346196" lon="7.947380306199193"><ele>1867.3999938964844</ele></trkpt><trkpt lat="46.57437038142234" lon="7.947460306342691"><ele>1867.8999938964844</ele></trkpt><trkpt lat="46.574380381498486" lon="7.94750030618161"><ele>1868.2999877929688</ele></trkpt><trkpt lat="46.574400381650776" lon="7.947540306020528"><ele>1868.3699951171875</ele></trkpt><trkpt lat="46.574400381650776" lon="7.947540306020528"><ele>1868.3899841308594</ele></trkpt><trkpt lat="46.57443038141355" lon="7.947560306172818"><ele>1868.719970703125</ele></trkpt><trkpt lat="46.574440381489694" lon="7.947560306172818"><ele>1868.8099975585938</ele></trkpt><trkpt lat="46.574460381641984" lon="7.947560306172818"><ele>1868.8799743652344</ele></trkpt><trkpt lat="46.574480381794274" lon="7.947550306096673"><ele>1868.9499816894531</ele></trkpt><trkpt lat="46.574480381794274" lon="7.947540306486189"><ele>1868.9499816894531</ele></trkpt><trkpt lat="46.57449038140476" lon="7.947530306410044"><ele>1868.9599914550781</ele></trkpt><trkpt lat="46.57451038155705" lon="7.94750030618161"><ele>1869.0799865722656</ele></trkpt><trkpt lat="46.57451038155705" lon="7.94750030618161"><ele>1869.0799865722656</ele></trkpt><trkpt lat="46.57452038163319" lon="7.947400306351483"><ele>1869.3399963378906</ele></trkpt><trkpt lat="46.57454038178548" lon="7.947210306301713"><ele>1870.0999755859375</ele></trkpt><trkpt lat="46.57456038193777" lon="7.947100306395441"><ele>1870.0999755859375</ele></trkpt><trkpt lat="46.57460038177669" lon="7.94699030648917"><ele>1870.5999755859375</ele></trkpt><trkpt lat="46.574630382005125" lon="7.946880306582898"><ele>1870.5499877929688</ele></trkpt><trkpt lat="46.57464038208127" lon="7.946850306820124"><ele>1870.7999877929688</ele></trkpt><trkpt lat="46.57473038230091" lon="7.946640306618065"><ele>1871.3999938964844</ele></trkpt><trkpt lat="46.57475038198754" lon="7.946580306626856"><ele>1871.2899780273438</ele></trkpt><trkpt lat="46.57476038206369" lon="7.946540306787938"><ele>1871.3699951171875</ele></trkpt><trkpt lat="46.57478038221598" lon="7.94644030649215"><ele>1871.3799743652344</ele></trkpt><trkpt lat="46.57478038221598" lon="7.946320306509733"><ele>1871.5299987792969</ele></trkpt><trkpt lat="46.57475038198754" lon="7.946110306773335"><ele>1871.8699951171875</ele></trkpt><trkpt lat="46.57475038198754" lon="7.946060306858271"><ele>1871.8799743652344</ele></trkpt><trkpt lat="46.57475038198754" lon="7.946000306867063"><ele>1871.8899841308594</ele></trkpt><trkpt lat="46.57477038213983" lon="7.945880306884646"><ele>1871.9599914550781</ele></trkpt><trkpt lat="46.574840382207185" lon="7.9455203069373965"><ele>1872.3699951171875</ele></trkpt><trkpt lat="46.57487038243562" lon="7.945320306811482"><ele>1872.6999816894531</ele></trkpt><trkpt lat="46.574880382511765" lon="7.945270306896418"><ele>1872.7899780273438</ele></trkpt><trkpt lat="46.574880382511765" lon="7.945220306981355"><ele>1872.8799743652344</ele></trkpt><trkpt lat="46.574900382664055" lon="7.944960306864232"><ele>1873.47998046875</ele></trkpt><trkpt lat="46.574920382816344" lon="7.944780306890607"><ele>1874.0999755859375</ele></trkpt><trkpt lat="46.57495038257912" lon="7.944540306925774"><ele>1874.3999938964844</ele></trkpt><trkpt lat="46.57502038264647" lon="7.944270307198167"><ele>1874.5999755859375</ele></trkpt><trkpt lat="46.575030382722616" lon="7.944230306893587"><ele>1874.6799926757812</ele></trkpt><trkpt lat="46.57515038270503" lon="7.943890307098627"><ele>1875.1499938964844</ele></trkpt><trkpt lat="46.57519038300961" lon="7.9437903072685"><ele>1875.5099792480469</ele></trkpt><trkpt lat="46.5752103831619" lon="7.943740307353437"><ele>1875.6999816894531</ele></trkpt><trkpt lat="46.575260383076966" lon="7.94362030737102"><ele>1876.0399780273438</ele></trkpt><trkpt lat="46.57537038298324" lon="7.943370307330042"><ele>1876.6999816894531</ele></trkpt><trkpt lat="46.57550038350746" lon="7.943140307441354"><ele>1877.9399719238281</ele></trkpt><trkpt lat="46.57554038334638" lon="7.943070307839662"><ele>1878.3199768066406</ele></trkpt><trkpt lat="46.57560038380325" lon="7.9429403077811"><ele>1879.0599975585938</ele></trkpt><trkpt lat="46.57564038364217" lon="7.9428403079509735"><ele>1879.5799865722656</ele></trkpt><trkpt lat="46.57566038379446" lon="7.942760307807475"><ele>1879.9599914550781</ele></trkpt><trkpt lat="46.57568038394675" lon="7.942640307825059"><ele>1880.4599914550781</ele></trkpt><trkpt lat="46.57570038409904" lon="7.942530307918787"><ele>1880.8799743652344</ele></trkpt><trkpt lat="46.57571038417518" lon="7.942420308012515"><ele>1881.1599731445312</ele></trkpt><trkpt lat="46.57573038432747" lon="7.942200308199972"><ele>1881.8199768066406</ele></trkpt><trkpt lat="46.575740384403616" lon="7.942170307971537"><ele>1881.9199829101562</ele></trkpt><trkpt lat="46.575740384403616" lon="7.9421603083610535"><ele>1881.7999877929688</ele></trkpt><trkpt lat="46.575740384403616" lon="7.9421503082849085"><ele>1881.8399963378906</ele></trkpt><trkpt lat="46.5757503840141" lon="7.942020308226347"><ele>1881.0</ele></trkpt><trkpt lat="46.575760384090245" lon="7.941980307921767"><ele>1880.5</ele></trkpt><trkpt lat="46.575760384090245" lon="7.941980307921767"><ele>1880.6299743652344</ele></trkpt><trkpt lat="46.575760384090245" lon="7.941970307845622"><ele>1880.6099853515625</ele></trkpt><trkpt lat="46.57577038370073" lon="7.941940308082849"><ele>1880.2999877929688</ele></trkpt><trkpt lat="46.57580038392916" lon="7.941920307930559"><ele>1880.6999816894531</ele></trkpt><trkpt lat="46.57590038375929" lon="7.941850307863206"><ele>1880.5999755859375</ele></trkpt><trkpt lat="46.575930383987725" lon="7.941830308176577"><ele>1880.7999877929688</ele></trkpt><trkpt lat="46.575950384140015" lon="7.941790307871997"><ele>1881.5</ele></trkpt><trkpt lat="46.57596038421616" lon="7.941740307956934"><ele>1881.7999877929688</ele></trkpt><trkpt lat="46.57596038421616" lon="7.941690308041871"><ele>1882.3599853515625</ele></trkpt><trkpt lat="46.57596038421616" lon="7.941670308355242"><ele>1882.6999816894531</ele></trkpt><trkpt lat="46.575950384605676" lon="7.941640308126807"><ele>1882.7699890136719</ele></trkpt><trkpt lat="46.57594038452953" lon="7.941570308525115"><ele>1883.1699829101562</ele></trkpt><trkpt lat="46.57589038461447" lon="7.941430308390409"><ele>1883.8999938964844</ele></trkpt><trkpt lat="46.57583038462326" lon="7.941290308255702"><ele>1883.8999938964844</ele></trkpt><trkpt lat="46.57581038447097" lon="7.941230308264494"><ele>1883.6299743652344</ele></trkpt><trkpt lat="46.575780384708196" lon="7.941150308586657"><ele>1883.8999938964844</ele></trkpt><trkpt lat="46.575740384403616" lon="7.940990308299661"><ele>1883.5099792480469</ele></trkpt><trkpt lat="46.57572038471699" lon="7.940850308164954"><ele>1883.2999877929688</ele></trkpt><trkpt lat="46.57568038441241" lon="7.9407403082586825"><ele>1883.2999877929688</ele></trkpt><trkpt lat="46.57564038457349" lon="7.940680308267474"><ele>1883.0999755859375</ele></trkpt><trkpt lat="46.5756203844212" lon="7.940600308123976"><ele>1882.9499816894531</ele></trkpt><trkpt lat="46.57560038426891" lon="7.940540308132768"><ele>1882.6999816894531</ele></trkpt><trkpt lat="46.575570384506136" lon="7.940430308226496"><ele>1882.5</ele></trkpt><trkpt lat="46.575570384506136" lon="7.940350308082998"><ele>1882.5199890136719</ele></trkpt><trkpt lat="46.575570384506136" lon="7.940190308261663"><ele>1882.2699890136719</ele></trkpt><trkpt lat="46.575570384506136" lon="7.940170308109373"><ele>1882.1999816894531</ele></trkpt><trkpt lat="46.575590384192765" lon="7.9401103081181645"><ele>1882.1099853515625</ele></trkpt><trkpt lat="46.575590384192765" lon="7.94010030804202"><ele>1881.7999877929688</ele></trkpt><trkpt lat="46.575590384192765" lon="7.94010030804202"><ele>1882.0799865722656</ele></trkpt><trkpt lat="46.57560038426891" lon="7.940050308126956"><ele>1881.469970703125</ele></trkpt><trkpt lat="46.57560038426891" lon="7.940020307898521"><ele>1881.2999877929688</ele></trkpt><trkpt lat="46.57560038380325" lon="7.939920307602733"><ele>1880.47998046875</ele></trkpt><trkpt lat="46.575600382871926" lon="7.939370306674391"><ele>1874.8999938964844</ele></trkpt><trkpt lat="46.57561038294807" lon="7.939330306835473"><ele>1874.7999877929688</ele></trkpt><trkpt lat="46.5756303826347" lon="7.939310306683183"><ele>1874.8499755859375</ele></trkpt><trkpt lat="46.575640382710844" lon="7.939290306996554"><ele>1874.8999938964844</ele></trkpt><trkpt lat="46.57565038278699" lon="7.939270306844264"><ele>1874.8699951171875</ele></trkpt><trkpt lat="46.575660382863134" lon="7.939260306768119"><ele>1874.8799743652344</ele></trkpt><trkpt lat="46.575660382863134" lon="7.939250306691974"><ele>1874.8999938964844</ele></trkpt><trkpt lat="46.575680383015424" lon="7.939220306929201"><ele>1874.9199829101562</ele></trkpt><trkpt lat="46.57570038270205" lon="7.939200306776911"><ele>1874.8999938964844</ele></trkpt><trkpt lat="46.57572038285434" lon="7.939140306785703"><ele>1874.7999877929688</ele></trkpt><trkpt lat="46.57574038300663" lon="7.939050307031721"><ele>1874.7999877929688</ele></trkpt><trkpt lat="46.57574038300663" lon="7.938990307040513"><ele>1874.9199829101562</ele></trkpt><trkpt lat="46.575750382617116" lon="7.938970306888223"><ele>1874.8099975585938</ele></trkpt></trkseg></trk></gpx>