<?xml version="1.0" encoding="utf-8"?><gpx version="1.1" creator="MySchweizMobil - https://map.schweizmobil.ch/" xmlns:xsi="http://www.w3.org/2001/XMLSchema-instance" xmlns="http://www.topografix.com/GPX/1/1" xsi:schemaLocation="http://www.topografix.com/GPX/1/1 http://www.topografix.com/GPX/1/1/gpx.xsd"><metadata><name>Männlichen to Kleine Scheidegg</name><bounds minlat="46.58540042024106" minlon="7.941180363763124" maxlat="46.61321045504883" maxlon="7.9615803505294025" /></metadata><trk><name>Männlichen to Kleine Scheidegg</name><trkseg><trkpt lat="46.61321045504883" lon="7.941180363763124"><ele>2229.8799743652344</ele></trkpt><trkpt lat="46.613160455133766" lon="7.9412903636693954"><ele>2228.469970703125</ele></trkpt><trkpt lat="46.613120454363525" lon="7.941480363253504"><ele>2226.1399841308594</ele></trkpt><trkpt lat="46.61309045413509" lon="7.941740362904966"><ele>2223.3099975585938</ele></trkpt><trkpt lat="46.613060453906655" lon="7.941730362828821"><ele>2223.219970703125</ele></trkpt><trkpt lat="46.613040453754365" lon="7.941740362904966"><ele>2222.8599853515625</ele></trkpt><trkpt lat="46.613020453602076" lon="7.9417503625154495"><ele>2222.5899963378906</ele></trkpt><trkpt lat="46.61275045387447" lon="7.942050362471491"><ele>2222.029998779297</ele></trkpt><trkpt lat="46.612720453646034" lon="7.942130362614989"><ele>2222.1799926757812</ele></trkpt><trkpt lat="46.61231045331806" lon="7.9422703622840345"><ele>2220.8399963378906</ele></trkpt><trkpt lat="46.61217045318335" lon="7.942320362664759"><ele>2220.8599853515625</ele></trkpt><trkpt lat="46.61199045367539" lon="7.9423703625798225"><ele>2222.259979248047</ele></trkpt><trkpt lat="46.61171045387164" lon="7.942460362799466"><ele>2223.6299743652344</ele></trkpt><trkpt lat="46.61154045397416" lon="7.942540362942964"><ele>2223.6599731445312</ele></trkpt><trkpt lat="46.61148045398295" lon="7.942610363010317"><ele>2223.019989013672</ele></trkpt><trkpt lat="46.61140045337379" lon="7.942730362527072"><ele>2221.779998779297</ele></trkpt><trkpt lat="46.61133045330644" lon="7.942870362196118"><ele>2220.1599731445312</ele></trkpt><trkpt lat="46.61127045284957" lon="7.943020362406969"><ele>2219.3399963378906</ele></trkpt><trkpt lat="46.61121045285836" lon="7.943120362237096"><ele>2219.3199768066406</ele></trkpt><trkpt lat="46.61108045326546" lon="7.9432303621433675"><ele>2219.9099731445312</ele></trkpt><trkpt lat="46.61102045327425" lon="7.943280362524092"><ele>2219.9199829101562</ele></trkpt><trkpt lat="46.61093045305461" lon="7.9433403625153005"><ele>2219.6599731445312</ele></trkpt><trkpt lat="46.610840452834964" lon="7.943380362354219"><ele>2219.0699768066406</ele></trkpt><trkpt lat="46.61070045270026" lon="7.943450361955911"><ele>2217.739990234375</ele></trkpt><trkpt lat="46.61056045256555" lon="7.943520362023264"><ele>2217.189971923828</ele></trkpt><trkpt lat="46.61037045205012" lon="7.943620361853391"><ele>2215.239990234375</ele></trkpt><trkpt lat="46.6103304522112" lon="7.9436403615400195"><ele>2215.0</ele></trkpt><trkpt lat="46.610190452076495" lon="7.943720361217856"><ele>2214.029998779297</ele></trkpt><trkpt lat="46.61004045186564" lon="7.9438103614374995"><ele>2213.449981689453</ele></trkpt><trkpt lat="46.60980045143515" lon="7.943970361258835"><ele>2212.5999755859375</ele></trkpt><trkpt lat="46.6096504512243" lon="7.944100360851735"><ele>2210.3499755859375</ele></trkpt><trkpt lat="46.60935045033693" lon="7.94437036011368"><ele>2205.6099853515625</ele></trkpt><trkpt lat="46.609270450193435" lon="7.944450359791517"><ele>2204.3599853515625</ele></trkpt><trkpt lat="46.609210449736565" lon="7.944490359630436"><ele>2203.689971923828</ele></trkpt><trkpt lat="46.60913044959307" lon="7.944540359545499"><ele>2202.9199829101562</ele></trkpt><trkpt lat="46.609020449686795" lon="7.944600359536707"><ele>2202.2899780273438</ele></trkpt><trkpt lat="46.60890044923872" lon="7.944710359442979"><ele>2201.779998779297</ele></trkpt><trkpt lat="46.60880044940859" lon="7.944830359425396"><ele>2201.6599731445312</ele></trkpt><trkpt lat="46.608620449434966" lon="7.945010359864682"><ele>2202.5799865722656</ele></trkpt><trkpt lat="46.6085704495199" lon="7.9450403596274555"><ele>2203.1199951171875</ele></trkpt><trkpt lat="46.608530449680984" lon="7.945060359779745"><ele>2203.8999938964844</ele></trkpt><trkpt lat="46.608400450088084" lon="7.945080359932035"><ele>2204.779998779297</ele></trkpt><trkpt lat="46.60829045018181" lon="7.9450803603976965"><ele>2205.8799743652344</ele></trkpt><trkpt lat="46.60812045028433" lon="7.945100360549986"><ele>2207.029998779297</ele></trkpt><trkpt lat="46.608020450454205" lon="7.94511036016047"><ele>2206.989990234375</ele></trkpt><trkpt lat="46.60793045023456" lon="7.94515036046505"><ele>2206.6499938964844</ele></trkpt><trkpt lat="46.607890450395644" lon="7.945170360151678"><ele>2206.3199768066406</ele></trkpt><trkpt lat="46.607850450091064" lon="7.945220360066742"><ele>2206.259979248047</ele></trkpt><trkpt lat="46.607810450252146" lon="7.945290360134095"><ele>2206.6399841308594</ele></trkpt><trkpt lat="46.60777045041323" lon="7.94534036051482"><ele>2206.509979248047</ele></trkpt><trkpt lat="46.607720450498164" lon="7.945380360353738"><ele>2206.1799926757812</ele></trkpt><trkpt lat="46.607660450041294" lon="7.945440360344946"><ele>2205.8399963378906</ele></trkpt><trkpt lat="46.60763045027852" lon="7.94547036010772"><ele>2205.8499755859375</ele></trkpt><trkpt lat="46.607620450202376" lon="7.945530360098928"><ele>2205.6399841308594</ele></trkpt><trkpt lat="46.607620450202376" lon="7.945690360385925"><ele>2205.459991455078</ele></trkpt><trkpt lat="46.607620450202376" lon="7.94585036020726"><ele>2205.0999755859375</ele></trkpt><trkpt lat="46.607600450050086" lon="7.945920360274613"><ele>2204.719970703125</ele></trkpt><trkpt lat="46.607560449745506" lon="7.94602036010474"><ele>2204.4299926757812</ele></trkpt><trkpt lat="46.60744044976309" lon="7.946310359984636"><ele>2203.9099731445312</ele></trkpt><trkpt lat="46.6074204496108" lon="7.9463803600519896"><ele>2203.5599975585938</ele></trkpt><trkpt lat="46.6073404494673" lon="7.94653035979718"><ele>2202.3699951171875</ele></trkpt><trkpt lat="46.60731044970453" lon="7.946610359940678"><ele>2202.3499755859375</ele></trkpt><trkpt lat="46.60728044947609" lon="7.946710359770805"><ele>2202.25</ele></trkpt><trkpt lat="46.60725044924766" lon="7.946760359685868"><ele>2202.029998779297</ele></trkpt><trkpt lat="46.607200449332595" lon="7.946840359363705"><ele>2201.469970703125</ele></trkpt><trkpt lat="46.60714044934139" lon="7.946910359431058"><ele>2200.949981689453</ele></trkpt><trkpt lat="46.60711044911295" lon="7.946980359498411"><ele>2200.769989013672</ele></trkpt><trkpt lat="46.60707044927403" lon="7.947050359565765"><ele>2200.279998779297</ele></trkpt><trkpt lat="46.60702044889331" lon="7.947120359167457"><ele>2199.6399841308594</ele></trkpt><trkpt lat="46.60700044874102" lon="7.947160359472036"><ele>2199.439971923828</ele></trkpt><trkpt lat="46.60698044905439" lon="7.947230359073728"><ele>2199.4199829101562</ele></trkpt><trkpt lat="46.6069604489021" lon="7.9473103592172265"><ele>2199.699981689453</ele></trkpt><trkpt lat="46.60689044883475" lon="7.947470359038562"><ele>2199.209991455078</ele></trkpt><trkpt lat="46.6068804487586" lon="7.947540359105915"><ele>2198.939971923828</ele></trkpt><trkpt lat="46.6068804487586" lon="7.947640359401703"><ele>2198.9199829101562</ele></trkpt><trkpt lat="46.60687044868246" lon="7.947680359240621"><ele>2198.769989013672</ele></trkpt><trkpt lat="46.60686044860631" lon="7.94772035907954"><ele>2198.519989013672</ele></trkpt><trkpt lat="46.606820448767394" lon="7.947760358918458"><ele>2197.8699951171875</ele></trkpt><trkpt lat="46.60673044854775" lon="7.947800358757377"><ele>2196.9199829101562</ele></trkpt><trkpt lat="46.60665044840425" lon="7.9478303589858115"><ele>2196.439971923828</ele></trkpt><trkpt lat="46.606550448108464" lon="7.94785035867244"><ele>2195.6199951171875</ele></trkpt><trkpt lat="46.606490448117256" lon="7.947860358748585"><ele>2195.4299926757812</ele></trkpt><trkpt lat="46.6064204480499" lon="7.947900358587503"><ele>2195.3499755859375</ele></trkpt><trkpt lat="46.606380448210984" lon="7.947940358426422"><ele>2195.259979248047</ele></trkpt><trkpt lat="46.60635044798255" lon="7.947970358654857"><ele>2195.0399780273438</ele></trkpt><trkpt lat="46.606320447754115" lon="7.94802035856992"><ele>2194.8599853515625</ele></trkpt><trkpt lat="46.606280447915196" lon="7.94823035877198"><ele>2194.689971923828</ele></trkpt><trkpt lat="46.60626044776291" lon="7.948350358754396"><ele>2194.449981689453</ele></trkpt><trkpt lat="46.60623044800013" lon="7.948390358593315"><ele>2194.1499938964844</ele></trkpt><trkpt lat="46.60614044778049" lon="7.9485103585757315"><ele>2193.529998779297</ele></trkpt><trkpt lat="46.60606044763699" lon="7.948630358092487"><ele>2192.969970703125</ele></trkpt><trkpt lat="46.60601044725627" lon="7.948710358235985"><ele>2192.3999938964844</ele></trkpt><trkpt lat="46.605960447341204" lon="7.948760358151048"><ele>2192.0399780273438</ele></trkpt><trkpt lat="46.60581044713035" lon="7.948880358133465"><ele>2191.6799926757812</ele></trkpt><trkpt lat="46.605750447139144" lon="7.948930358048528"><ele>2191.469970703125</ele></trkpt><trkpt lat="46.605670446995646" lon="7.948980357963592"><ele>2191.0599975585938</ele></trkpt><trkpt lat="46.60560044692829" lon="7.949050358030945"><ele>2190.5399780273438</ele></trkpt><trkpt lat="46.60547044686973" lon="7.949120357632637"><ele>2189.8599853515625</ele></trkpt><trkpt lat="46.60542044695467" lon="7.949130357708782"><ele>2189.8099975585938</ele></trkpt><trkpt lat="46.60534044681117" lon="7.949100357946008"><ele>2189.509979248047</ele></trkpt><trkpt lat="46.60524044651538" lon="7.949050357565284"><ele>2189.009979248047</ele></trkpt><trkpt lat="46.60517044644803" lon="7.949050357565284"><ele>2188.439971923828</ele></trkpt><trkpt lat="46.60511044645682" lon="7.949100357480347"><ele>2187.8399963378906</ele></trkpt><trkpt lat="46.6050704466179" lon="7.9491703575477"><ele>2187.6099853515625</ele></trkpt><trkpt lat="46.60504044638947" lon="7.949300357606262"><ele>2186.8899841308594</ele></trkpt><trkpt lat="46.60502044623718" lon="7.949380357284099"><ele>2186.6799926757812</ele></trkpt><trkpt lat="46.6049804459326" lon="7.949440357275307"><ele>2186.189971923828</ele></trkpt><trkpt lat="46.604870446026325" lon="7.949560357257724"><ele>2184.8299865722656</ele></trkpt><trkpt lat="46.60480044595897" lon="7.949640356935561"><ele>2184.47998046875</ele></trkpt><trkpt lat="46.60475044557825" lon="7.949750356841832"><ele>2184.3399963378906</ele></trkpt><trkpt lat="46.604660445824265" lon="7.949900357052684"><ele>2183.8499755859375</ele></trkpt><trkpt lat="46.604640445671976" lon="7.949980356730521"><ele>2183.22998046875</ele></trkpt><trkpt lat="46.60458044568077" lon="7.950070356950164"><ele>2182.8099975585938</ele></trkpt><trkpt lat="46.604490445461124" lon="7.950170356780291"><ele>2182.189971923828</ele></trkpt><trkpt lat="46.6044404450804" lon="7.950260356534272"><ele>2181.6499938964844</ele></trkpt><trkpt lat="46.60440044524148" lon="7.950350356288254"><ele>2180.9199829101562</ele></trkpt><trkpt lat="46.604390445165336" lon="7.950450356584042"><ele>2180.509979248047</ele></trkpt><trkpt lat="46.604390444699675" lon="7.950520356185734"><ele>2179.939971923828</ele></trkpt><trkpt lat="46.604390444699675" lon="7.950570356100798"><ele>2179.469970703125</ele></trkpt><trkpt lat="46.60438044462353" lon="7.950670356396586"><ele>2179.0399780273438</ele></trkpt><trkpt lat="46.604350444395095" lon="7.950750356074423"><ele>2178.3999938964844</ele></trkpt><trkpt lat="46.60430044448003" lon="7.950840355828404"><ele>2177.709991455078</ele></trkpt><trkpt lat="46.60424044448882" lon="7.950910355895758"><ele>2177.0</ele></trkpt><trkpt lat="46.6041904441081" lon="7.950940355658531"><ele>2176.6299743652344</ele></trkpt><trkpt lat="46.60406044404954" lon="7.950990356039256"><ele>2176.5599975585938</ele></trkpt><trkpt lat="46.60400044405833" lon="7.9510003556497395"><ele>2176.0699768066406</ele></trkpt><trkpt lat="46.60394044406712" lon="7.951030355878174"><ele>2175.8999938964844</ele></trkpt><trkpt lat="46.6039004442282" lon="7.951060355640948"><ele>2175.8799743652344</ele></trkpt><trkpt lat="46.60386044392362" lon="7.951130355708301"><ele>2175.8199768066406</ele></trkpt><trkpt lat="46.603820444084704" lon="7.951200355775654"><ele>2175.529998779297</ele></trkpt><trkpt lat="46.60377044370398" lon="7.951310355681926"><ele>2175.2899780273438</ele></trkpt><trkpt lat="46.603740443941206" lon="7.9513503555208445"><ele>2175.1699829101562</ele></trkpt><trkpt lat="46.60367044387385" lon="7.951400355435908"><ele>2175.269989013672</ele></trkpt><trkpt lat="46.603610443882644" lon="7.951460355892777"><ele>2175.989990234375</ele></trkpt><trkpt lat="46.60358044411987" lon="7.951470355968922"><ele>2176.029998779297</ele></trkpt><trkpt lat="46.60354044428095" lon="7.951480355579406"><ele>2176.1399841308594</ele></trkpt><trkpt lat="46.60351044405252" lon="7.951460355892777"><ele>2176.1099853515625</ele></trkpt><trkpt lat="46.60347044374794" lon="7.951430355664343"><ele>2175.6099853515625</ele></trkpt><trkpt lat="46.603440443985164" lon="7.951420355588198"><ele>2174.97998046875</ele></trkpt><trkpt lat="46.60341044375673" lon="7.951440355274826"><ele>2174.3099975585938</ele></trkpt><trkpt lat="46.603380443528295" lon="7.951470355503261"><ele>2173.2999877929688</ele></trkpt><trkpt lat="46.60335044329986" lon="7.951530355028808"><ele>2172.009979248047</ele></trkpt><trkpt lat="46.6032704426907" lon="7.951710354536772"><ele>2169.5</ele></trkpt><trkpt lat="46.60325044253841" lon="7.9517503548413515"><ele>2169.2899780273438</ele></trkpt><trkpt lat="46.60321044269949" lon="7.951800354756415"><ele>2169.0699768066406</ele></trkpt><trkpt lat="46.60314044263214" lon="7.951860354747623"><ele>2169.519989013672</ele></trkpt><trkpt lat="46.603070442564785" lon="7.951910354662687"><ele>2169.3399963378906</ele></trkpt><trkpt lat="46.60305044287816" lon="7.9519303548149765"><ele>2169.3399963378906</ele></trkpt><trkpt lat="46.60303044272587" lon="7.951970354653895"><ele>2169.2999877929688</ele></trkpt><trkpt lat="46.60300044249743" lon="7.95200035488233"><ele>2169.3199768066406</ele></trkpt><trkpt lat="46.602960442658514" lon="7.952040354721248"><ele>2169.769989013672</ele></trkpt><trkpt lat="46.60293044289574" lon="7.952040354721248"><ele>2170.22998046875</ele></trkpt><trkpt lat="46.60284044314176" lon="7.952040355186909"><ele>2172.779998779297</ele></trkpt><trkpt lat="46.602810443378985" lon="7.952050355263054"><ele>2173.449981689453</ele></trkpt><trkpt lat="46.60277044354007" lon="7.952060355339199"><ele>2173.7999877929688</ele></trkpt><trkpt lat="46.60274044377729" lon="7.952100355178118"><ele>2173.699981689453</ele></trkpt><trkpt lat="46.60269044339657" lon="7.952160355169326"><ele>2173.6799926757812</ele></trkpt><trkpt lat="46.60260044364259" lon="7.9523103553801775"><ele>2173.25</ele></trkpt><trkpt lat="46.60257044341415" lon="7.952400355134159"><ele>2172.8299865722656</ele></trkpt><trkpt lat="46.60254044318572" lon="7.952450355049223"><ele>2172.3099975585938</ele></trkpt><trkpt lat="46.60252044303343" lon="7.952470355201513"><ele>2172.1799926757812</ele></trkpt><trkpt lat="46.6025004433468" lon="7.952510355040431"><ele>2172.0399780273438</ele></trkpt><trkpt lat="46.60248044319451" lon="7.952560354955494"><ele>2172.009979248047</ele></trkpt><trkpt lat="46.602450443431735" lon="7.952640355098993"><ele>2172.5899963378906</ele></trkpt><trkpt lat="46.60240044351667" lon="7.952730355318636"><ele>2173.0599975585938</ele></trkpt><trkpt lat="46.60236044367775" lon="7.952780355233699"><ele>2173.3899841308594</ele></trkpt><trkpt lat="46.60231044329703" lon="7.952820355538279"><ele>2173.459991455078</ele></trkpt><trkpt lat="46.60227044345811" lon="7.952840355224907"><ele>2172.759979248047</ele></trkpt><trkpt lat="46.602240443229675" lon="7.952860355377197"><ele>2172.1199951171875</ele></trkpt><trkpt lat="46.602220443077385" lon="7.952880355063826"><ele>2171.5399780273438</ele></trkpt><trkpt lat="46.60219044284895" lon="7.952920354902744"><ele>2170.97998046875</ele></trkpt><trkpt lat="46.60217044316232" lon="7.952950355131179"><ele>2170.8199768066406</ele></trkpt><trkpt lat="46.60214044293389" lon="7.952980354893953"><ele>2170.769989013672</ele></trkpt><trkpt lat="46.60206044279039" lon="7.9529903549700975"><ele>2170.4099731445312</ele></trkpt><trkpt lat="46.60202044295147" lon="7.953010355122387"><ele>2170.3499755859375</ele></trkpt><trkpt lat="46.60198044264689" lon="7.953040354885161"><ele>2170.0699768066406</ele></trkpt><trkpt lat="46.60194044280797" lon="7.953080354724079"><ele>2169.709991455078</ele></trkpt><trkpt lat="46.60191044257954" lon="7.953130354639143"><ele>2169.3599853515625</ele></trkpt><trkpt lat="46.6018804423511" lon="7.953250354621559"><ele>2168.97998046875</ele></trkpt><trkpt lat="46.60183044243604" lon="7.9533403548412025"><ele>2168.719970703125</ele></trkpt><trkpt lat="46.601800442673266" lon="7.9534103544428945"><ele>2168.4199829101562</ele></trkpt><trkpt lat="46.60177044244483" lon="7.9535103547386825"><ele>2167.9199829101562</ele></trkpt><trkpt lat="46.60175044229254" lon="7.9535703542642295"><ele>2167.459991455078</ele></trkpt><trkpt lat="46.60172044206411" lon="7.953620354644954"><ele>2167.1499938964844</ele></trkpt><trkpt lat="46.60169044230133" lon="7.953650354407728"><ele>2167.0899963378906</ele></trkpt><trkpt lat="46.601630442310125" lon="7.953680354170501"><ele>2166.7899780273438</ele></trkpt><trkpt lat="46.60156044224277" lon="7.953710354398936"><ele>2166.6199951171875</ele></trkpt><trkpt lat="46.60149044217542" lon="7.953730354551226"><ele>2166.519989013672</ele></trkpt><trkpt lat="46.60144044179469" lon="7.9537503542378545"><ele>2166.009979248047</ele></trkpt><trkpt lat="46.6012904420495" lon="7.953850354067981"><ele>2165.5499877929688</ele></trkpt><trkpt lat="46.60127044189721" lon="7.953870354220271"><ele>2165.509979248047</ele></trkpt><trkpt lat="46.60124044166878" lon="7.953900353983045"><ele>2165.6599731445312</ele></trkpt><trkpt lat="46.601230442058295" lon="7.953940354287624"><ele>2165.5</ele></trkpt><trkpt lat="46.601230441592634" lon="7.954000354278833"><ele>2164.8499755859375</ele></trkpt><trkpt lat="46.601230441592634" lon="7.95406035380438"><ele>2164.489990234375</ele></trkpt><trkpt lat="46.60122044151649" lon="7.954100354108959"><ele>2164.1499938964844</ele></trkpt><trkpt lat="46.6012004413642" lon="7.954130353871733"><ele>2164.1499938964844</ele></trkpt><trkpt lat="46.60118044167757" lon="7.954150354024023"><ele>2163.759979248047</ele></trkpt><trkpt lat="46.601150441449136" lon="7.954180353786796"><ele>2163.4199829101562</ele></trkpt><trkpt lat="46.60114044137299" lon="7.954220353625715"><ele>2162.989990234375</ele></trkpt><trkpt lat="46.601130441296846" lon="7.9544303538277745"><ele>2161.9199829101562</ele></trkpt><trkpt lat="46.601110441144556" lon="7.954470353666693"><ele>2161.3899841308594</ele></trkpt><trkpt lat="46.601090440992266" lon="7.9545003534294665"><ele>2160.949981689453</ele></trkpt><trkpt lat="46.60104044061154" lon="7.954560353420675"><ele>2160.25</ele></trkpt><trkpt lat="46.60101044084877" lon="7.954600353259593"><ele>2160.0599975585938</ele></trkpt><trkpt lat="46.60099044069648" lon="7.954640353098512"><ele>2159.959991455078</ele></trkpt><trkpt lat="46.60097044054419" lon="7.954690353479236"><ele>2159.759979248047</ele></trkpt><trkpt lat="46.60096044046804" lon="7.954800352919847"><ele>2158.3899841308594</ele></trkpt><trkpt lat="46.60093044023961" lon="7.954940353054553"><ele>2157.5799865722656</ele></trkpt><trkpt lat="46.60091044008732" lon="7.954980352893472"><ele>2157.4299926757812</ele></trkpt><trkpt lat="46.60090044001117" lon="7.9550103531219065"><ele>2157.279998779297</ele></trkpt><trkpt lat="46.600860440172255" lon="7.95504035288468"><ele>2157.189971923828</ele></trkpt><trkpt lat="46.60082044033334" lon="7.955090352799743"><ele>2157.47998046875</ele></trkpt><trkpt lat="46.60078044002876" lon="7.955140353180468"><ele>2157.519989013672</ele></trkpt><trkpt lat="46.60075044026598" lon="7.955210353247821"><ele>2157.9199829101562</ele></trkpt><trkpt lat="46.60073044011369" lon="7.95525035308674"><ele>2158.029998779297</ele></trkpt><trkpt lat="46.600690440274775" lon="7.955280352849513"><ele>2158.1699829101562</ele></trkpt><trkpt lat="46.60065044043586" lon="7.9553503529168665"><ele>2158.509979248047</ele></trkpt><trkpt lat="46.60061044059694" lon="7.955430353060365"><ele>2159.25</ele></trkpt><trkpt lat="46.60060044052079" lon="7.9554703533649445"><ele>2159.439971923828</ele></trkpt><trkpt lat="46.60060044052079" lon="7.955510353203863"><ele>2159.0999755859375</ele></trkpt><trkpt lat="46.60064044035971" lon="7.955590353347361"><ele>2158.4099731445312</ele></trkpt><trkpt lat="46.600660440512" lon="7.9556403532624245"><ele>2158.0</ele></trkpt><trkpt lat="46.600670440122485" lon="7.955720352940261"><ele>2157.9099731445312</ele></trkpt><trkpt lat="46.60065044043586" lon="7.9558003530837595"><ele>2158.2899780273438</ele></trkpt><trkpt lat="46.60063044028357" lon="7.955880353227258"><ele>2158.6199951171875</ele></trkpt><trkpt lat="46.60059044044465" lon="7.955930353142321"><ele>2159.3999938964844</ele></trkpt><trkpt lat="46.60057044075802" lon="7.956000353209674"><ele>2159.759979248047</ele></trkpt><trkpt lat="46.600580440834165" lon="7.956060353200883"><ele>2159.8199768066406</ele></trkpt><trkpt lat="46.60059044044465" lon="7.956120353192091"><ele>2159.019989013672</ele></trkpt><trkpt lat="46.6005804403685" lon="7.956170353107154"><ele>2158.6599731445312</ele></trkpt><trkpt lat="46.60056044021621" lon="7.956220353022218"><ele>2158.4299926757812</ele></trkpt><trkpt lat="46.60053044045344" lon="7.9562603533267975"><ele>2158.25</ele></trkpt><trkpt lat="46.60051044030115" lon="7.956290353089571"><ele>2158.3799743652344</ele></trkpt><trkpt lat="46.60049044014886" lon="7.9563303529284894"><ele>2158.1699829101562</ele></trkpt><trkpt lat="46.600480440072715" lon="7.956370353233069"><ele>2157.769989013672</ele></trkpt><trkpt lat="46.600480440072715" lon="7.956460352987051"><ele>2156.8799743652344</ele></trkpt><trkpt lat="46.600480440072715" lon="7.9564903527498245"><ele>2156.7899780273438</ele></trkpt><trkpt lat="46.600460439920425" lon="7.956530353054404"><ele>2157.1099853515625</ele></trkpt><trkpt lat="46.6004404402338" lon="7.956550353206694"><ele>2157.3699951171875</ele></trkpt><trkpt lat="46.60040044039488" lon="7.956570352893323"><ele>2157.97998046875</ele></trkpt><trkpt lat="46.60038044024259" lon="7.956590353045613"><ele>2157.989990234375</ele></trkpt><trkpt lat="46.600370440166444" lon="7.956650353036821"><ele>2158.1499938964844</ele></trkpt><trkpt lat="46.60038044024259" lon="7.956800353247672"><ele>2158.209991455078</ele></trkpt><trkpt lat="46.60042044008151" lon="7.956970353145152"><ele>2157.6699829101562</ele></trkpt><trkpt lat="46.60042044008151" lon="7.957020353060216"><ele>2157.739990234375</ele></trkpt><trkpt lat="46.600370440166444" lon="7.957060352899134"><ele>2157.6399841308594</ele></trkpt><trkpt lat="46.60025044018403" lon="7.9571103528141975"><ele>2157.3799743652344</ele></trkpt><trkpt lat="46.60019044019282" lon="7.957170352805406"><ele>2157.189971923828</ele></trkpt><trkpt lat="46.600140439812094" lon="7.957230352796614"><ele>2156.3999938964844</ele></trkpt><trkpt lat="46.600100439973176" lon="7.957270352635533"><ele>2155.8199768066406</ele></trkpt><trkpt lat="46.60007043974474" lon="7.957310352940112"><ele>2155.709991455078</ele></trkpt><trkpt lat="46.60004043998197" lon="7.957360352855176"><ele>2155.529998779297</ele></trkpt><trkpt lat="46.60002043982968" lon="7.957430352922529"><ele>2155.509979248047</ele></trkpt><trkpt lat="46.59999043960124" lon="7.957480352837592"><ele>2155.449981689453</ele></trkpt><trkpt lat="46.59994043968618" lon="7.957540352828801"><ele>2155.25</ele></trkpt><trkpt lat="46.599890439771116" lon="7.957580352667719"><ele>2155.1499938964844</ele></trkpt><trkpt lat="46.599850439466536" lon="7.9576303525827825"><ele>2154.97998046875</ele></trkpt><trkpt lat="46.59983043977991" lon="7.957700352650136"><ele>2155.0599975585938</ele></trkpt><trkpt lat="46.59980043955147" lon="7.957750352565199"><ele>2155.25</ele></trkpt><trkpt lat="46.599740439560264" lon="7.957800352945924"><ele>2155.3699951171875</ele></trkpt><trkpt lat="46.5996904396452" lon="7.957840352784842"><ele>2155.3399963378906</ele></trkpt><trkpt lat="46.59965043980628" lon="7.957880352623761"><ele>2155.469970703125</ele></trkpt><trkpt lat="46.59963043965399" lon="7.957930353004485"><ele>2155.6399841308594</ele></trkpt><trkpt lat="46.59960043989122" lon="7.958010352682322"><ele>2155.449981689453</ele></trkpt><trkpt lat="46.599590439815074" lon="7.958070352673531"><ele>2155.209991455078</ele></trkpt><trkpt lat="46.599590439815074" lon="7.958150352817029"><ele>2155.1099853515625</ele></trkpt><trkpt lat="46.599590439815074" lon="7.958240352571011"><ele>2155.279998779297</ele></trkpt><trkpt lat="46.59958043973893" lon="7.958320352714509"><ele>2154.949981689453</ele></trkpt><trkpt lat="46.59956043958664" lon="7.958390352781862"><ele>2154.269989013672</ele></trkpt><trkpt lat="46.59952043928206" lon="7.958440352696925"><ele>2153.75</ele></trkpt><trkpt lat="46.599490439519286" lon="7.958490352611989"><ele>2153.269989013672</ele></trkpt><trkpt lat="46.599450439214706" lon="7.958540352527052"><ele>2153.0999755859375</ele></trkpt><trkpt lat="46.59943043952808" lon="7.95862035267055"><ele>2153.47998046875</ele></trkpt><trkpt lat="46.59941043937579" lon="7.958710352424532"><ele>2154.3199768066406</ele></trkpt><trkpt lat="46.59942043945193" lon="7.958820352796465"><ele>2155.1399841308594</ele></trkpt><trkpt lat="46.59942043945193" lon="7.958890352863818"><ele>2155.1699829101562</ele></trkpt><trkpt lat="46.599420439917594" lon="7.9589803526178"><ele>2155.5399780273438</ele></trkpt><trkpt lat="46.59941043984145" lon="7.959060352761298"><ele>2155.439971923828</ele></trkpt><trkpt lat="46.599400439765304" lon="7.959120352752507"><ele>2155.3399963378906</ele></trkpt><trkpt lat="46.59939043968916" lon="7.959230352658778"><ele>2155.489990234375</ele></trkpt><trkpt lat="46.599380439613014" lon="7.959310352802277"><ele>2155.6599731445312</ele></trkpt><trkpt lat="46.59937044000253" lon="7.959410353098065"><ele>2156.009979248047</ele></trkpt><trkpt lat="46.59935043985024" lon="7.959610352758318"><ele>2155.8999938964844</ele></trkpt><trkpt lat="46.599340439774096" lon="7.959730352740735"><ele>2156.0999755859375</ele></trkpt><trkpt lat="46.59931044001132" lon="7.959840353112668"><ele>2156.1799926757812</ele></trkpt><trkpt lat="46.599230439867824" lon="7.960050352849066"><ele>2155.8299865722656</ele></trkpt><trkpt lat="46.599190440028906" lon="7.960180352907628"><ele>2155.8199768066406</ele></trkpt><trkpt lat="46.59916043980047" lon="7.960280352737755"><ele>2155.7899780273438</ele></trkpt><trkpt lat="46.59914043964818" lon="7.960350352805108"><ele>2155.75</ele></trkpt><trkpt lat="46.59910043980926" lon="7.960480352863669"><ele>2155.969970703125</ele></trkpt><trkpt lat="46.59908043965697" lon="7.960530352778733"><ele>2156.0</ele></trkpt><trkpt lat="46.5990504398942" lon="7.9605703530833125"><ele>2155.9299926757812</ele></trkpt><trkpt lat="46.59903043974191" lon="7.9605803531594574"><ele>2155.7899780273438</ele></trkpt><trkpt lat="46.599000439979136" lon="7.960600352846086"><ele>2155.6399841308594</ele></trkpt><trkpt lat="46.59887043945491" lon="7.960580352693796"><ele>2154.1699829101562</ele></trkpt><trkpt lat="46.59880043938756" lon="7.960590352769941"><ele>2153.2999877929688</ele></trkpt><trkpt lat="46.598580438643694" lon="7.960670352447778"><ele>2151.1399841308594</ele></trkpt><trkpt lat="46.598520438652486" lon="7.9607003522105515"><ele>2150.689971923828</ele></trkpt><trkpt lat="46.59847043873742" lon="7.960710352286696"><ele>2150.219970703125</ele></trkpt><trkpt lat="46.59840043867007" lon="7.960690352134407"><ele>2149.5</ele></trkpt><trkpt lat="46.59832043852657" lon="7.960660351905972"><ele>2148.7899780273438</ele></trkpt><trkpt lat="46.59825043845922" lon="7.960630351677537"><ele>2148.279998779297</ele></trkpt><trkpt lat="46.59821043815464" lon="7.960570351686329"><ele>2147.779998779297</ele></trkpt><trkpt lat="46.59817043785006" lon="7.9604903515428305"><ele>2147.0999755859375</ele></trkpt><trkpt lat="46.59813043801114" lon="7.960410351399332"><ele>2146.5899963378906</ele></trkpt><trkpt lat="46.598080437630415" lon="7.960370351560414"><ele>2146.22998046875</ele></trkpt><trkpt lat="46.59803043771535" lon="7.960350351408124"><ele>2145.8399963378906</ele></trkpt><trkpt lat="46.5978804375045" lon="7.960320351179689"><ele>2144.8999938964844</ele></trkpt><trkpt lat="46.59782043751329" lon="7.960310351103544"><ele>2144.5699768066406</ele></trkpt><trkpt lat="46.59777043759823" lon="7.960290350951254"><ele>2144.1599731445312</ele></trkpt><trkpt lat="46.597720437217504" lon="7.960290350951254"><ele>2144.009979248047</ele></trkpt><trkpt lat="46.597680437378585" lon="7.960320351179689"><ele>2143.97998046875</ele></trkpt><trkpt lat="46.59763043746352" lon="7.9603803511708975"><ele>2143.97998046875</ele></trkpt><trkpt lat="46.5975904376246" lon="7.960460351314396"><ele>2144.449981689453</ele></trkpt><trkpt lat="46.597550437320024" lon="7.960520351305604"><ele>2144.509979248047</ele></trkpt><trkpt lat="46.59750043740496" lon="7.960590351372957"><ele>2144.5599975585938</ele></trkpt><trkpt lat="46.59744043741375" lon="7.9606503513641655"><ele>2144.47998046875</ele></trkpt><trkpt lat="46.59739043749869" lon="7.960680351126939"><ele>2144.469970703125</ele></trkpt><trkpt lat="46.597320437431335" lon="7.960710351355374"><ele>2144.709991455078</ele></trkpt><trkpt lat="46.59726043744013" lon="7.960770351346582"><ele>2144.9199829101562</ele></trkpt><trkpt lat="46.597210437525064" lon="7.9608303513377905"><ele>2144.699981689453</ele></trkpt><trkpt lat="46.59716043761" lon="7.960890351328999"><ele>2144.5699768066406</ele></trkpt><trkpt lat="46.59712043730542" lon="7.960960351396352"><ele>2144.5399780273438</ele></trkpt><trkpt lat="46.59710043761879" lon="7.960990351159126"><ele>2144.4099731445312</ele></trkpt><trkpt lat="46.59707043739036" lon="7.961070351302624"><ele>2144.0999755859375</ele></trkpt><trkpt lat="46.59703043708578" lon="7.961130350828171"><ele>2143.5799865722656</ele></trkpt><trkpt lat="46.596980437170714" lon="7.961220351047814"><ele>2142.9199829101562</ele></trkpt><trkpt lat="46.596960437018424" lon="7.961280351039022"><ele>2142.6699829101562</ele></trkpt><trkpt lat="46.596940436866134" lon="7.961320350877941"><ele>2142.4099731445312</ele></trkpt><trkpt lat="46.59691043710336" lon="7.961360350716859"><ele>2142.009979248047</ele></trkpt><trkpt lat="46.59687043679878" lon="7.9614103506319225"><ele>2141.8499755859375</ele></trkpt><trkpt lat="46.59684043703601" lon="7.961430350784212"><ele>2141.4099731445312</ele></trkpt><trkpt lat="46.59680043673143" lon="7.961450350470841"><ele>2141.0599975585938</ele></trkpt><trkpt lat="46.596750436816365" lon="7.961500350385904"><ele>2140.8999938964844</ele></trkpt><trkpt lat="46.596710436511785" lon="7.961520350538194"><ele>2140.4099731445312</ele></trkpt><trkpt lat="46.596690436359495" lon="7.961540350690484"><ele>2140.199981689453</ele></trkpt><trkpt lat="46.59664043644443" lon="7.961570350453258"><ele>2139.959991455078</ele></trkpt><trkpt lat="46.59661043668166" lon="7.9615803505294025"><ele>2139.699981689453</ele></trkpt><trkpt lat="46.59659043652937" lon="7.9615803505294025"><ele>2139.5899963378906</ele></trkpt><trkpt lat="46.59655043622479" lon="7.961550350300968"><ele>2139.3399963378906</ele></trkpt><trkpt lat="46.596500436309725" lon="7.961510350462049"><ele>2139.019989013672</ele></trkpt><trkpt lat="46.596480436157435" lon="7.961490350309759"><ele>2138.779998779297</ele></trkpt><trkpt lat="46.59644043631852" lon="7.9614803502336144"><ele>2138.5699768066406</ele></trkpt><trkpt lat="46.59639043640345" lon="7.961500350385904"><ele>2138.489990234375</ele></trkpt><trkpt lat="46.596350436098874" lon="7.961500350385904"><ele>2138.689971923828</ele></trkpt><trkpt lat="46.5963204363361" lon="7.961490350309759"><ele>2138.6499938964844</ele></trkpt><trkpt lat="46.59628043603152" lon="7.961440350394696"><ele>2138.25</ele></trkpt><trkpt lat="46.59622043604031" lon="7.961370350327343"><ele>2138.019989013672</ele></trkpt><trkpt lat="46.59620043588802" lon="7.961340350098908"><ele>2138.0499877929688</ele></trkpt><trkpt lat="46.596160436049104" lon="7.9613003502599895"><ele>2137.759979248047</ele></trkpt><trkpt lat="46.59611043613404" lon="7.961220350116491"><ele>2137.529998779297</ele></trkpt><trkpt lat="46.59605043567717" lon="7.961100350134075"><ele>2136.8799743652344</ele></trkpt><trkpt lat="46.59601043583825" lon="7.961040350142866"><ele>2136.739990234375</ele></trkpt><trkpt lat="46.595970435999334" lon="7.961000349838287"><ele>2136.6399841308594</ele></trkpt><trkpt lat="46.595910435542464" lon="7.960940349847078"><ele>2136.3499755859375</ele></trkpt><trkpt lat="46.5958604356274" lon="7.9609203496947885"><ele>2136.259979248047</ele></trkpt><trkpt lat="46.59582043578848" lon="7.96090035000816"><ele>2136.3199768066406</ele></trkpt><trkpt lat="46.595760435797274" lon="7.96088034985587"><ele>2136.1799926757812</ele></trkpt><trkpt lat="46.59571043588221" lon="7.960870349779725"><ele>2136.0399780273438</ele></trkpt><trkpt lat="46.595650435891" lon="7.96086034970358"><ele>2136.0</ele></trkpt><trkpt lat="46.59556043567136" lon="7.960810349788517"><ele>2135.769989013672</ele></trkpt><trkpt lat="46.59545043576509" lon="7.960730349645019"><ele>2135.509979248047</ele></trkpt><trkpt lat="46.59542043553665" lon="7.9606903498061"><ele>2135.439971923828</ele></trkpt><trkpt lat="46.595360435545444" lon="7.960600349586457"><ele>2135.199981689453</ele></trkpt><trkpt lat="46.59529043547809" lon="7.96048034960404"><ele>2134.989990234375</ele></trkpt><trkpt lat="46.595260435249656" lon="7.960420349612832"><ele>2134.8999938964844</ele></trkpt><trkpt lat="46.59523043548688" lon="7.960360349621624"><ele>2134.8499755859375</ele></trkpt><trkpt lat="46.59521043533459" lon="7.960300349630415"><ele>2134.6399841308594</ele></trkpt><trkpt lat="46.59520043525845" lon="7.960280349478126"><ele>2134.5399780273438</ele></trkpt><trkpt lat="46.595170435495675" lon="7.960250349715352"><ele>2134.3899841308594</ele></trkpt><trkpt lat="46.59504043543711" lon="7.960170349571854"><ele>2134.1799926757812</ele></trkpt><trkpt lat="46.59500043513253" lon="7.960130349267274"><ele>2134.0599975585938</ele></trkpt><trkpt lat="46.594980435445905" lon="7.960100349504501"><ele>2134.0499877929688</ele></trkpt><trkpt lat="46.594960435293615" lon="7.960060349199921"><ele>2133.969970703125</ele></trkpt><trkpt lat="46.594940435141325" lon="7.960000349208713"><ele>2133.8699951171875</ele></trkpt><trkpt lat="46.594920435454696" lon="7.959880349226296"><ele>2133.8599853515625</ele></trkpt><trkpt lat="46.59490043530241" lon="7.959800349548459"><ele>2133.8299865722656</ele></trkpt><trkpt lat="46.59488043515012" lon="7.959680349566042"><ele>2133.72998046875</ele></trkpt><trkpt lat="46.59487043507397" lon="7.959580349270254"><ele>2133.699981689453</ele></trkpt><trkpt lat="46.59487043507397" lon="7.959500349126756"><ele>2133.5999755859375</ele></trkpt><trkpt lat="46.59485043538734" lon="7.95938034914434"><ele>2133.689971923828</ele></trkpt><trkpt lat="46.59485043538734" lon="7.959310349542648"><ele>2133.739990234375</ele></trkpt><trkpt lat="46.59485043538734" lon="7.959250349085778"><ele>2133.5999755859375</ele></trkpt><trkpt lat="46.59485043538734" lon="7.959120349492878"><ele>2133.6399841308594</ele></trkpt><trkpt lat="46.59485043538734" lon="7.959060349501669"><ele>2133.529998779297</ele></trkpt><trkpt lat="46.59486043499783" lon="7.959010349120945"><ele>2133.3999938964844</ele></trkpt><trkpt lat="46.59488043515012" lon="7.958950349129736"><ele>2133.2999877929688</ele></trkpt><trkpt lat="46.59489043522626" lon="7.958890349138528"><ele>2133.0399780273438</ele></trkpt><trkpt lat="46.594900434836745" lon="7.958840349223465"><ele>2132.969970703125</ele></trkpt><trkpt lat="46.594900434836745" lon="7.958800349384546"><ele>2132.939971923828</ele></trkpt><trkpt lat="46.59489043522626" lon="7.958740349393338"><ele>2132.8399963378906</ele></trkpt><trkpt lat="46.59488043515012" lon="7.95868034940213"><ele>2133.0799865722656</ele></trkpt><trkpt lat="46.59487043507397" lon="7.958630349021405"><ele>2133.0999755859375</ele></trkpt><trkpt lat="46.59487043507397" lon="7.958550349343568"><ele>2133.0499877929688</ele></trkpt><trkpt lat="46.59488043515012" lon="7.958460349123925"><ele>2133.1299743652344</ele></trkpt><trkpt lat="46.59489043522626" lon="7.958370349369943"><ele>2133.0699768066406</ele></trkpt><trkpt lat="46.59489043522626" lon="7.958340349141508"><ele>2133.1499938964844</ele></trkpt><trkpt lat="46.59488043515012" lon="7.9582803491503"><ele>2133.239990234375</ele></trkpt><trkpt lat="46.59488043515012" lon="7.958240349311382"><ele>2133.1399841308594</ele></trkpt><trkpt lat="46.59488043515012" lon="7.958180349320173"><ele>2133.1299743652344</ele></trkpt><trkpt lat="46.59490043530241" lon="7.9581403490155935"><ele>2133.3199768066406</ele></trkpt><trkpt lat="46.594920434989035" lon="7.95809034910053"><ele>2133.209991455078</ele></trkpt><trkpt lat="46.59493043506518" lon="7.958040349185467"><ele>2132.7999877929688</ele></trkpt><trkpt lat="46.59495043521747" lon="7.9579803491942585"><ele>2132.779998779297</ele></trkpt><trkpt lat="46.594960434827954" lon="7.957670348696411"><ele>2131.279998779297</ele></trkpt><trkpt lat="46.59496043436229" lon="7.957480348646641"><ele>2130.3199768066406</ele></trkpt><trkpt lat="46.59497043443844" lon="7.957380348816514"><ele>2129.72998046875</ele></trkpt><trkpt lat="46.59498043451458" lon="7.957290348596871"><ele>2129.3299865722656</ele></trkpt><trkpt lat="46.59498043451458" lon="7.957220348529518"><ele>2129.25</ele></trkpt><trkpt lat="46.59498043451458" lon="7.957180348690599"><ele>2129.22998046875</ele></trkpt><trkpt lat="46.595010434277356" lon="7.957070348318666"><ele>2128.47998046875</ele></trkpt><trkpt lat="46.59500043420121" lon="7.957020348403603"><ele>2128.3699951171875</ele></trkpt><trkpt lat="46.59500043420121" lon="7.957000348251313"><ele>2128.279998779297</ele></trkpt><trkpt lat="46.59498043404892" lon="7.9569703484885395"><ele>2128.259979248047</ele></trkpt><trkpt lat="46.59491043398157" lon="7.956900348421186"><ele>2127.719970703125</ele></trkpt><trkpt lat="46.59489043382928" lon="7.956880348268896"><ele>2127.709991455078</ele></trkpt><trkpt lat="46.59488043375313" lon="7.9568503480404615"><ele>2127.5699768066406</ele></trkpt><trkpt lat="46.59487043414265" lon="7.956820348277688"><ele>2127.529998779297</ele></trkpt><trkpt lat="46.59488043375313" lon="7.956770348362625"><ele>2127.1299743652344</ele></trkpt><trkpt lat="46.59490043390542" lon="7.956710347905755"><ele>2126.6399841308594</ele></trkpt><trkpt lat="46.594910433515906" lon="7.956660347990692"><ele>2126.3299865722656</ele></trkpt><trkpt lat="46.594910433515906" lon="7.956620348151773"><ele>2126.1299743652344</ele></trkpt><trkpt lat="46.59490043343976" lon="7.9565803478471935"><ele>2125.7999877929688</ele></trkpt><trkpt lat="46.59489043382928" lon="7.95655034808442"><ele>2125.6499938964844</ele></trkpt><trkpt lat="46.59487043367699" lon="7.956520347855985"><ele>2125.47998046875</ele></trkpt><trkpt lat="46.59483043337241" lon="7.956500347703695"><ele>2125.3499755859375</ele></trkpt><trkpt lat="46.59475043322891" lon="7.956470347940922"><ele>2124.8399963378906</ele></trkpt><trkpt lat="46.59471043338999" lon="7.956450347788632"><ele>2124.699981689453</ele></trkpt><trkpt lat="46.5946904332377" lon="7.956420347560197"><ele>2124.5599975585938</ele></trkpt><trkpt lat="46.59466043347493" lon="7.956380347721279"><ele>2124.5699768066406</ele></trkpt><trkpt lat="46.59463043324649" lon="7.95632034773007"><ele>2124.519989013672</ele></trkpt><trkpt lat="46.594610433559865" lon="7.9562903475016356"><ele>2124.5399780273438</ele></trkpt><trkpt lat="46.59458043333143" lon="7.956250347662717"><ele>2124.6399841308594</ele></trkpt><trkpt lat="46.59454043349251" lon="7.956220347899944"><ele>2124.939971923828</ele></trkpt><trkpt lat="46.59453043341637" lon="7.956200347747654"><ele>2124.8899841308594</ele></trkpt><trkpt lat="46.59451043326408" lon="7.956170347519219"><ele>2124.709991455078</ele></trkpt><trkpt lat="46.59449043357745" lon="7.9561303476803005"><ele>2124.489990234375</ele></trkpt><trkpt lat="46.5944804335013" lon="7.956070347689092"><ele>2124.25</ele></trkpt><trkpt lat="46.59446043334901" lon="7.955980347469449"><ele>2124.1099853515625</ele></trkpt><trkpt lat="46.59446043334901" lon="7.955890347715467"><ele>2123.949981689453</ele></trkpt><trkpt lat="46.59445043327287" lon="7.955810347571969"><ele>2123.5</ele></trkpt><trkpt lat="46.59445043327287" lon="7.955780347343534"><ele>2123.3399963378906</ele></trkpt><trkpt lat="46.59443043312058" lon="7.955730347428471"><ele>2123.25</ele></trkpt><trkpt lat="46.59441043296829" lon="7.9556803475134075"><ele>2123.489990234375</ele></trkpt><trkpt lat="46.594400433357805" lon="7.955650347284973"><ele>2123.439971923828</ele></trkpt><trkpt lat="46.59433043329045" lon="7.955550347454846"><ele>2123.699981689453</ele></trkpt><trkpt lat="46.59430043306202" lon="7.9555103476159275"><ele>2123.4199829101562</ele></trkpt><trkpt lat="46.59428043290973" lon="7.955450347624719"><ele>2123.0699768066406</ele></trkpt><trkpt lat="46.594230432994664" lon="7.955350347328931"><ele>2121.9199829101562</ele></trkpt><trkpt lat="46.59420043276623" lon="7.955310347024351"><ele>2121.3699951171875</ele></trkpt><trkpt lat="46.59416043246165" lon="7.955280346795917"><ele>2120.5599975585938</ele></trkpt><trkpt lat="46.59410043247044" lon="7.955250347033143"><ele>2119.8699951171875</ele></trkpt><trkpt lat="46.59405043255538" lon="7.955200346652418"><ele>2119.459991455078</ele></trkpt><trkpt lat="46.59399043209851" lon="7.9551603468135"><ele>2119.3199768066406</ele></trkpt><trkpt lat="46.593940432183444" lon="7.95512034650892"><ele>2118.8799743652344</ele></trkpt><trkpt lat="46.593900432344526" lon="7.9551103468984365"><ele>2118.5</ele></trkpt><trkpt lat="46.59387043211609" lon="7.955090346746147"><ele>2118.1199951171875</ele></trkpt><trkpt lat="46.59384043188766" lon="7.955070346593857"><ele>2117.719970703125</ele></trkpt><trkpt lat="46.59382043173537" lon="7.955050346441567"><ele>2117.459991455078</ele></trkpt><trkpt lat="46.59381043165922" lon="7.9550103466026485"><ele>2117.0799865722656</ele></trkpt><trkpt lat="46.59379043150693" lon="7.9549103463068604"><ele>2116.4099731445312</ele></trkpt><trkpt lat="46.59378043189645" lon="7.954840346239507"><ele>2116.1699829101562</ele></trkpt><trkpt lat="46.59376043174416" lon="7.954780346248299"><ele>2115.959991455078</ele></trkpt><trkpt lat="46.59374043159187" lon="7.954690346028656"><ele>2115.469970703125</ele></trkpt><trkpt lat="46.59373043151572" lon="7.954590346198529"><ele>2115.0599975585938</ele></trkpt><trkpt lat="46.59374043112621" lon="7.954510346055031"><ele>2114.459991455078</ele></trkpt><trkpt lat="46.59375043120235" lon="7.9544503460638225"><ele>2114.0399780273438</ele></trkpt><trkpt lat="46.59374043112621" lon="7.954420345835388"><ele>2114.0799865722656</ele></trkpt><trkpt lat="46.59373043105006" lon="7.954400346148759"><ele>2114.0499877929688</ele></trkpt><trkpt lat="46.593710431363434" lon="7.954380345996469"><ele>2114.1599731445312</ele></trkpt><trkpt lat="46.59370043128729" lon="7.954380345996469"><ele>2114.0399780273438</ele></trkpt><trkpt lat="46.593670431058854" lon="7.954400345683098"><ele>2113.8799743652344</ele></trkpt><trkpt lat="46.593650431372225" lon="7.954420345835388"><ele>2113.989990234375</ele></trkpt><trkpt lat="46.59353043138981" lon="7.954440345987678"><ele>2114.1799926757812</ele></trkpt><trkpt lat="46.593500431161374" lon="7.954460346139967"><ele>2114.1299743652344</ele></trkpt><trkpt lat="46.593480431009084" lon="7.954480345826596"><ele>2113.989990234375</ele></trkpt><trkpt lat="46.5933904312551" lon="7.954640345647931"><ele>2113.439971923828</ele></trkpt><trkpt lat="46.59333043079823" lon="7.954730345867574"><ele>2113.029998779297</ele></trkpt><trkpt lat="46.59326043073088" lon="7.954810345545411"><ele>2112.6799926757812</ele></trkpt><trkpt lat="46.59324043104425" lon="7.954840345773846"><ele>2112.5599975585938</ele></trkpt><trkpt lat="46.59318043105304" lon="7.9549603457562625"><ele>2112.769989013672</ele></trkpt><trkpt lat="46.593120431061834" lon="7.955100345890969"><ele>2112.239990234375</ele></trkpt><trkpt lat="46.593040430918336" lon="7.955330345779657"><ele>2111.959991455078</ele></trkpt><trkpt lat="46.5929304305464" lon="7.955610345583409"><ele>2111.8099975585938</ele></trkpt><trkpt lat="46.59290043078363" lon="7.955670345574617"><ele>2111.6799926757812</ele></trkpt><trkpt lat="46.592870430555195" lon="7.9557603457942605"><ele>2111.509979248047</ele></trkpt><trkpt lat="46.592850430402905" lon="7.9558203453198075"><ele>2111.199981689453</ele></trkpt><trkpt lat="46.59280043048784" lon="7.955940345302224"><ele>2110.509979248047</ele></trkpt><trkpt lat="46.59278043033555" lon="7.9560003452934325"><ele>2110.2899780273438</ele></trkpt><trkpt lat="46.59272043034434" lon="7.956180345267057"><ele>2110.0799865722656</ele></trkpt><trkpt lat="46.592640430200845" lon="7.956400345079601"><ele>2109.5699768066406</ele></trkpt><trkpt lat="46.592620430514216" lon="7.9564503454603255"><ele>2109.5499877929688</ele></trkpt><trkpt lat="46.59261043043807" lon="7.956490345299244"><ele>2109.6299743652344</ele></trkpt><trkpt lat="46.59257043013349" lon="7.956540345214307"><ele>2109.8499755859375</ele></trkpt><trkpt lat="46.59251043014228" lon="7.956650345120579"><ele>2109.3499755859375</ele></trkpt><trkpt lat="46.59248043037951" lon="7.956700345501304"><ele>2109.4199829101562</ele></trkpt><trkpt lat="46.5924204303883" lon="7.9567903452552855"><ele>2109.5999755859375</ele></trkpt><trkpt lat="46.59239043015987" lon="7.956830345559865"><ele>2109.699981689453</ele></trkpt><trkpt lat="46.59236043039709" lon="7.956860345322639"><ele>2109.8099975585938</ele></trkpt><trkpt lat="46.592280430253595" lon="7.956900345161557"><ele>2109.209991455078</ele></trkpt><trkpt lat="46.592260430101305" lon="7.956910345237702"><ele>2109.1199951171875</ele></trkpt><trkpt lat="46.59222043026239" lon="7.956940345466137"><ele>2108.969970703125</ele></trkpt><trkpt lat="46.59218042995781" lon="7.956990344915539"><ele>2108.3599853515625</ele></trkpt><trkpt lat="46.59214042965323" lon="7.957040344830602"><ele>2107.0999755859375</ele></trkpt><trkpt lat="46.59211042942479" lon="7.957090344745666"><ele>2106.3599853515625</ele></trkpt><trkpt lat="46.592070429585874" lon="7.957160344813019"><ele>2105.269989013672</ele></trkpt><trkpt lat="46.592030429281294" lon="7.9572003446519375"><ele>2104.6199951171875</ele></trkpt><trkpt lat="46.59189042914659" lon="7.957410344388336"><ele>2104.269989013672</ele></trkpt><trkpt lat="46.59183042915538" lon="7.957480344455689"><ele>2104.8299865722656</ele></trkpt><trkpt lat="46.59181042946875" lon="7.957520344760269"><ele>2105.1199951171875</ele></trkpt><trkpt lat="46.591780429240316" lon="7.957580344751477"><ele>2105.029998779297</ele></trkpt><trkpt lat="46.5917404294014" lon="7.9576503448188305"><ele>2104.9199829101562</ele></trkpt><trkpt lat="46.59173042932525" lon="7.957710344810039"><ele>2105.1099853515625</ele></trkpt><trkpt lat="46.59171042917296" lon="7.957740344572812"><ele>2105.239990234375</ele></trkpt><trkpt lat="46.591690429486334" lon="7.957770344801247"><ele>2105.75</ele></trkpt><trkpt lat="46.59168042941019" lon="7.957810344640166"><ele>2106.219970703125</ele></trkpt><trkpt lat="46.59166042972356" lon="7.95786034502089"><ele>2106.3099975585938</ele></trkpt><trkpt lat="46.591590429190546" lon="7.958110344596207"><ele>2105.029998779297</ele></trkpt><trkpt lat="46.59157042950392" lon="7.95820034481585"><ele>2104.8899841308594</ele></trkpt><trkpt lat="46.59156042942777" lon="7.958260344807059"><ele>2104.6399841308594</ele></trkpt><trkpt lat="46.59154042927548" lon="7.958310344722122"><ele>2104.5899963378906</ele></trkpt><trkpt lat="46.59152042912319" lon="7.958360344637185"><ele>2104.6699829101562</ele></trkpt><trkpt lat="46.59149042936042" lon="7.958430344704539"><ele>2104.5799865722656</ele></trkpt><trkpt lat="46.591420429293066" lon="7.958550344686955"><ele>2104.459991455078</ele></trkpt><trkpt lat="46.591370429378" lon="7.958630344830453"><ele>2104.769989013672</ele></trkpt><trkpt lat="46.59131042892113" lon="7.958720344584435"><ele>2104.1299743652344</ele></trkpt><trkpt lat="46.591270429082215" lon="7.958810344804078"><ele>2104.3599853515625</ele></trkpt><trkpt lat="46.59122042916715" lon="7.9589503444731236"><ele>2104.739990234375</ele></trkpt><trkpt lat="46.59119042940438" lon="7.959000344853848"><ele>2104.8999938964844</ele></trkpt><trkpt lat="46.591140429489315" lon="7.9590603448450565"><ele>2105.1499938964844</ele></trkpt><trkpt lat="46.591100429184735" lon="7.95911034476012"><ele>2105.47998046875</ele></trkpt><trkpt lat="46.59103042958304" lon="7.959220345132053"><ele>2106.3999938964844</ele></trkpt><trkpt lat="46.59100042982027" lon="7.959250344894826"><ele>2106.6599731445312</ele></trkpt><trkpt lat="46.590970429591835" lon="7.959260344970971"><ele>2107.009979248047</ele></trkpt><trkpt lat="46.59092042967677" lon="7.959280345123261"><ele>2107.5499877929688</ele></trkpt><trkpt lat="46.59087042976171" lon="7.959280345123261"><ele>2108.0399780273438</ele></trkpt><trkpt lat="46.59083042992279" lon="7.959300345275551"><ele>2108.519989013672</ele></trkpt><trkpt lat="46.5907604303211" lon="7.959300345275551"><ele>2109.259979248047</ele></trkpt><trkpt lat="46.590690430253744" lon="7.959300345741212"><ele>2110.0399780273438</ele></trkpt><trkpt lat="46.590580430813134" lon="7.959290345665067"><ele>2111.6599731445312</ele></trkpt><trkpt lat="46.590540430508554" lon="7.959280346054584"><ele>2112.1699829101562</ele></trkpt><trkpt lat="46.59049043105915" lon="7.959250345826149"><ele>2112.8499755859375</ele></trkpt><trkpt lat="46.59045043075457" lon="7.959250345826149"><ele>2113.0399780273438</ele></trkpt><trkpt lat="46.5904204309918" lon="7.959250345826149"><ele>2113.2899780273438</ele></trkpt><trkpt lat="46.590390431229025" lon="7.959260345902294"><ele>2113.6499938964844</ele></trkpt><trkpt lat="46.59034043131396" lon="7.959300346206874"><ele>2114.199981689453</ele></trkpt><trkpt lat="46.59031043108553" lon="7.9593303464353085"><ele>2114.5399780273438</ele></trkpt><trkpt lat="46.59028043132275" lon="7.959380346350372"><ele>2114.9099731445312</ele></trkpt><trkpt lat="46.590260431170464" lon="7.95944034634158"><ele>2115.2899780273438</ele></trkpt><trkpt lat="46.590240431483835" lon="7.959510346408933"><ele>2115.719970703125</ele></trkpt><trkpt lat="46.59020043164492" lon="7.959580346476287"><ele>2116.3599853515625</ele></trkpt><trkpt lat="46.59017043141648" lon="7.959640346467495"><ele>2116.779998779297</ele></trkpt><trkpt lat="46.590090431738645" lon="7.9597803466022015"><ele>2117.8099975585938</ele></trkpt><trkpt lat="46.59001043206081" lon="7.959870346821845"><ele>2117.949981689453</ele></trkpt><trkpt lat="46.58998043183237" lon="7.9598903469741344"><ele>2117.5799865722656</ele></trkpt><trkpt lat="46.58995043160394" lon="7.959920346736908"><ele>2117.209991455078</ele></trkpt><trkpt lat="46.58993043145165" lon="7.959980346728116"><ele>2116.8499755859375</ele></trkpt><trkpt lat="46.58991043129936" lon="7.960050346329808"><ele>2116.1699829101562</ele></trkpt><trkpt lat="46.589900431223214" lon="7.960080346558243"><ele>2115.689971923828</ele></trkpt><trkpt lat="46.589860431384295" lon="7.9601203463971615"><ele>2114.8499755859375</ele></trkpt><trkpt lat="46.58981043100357" lon="7.960170346312225"><ele>2114.0399780273438</ele></trkpt><trkpt lat="46.58975043101236" lon="7.960230346303433"><ele>2113.3199768066406</ele></trkpt><trkpt lat="46.58973043086007" lon="7.960250345990062"><ele>2113.0699768066406</ele></trkpt><trkpt lat="46.589670430868864" lon="7.960280345752835"><ele>2112.1799926757812</ele></trkpt><trkpt lat="46.58964043064043" lon="7.960300345905125"><ele>2111.72998046875</ele></trkpt><trkpt lat="46.589590430259705" lon="7.960380345582962"><ele>2110.6299743652344</ele></trkpt><trkpt lat="46.589530430268496" lon="7.96044034557417"><ele>2109.5599975585938</ele></trkpt><trkpt lat="46.58947042981163" lon="7.960460345260799"><ele>2108.6399841308594</ele></trkpt><trkpt lat="46.58940042974427" lon="7.960450345184654"><ele>2108.0599975585938</ele></trkpt><trkpt lat="46.589360429905355" lon="7.960430345032364"><ele>2107.8699951171875</ele></trkpt><trkpt lat="46.58931042999029" lon="7.960430345032364"><ele>2107.689971923828</ele></trkpt><trkpt lat="46.58927042968571" lon="7.960450345184654"><ele>2107.529998779297</ele></trkpt><trkpt lat="46.58924042992294" lon="7.9604803449474275"><ele>2107.3799743652344</ele></trkpt><trkpt lat="46.589170429389924" lon="7.960610345005989"><ele>2105.189971923828</ele></trkpt><trkpt lat="46.5891204290092" lon="7.960650344379246"><ele>2103.8499755859375</ele></trkpt><trkpt lat="46.589090428780764" lon="7.960670344531536"><ele>2102.959991455078</ele></trkpt><trkpt lat="46.589010428637266" lon="7.96070034429431"><ele>2101.3099975585938</ele></trkpt><trkpt lat="46.58881042758003" lon="7.960740343667567"><ele>2097.4099731445312</ele></trkpt><trkpt lat="46.58868042752147" lon="7.960790343116969"><ele>2095.509979248047</ele></trkpt><trkpt lat="46.58864042721689" lon="7.960800343193114"><ele>2094.949981689453</ele></trkpt><trkpt lat="46.58861042698845" lon="7.960800343193114"><ele>2094.4299926757812</ele></trkpt><trkpt lat="46.588570427149534" lon="7.960790343116969"><ele>2093.9299926757812</ele></trkpt><trkpt lat="46.588510426692665" lon="7.960760342888534"><ele>2093.029998779297</ele></trkpt><trkpt lat="46.588470426853746" lon="7.960740342736244"><ele>2092.509979248047</ele></trkpt><trkpt lat="46.5883804266341" lon="7.960730342660099"><ele>2091.7899780273438</ele></trkpt><trkpt lat="46.58835042640567" lon="7.960720342583954"><ele>2091.449981689453</ele></trkpt><trkpt lat="46.58825042610988" lon="7.960670342668891"><ele>2090.6799926757812</ele></trkpt><trkpt lat="46.58821042627096" lon="7.960650342516601"><ele>2090.469970703125</ele></trkpt><trkpt lat="46.58804042590782" lon="7.960600342135876"><ele>2089.75</ele></trkpt><trkpt lat="46.58799042599276" lon="7.960550342220813"><ele>2089.6199951171875</ele></trkpt><trkpt lat="46.587940426077694" lon="7.96048034215346"><ele>2089.4199829101562</ele></trkpt><trkpt lat="46.58787042601034" lon="7.960330341942608"><ele>2088.5999755859375</ele></trkpt><trkpt lat="46.587820425629616" lon="7.960280342027545"><ele>2087.9299926757812</ele></trkpt><trkpt lat="46.5877804257907" lon="7.960240341722965"><ele>2087.269989013672</ele></trkpt><trkpt lat="46.58770042518154" lon="7.960240341722965"><ele>2086.1399841308594</ele></trkpt><trkpt lat="46.587590425275266" lon="7.960260341409594"><ele>2084.3699951171875</ele></trkpt><trkpt lat="46.58749042451382" lon="7.960260341409594"><ele>2082.759979248047</ele></trkpt><trkpt lat="46.58741042437032" lon="7.9602603409439325"><ele>2081.6399841308594</ele></trkpt><trkpt lat="46.58733042422682" lon="7.960250340867788"><ele>2080.2899780273438</ele></trkpt><trkpt lat="46.58722042385489" lon="7.960250340402126"><ele>2078.5899963378906</ele></trkpt><trkpt lat="46.58706042356789" lon="7.960250339936465"><ele>2076.4099731445312</ele></trkpt><trkpt lat="46.58690042281523" lon="7.96026034001261"><ele>2074.2899780273438</ele></trkpt><trkpt lat="46.58677042275667" lon="7.960320339538157"><ele>2072.8599853515625</ele></trkpt><trkpt lat="46.58664042269811" lon="7.960380339529365"><ele>2071.6799926757812</ele></trkpt><trkpt lat="46.586570422165096" lon="7.960420339368284"><ele>2071.1299743652344</ele></trkpt><trkpt lat="46.58655042247847" lon="7.960450339131057"><ele>2070.8999938964844</ele></trkpt><trkpt lat="46.58651042217389" lon="7.960420339368284"><ele>2070.269989013672</ele></trkpt><trkpt lat="46.5864104218781" lon="7.960350338835269"><ele>2069.3499755859375</ele></trkpt><trkpt lat="46.58628042181954" lon="7.960280338767916"><ele>2068.949981689453</ele></trkpt><trkpt lat="46.586210421752185" lon="7.960260339081287"><ele>2068.6499938964844</ele></trkpt><trkpt lat="46.58610042184591" lon="7.960260338615626"><ele>2067.8199768066406</ele></trkpt><trkpt lat="46.58605042146519" lon="7.960280338767916"><ele>2067.519989013672</ele></trkpt><trkpt lat="46.58597042132169" lon="7.960330338682979"><ele>2066.8899841308594</ele></trkpt><trkpt lat="46.58589042117819" lon="7.960420338436961"><ele>2065.72998046875</ele></trkpt><trkpt lat="46.58582042111084" lon="7.9605403379537165"><ele>2063.9099731445312</ele></trkpt><trkpt lat="46.58578042080626" lon="7.960620338097215"><ele>2063.219970703125</ele></trkpt><trkpt lat="46.585770420730114" lon="7.960670338012278"><ele>2062.939971923828</ele></trkpt><trkpt lat="46.58572042081505" lon="7.960670338012278"><ele>2062.8299865722656</ele></trkpt><trkpt lat="46.58568042051047" lon="7.960700337775052"><ele>2062.6399841308594</ele></trkpt><trkpt lat="46.5855704206042" lon="7.960810337681323"><ele>2062.0</ele></trkpt><trkpt lat="46.585500420536846" lon="7.9608903378248215"><ele>2061.5999755859375</ele></trkpt><trkpt lat="46.58545042015612" lon="7.960980337578803"><ele>2061.459991455078</ele></trkpt><trkpt lat="46.58545042062178" lon="7.960990337654948"><ele>2061.5</ele></trkpt><trkpt lat="46.58540042024106" lon="7.961090337950736"><ele>2061.189971923828</ele></trkpt><trkpt lat="46.58540042024106" lon="7.961090337950736"><ele>2061.199981689453</ele></trkpt><trkpt lat="46.58542042039335" lon="7.961190337780863"><ele>2061.199981689453</ele></trkpt><trkpt lat="46.58543042046949" lon="7.961210337933153"><ele>2060.939971923828</ele></trkpt><trkpt lat="46.58543042046949" lon="7.9612303376197815"><ele>2060.7899780273438</ele></trkpt></trkseg></trk></gpx>